address,pname,cityname,type,adname,name,location,lng,lat
玉贤街合贤集43号,湖北省,武汉市,ChineseFood,Caidian,Caidian合贤别院,"113.954434,30.496148",113.954434,30.496148
侏儒街道蟹湖大道266号,湖北省,武汉市,DrinkShop,Caidian,澜将军茶饮Caidian侏儒店,"113.846018,30.440399",113.846018,30.440399
蔡甸街道茂林街17号7门面,湖北省,武汉市,ChineseFood,Caidian,Caidian特色烧烤店,"114.042435,30.580378",114.042435,30.580378
L山镇银花巷3号,湖北省,武汉市,Bakery,Caidian,武汉市Caidian范记发糕,"114.012175,30.449365",114.012175,30.449365
同心路27号附8号,湖北省,武汉市,ChineseFood,Caidian,武汉市Caidian余记湘钵,"114.040313,30.580167",114.040313,30.580167
蔡甸服务区与武汉绕城高速交叉路口往西南约150米,湖北省,武汉市,DrinkShop,Caidian,蔡甸服务区猫屎咖啡(武汉绕城高速店),"114.046313,30.536106",114.046313,30.536106
湖北省武汉市Caidian三关路7号三元寺八区13栋1单元1楼1,湖北省,武汉市,ChineseFood,Caidian,蔡甸味壹牛骨头(总店),"114.147956,30.491083",114.147956,30.491083
后湖夜市南5号蔡甸牛骨头,湖北省,武汉市,ChineseFood,Caidian,后湖夜市蔡甸牛骨头,"114.151206,30.505127",114.151206,30.505127
汉马路8号附6号,湖北省,武汉市,Bakery,Caidian,米兰西饼生日蛋糕(Caidian店),"114.020154,30.581914",114.020154,30.581914
蔡甸街同馨花园第D栋5号,湖北省,武汉市,ChineseFood,Caidian,小四川酒楼(蔡甸总店),"114.039164,30.576532",114.039164,30.576532
武汉经济技术开发区后官湖大道257号1层18号房,湖北省,武汉市,DrinkShop,Caidian,霓裳茶舞(湖北武汉Caidian商学院店),"114.088796,30.458639",114.088796,30.458639
茂盛路12号,湖北省,武汉市,ChineseFood,Caidian,功夫煲仔(蔡甸店),"114.038535,30.577040",114.038535,30.57704
汉马路6号附2号,湖北省,武汉市,ForeignFood,Caidian,lucky top韩式炸鸡店(Caidian实验高级中学店),"114.019616,30.582100",114.019616,30.5821
新福路13号新福茂・中央广场3楼和4楼,湖北省,武汉市,ForeignFood,Caidian,怡星料理(蔡甸店),"114.032451,30.580758",114.032451,30.580758
枫树四路永久社区门面3-08号,湖北省,武汉市,ChineseFood,Caidian,8皓蟹钳(永久社区店),"114.110579,30.467174",114.110579,30.467174
文正街83号附3号,湖北省,武汉市,Bakery,Caidian,皇冠幸福里(蔡甸文正街店),"114.027015,30.583819",114.027015,30.583819
中法生态示范城新天小区14栋18-20号商铺,湖北省,武汉市,ChineseFood,Caidian,臻味小馆(新天小区店),"114.126312,30.554830",114.126312,30.55483
文化路罗家山小区10栋7号楼,湖北省,武汉市,ChineseFood,Caidian,重庆火锅鱼庄(罗家山小区店),"114.021400,30.571961",114.0214,30.571961
柏林街与济民路交叉口东20米,湖北省,武汉市,Bakery,Caidian,幸福蛋糕,"113.982963,30.582301",113.982963,30.582301
武汉市经济技术开发区万达广场B区S4栋1-2层G126号房,湖北省,武汉市,ChineseFood,Caidian,烫锅鲜(经开万达店),"114.174702,30.506028",114.174702,30.506028
经济技术开发区东风大道111号万达广场F3,湖北省,武汉市,ForeignFood,Caidian,九田家黑牛烤肉料理(万达广场经开店),"114.172921,30.506444",114.172921,30.506444
后官湖大道与全力二路交叉口东260米,湖北省,武汉市,ChineseFood,Caidian,步步云(薛峰社区北区店),"114.093482,30.460053",114.093482,30.460053
柏泉茅庙集150号,湖北省,武汉市,ForeignFood,Dongxihu,武汉市Dongxihu麦兜炸鸡汉堡,"114.123511,30.728486",114.123511,30.728486
宏图大道武汉客厅卓尔大都会二楼,湖北省,武汉市,ChineseFood,Dongxihu,武汉市Dongxihu贤哥鸡公煲,"114.278218,30.671283",114.278218,30.671283
东西湖大道与走新路交叉口西60米,湖北省,武汉市,ChineseFood,Dongxihu,武汉市Dongxihu走马岭第一家餐馆,"114.028538,30.650912",114.028538,30.650912
三秀路特1号,湖北省,武汉市,ChineseFood,Dongxihu,阿凡提烧烤东西湖直营店,"114.145834,30.618401",114.145834,30.618401
望丰路与吴祁街交叉口南60米,湖北省,武汉市,ChineseFood,Dongxihu,襄阳牛杂面(武汉Dongxihu),"114.139769,30.624629",114.139769,30.624629
农场场部湖北纽兰药业有限公司第9幢1层,湖北省,武汉市,ChineseFood,Dongxihu,大汗烤全羊,"114.142605,30.639901",114.142605,30.639901
田园南路与三秀路交叉口西80米,湖北省,武汉市,ForeignFood,Dongxihu,禾S日式咖喱饭(东西湖店),"114.144956,30.620183",114.144956,30.620183
金山大道1239号东西湖万达广场F4,湖北省,武汉市,DrinkShop,Dongxihu,Costa Coffee(武汉东西湖万达广场店),"114.178575,30.637649",114.178575,30.637649
东吴大道888号东西湖中心广场1F,湖北省,武汉市,DrinkShop,Dongxihu,星巴克(武汉东西湖中心广场店),"114.138289,30.623419",114.138289,30.623419
马池中路庭瑞新汉口商业街39号商铺,湖北省,武汉市,ForeignFood,Dongxihu,苍井外带寿司(金银湖店),"114.223000,30.657112",114.223,30.657112
环湖中路182号武汉轻工大学金银湖校区,湖北省,武汉市,ChineseFood,Dongxihu,金湖餐厅,"114.222823,30.653832",114.222823,30.653832
庭瑞新汉口中百仓储入口旁,湖北省,武汉市,Bakery,Dongxihu,仟吉(庭瑞新汉口店),"114.224763,30.658068",114.224763,30.658068
金银湖南街裕亚银湖城南苑1栋9号,湖北省,武汉市,ChineseFood,Dongxihu,勺艺堂(金银湖店),"114.201140,30.628181",114.20114,30.628181
万达广场东西湖店一楼1033号商铺红跑车,湖北省,武汉市,Bakery,Dongxihu,红跑车(万达店),"114.178798,30.638145",114.178798,30.638145
东吴大道与吴西路交叉口西100米,湖北省,武汉市,ChineseFood,Dongxihu,程记油焖大虾蒜蓉虾,"114.129704,30.625085",114.129704,30.625085
金银湖街马池路南汀香以东银湖九号B座栋一层商,湖北省,武汉市,ChineseFood,Dongxihu,帝一牛火锅(银湖九号店),"114.220532,30.649484",114.220532,30.649484
环湖路57号,湖北省,武汉市,ChineseFood,Dongxihu,万家灯火(金银湖店),"114.204816,30.670232",114.204816,30.670232
金山大道1239号东西湖万达广场1层1052号商铺,湖北省,武汉市,DrinkShop,Dongxihu,星巴克(武汉东西湖万达店),"114.177518,30.637744",114.177518,30.637744
环湖路与金山大道交叉口东西湖万达广场,湖北省,武汉市,ForeignFood,Dongxihu,禾一善料理(武汉东西湖万达广场店),"114.177710,30.637817",114.17771,30.637817
马池中路金湖苑,湖北省,武汉市,Bakery,Dongxihu,皇家蛋糕(金银湖店),"114.218931,30.658419",114.218931,30.658419
大泽・中心广场综合体第1层11号商铺,湖北省,武汉市,ChineseFood,Dongxihu,小食候湘(吴家山店),"114.137929,30.623175",114.137929,30.623175
金山大道祥生柏景湾小区第A2栋1层A2号,湖北省,武汉市,ChineseFood,Dongxihu,老四川餐厅(环湖路),"114.167182,30.648706",114.167182,30.648706
二桥街赫山社区十里玫瑰H3-5号楼7号1楼商铺,湖北省,武汉市,ChineseFood,Hanyang,武汉市Hanyang虾烤王(创始人店),"114.220043,30.565208",114.220043,30.565208
惠民苑黄金口岸106栋1栋2号商铺,湖北省,武汉市,ChineseFood,Hanyang,兄弟酒家(武汉Hanyang),"114.170291,30.587076",114.170291,30.587076
万科・汉阳国际B地块3栋1层商1号房0-3,湖北省,武汉市,ChineseFood,Hanyang,刘师傅面馆(万科汉阳国际B区店),"114.193825,30.546741",114.193825,30.546741
井岗村50号归元装饰材料市场内A70,湖北省,武汉市,ChineseFood,Hanyang,港港式滑蛋(Hanyang店),"114.256360,30.545851",114.25636,30.545851
郭茨口二桥路特1号汉江世纪星城1层,湖北省,武汉市,ChineseFood,Hanyang,美味故事特色餐厅(汉阳店),"114.212191,30.566138",114.212191,30.566138
芳草路99号纽宾凯宴会中心,湖北省,武汉市,ChineseFood,Hanyang,纽宾凯宴会中心(汉阳店),"114.204520,30.531776",114.20452,30.531776
汉阳大道408号万科未来中心6楼(五里墩地铁站C口旁),湖北省,武汉市,ForeignFood,Hanyang,仙人寿司(汉阳万科店),"114.244483,30.553210",114.244483,30.55321
玫瑰街3-610号,湖北省,武汉市,ChineseFood,Hanyang,外婆柴火灶(汉阳总店),"114.219344,30.565379",114.219344,30.565379
鹦鹉巷子62号,湖北省,武汉市,ChineseFood,Hanyang,禾火海鲜烧烤(汉阳店),"114.267545,30.542444",114.267545,30.542444
龙阳大道与玫瑰街交叉口北60米,湖北省,武汉市,ChineseFood,Hanyang,鲜牛自助火锅,"114.211598,30.566021",114.211598,30.566021
龙阳湖北路武汉摩尔城B1-058/059/060/061,湖北省,武汉市,Bakery,Hanyang,v禾Uhealth(汉阳摩尔城店),"114.207289,30.559158",114.207289,30.559158
归元寺路与翠微路交叉口西北80米,湖北省,武汉市,ChineseFood,Hanyang,老汉阳热干面馆,"114.260616,30.546311",114.260616,30.546311
龙兴西街9-8商铺(龙阳村地铁站D口步行490米),湖北省,武汉市,ChineseFood,Hanyang,川湘菜馆(汉阳人信汇天悦店),"114.202257,30.550985",114.202257,30.550985
四新大道608号武汉汉阳万达广场F3,湖北省,武汉市,DrinkShop,Hanyang,瑞幸咖啡(汉阳万达广场店),"114.201259,30.530313",114.201259,30.530313
汉阳大道与建园路交叉口东南60米(孟家铺地铁站A口旁),湖北省,武汉市,ChineseFood,Hanyang,鹏记热干面(汉阳大道店),"114.173405,30.564438",114.173405,30.564438
汉阳大道139号人信汉商银座DE座地上第二层,湖北省,武汉市,ForeignFood,Hanyang,韩膳宫炭火烤肉,"114.267556,30.549213",114.267556,30.549213
龙阳大道58号人信汇,湖北省,武汉市,DrinkShop,Hanyang,一品豆花(人信汇汉阳店),"114.205002,30.551656",114.205002,30.551656
武汉轨道交通4号线汉阳火车站HYHCZ4-0号,湖北省,武汉市,Bakery,Hanyang,尚酥坊中式糕点(汉阳火车站店),"114.253048,30.551569",114.253048,30.551569
玫瑰南街17号尚品520足道旁边,湖北省,武汉市,Bakery,Hanyang,慕喜客私房蛋糕(汉阳店),"114.205760,30.565092",114.20576,30.565092
武汉地铁4号线匠心汇王家湾地铁站wjw3-13号商业街内J口43,湖北省,武汉市,ChineseFood,Hanyang,荆州沙市女人街串串(汉阳王家湾店),"114.210996,30.562529",114.210996,30.562529
五龙路60号名流公馆NK4地块4栋1层,湖北省,武汉市,ForeignFood,Hanyang,一嘉S饭鳗鱼牛S(武汉汉阳店),"114.250133,30.539610",114.250133,30.53961
四新中央生活区1幢1层104号房,湖北省,武汉市,ChineseFood,Hanyang,羊聚现煮鲜羊汤(汉阳总店),"114.223886,30.521303",114.223886,30.521303
四新大道606号新城阳光国际广场(C地块)1、2栋1-3层商业号武汉汉阳万达广场3F层3017、3018号商铺,湖北省,武汉市,ForeignFood,Hanyang,快乐爱斯米(汉阳万达店),"114.200572,30.530328",114.200572,30.530328
汉阳万达广场3楼3050-3051号,湖北省,武汉市,ChineseFood,Hanyang,辣叁成烧菜火锅(汉阳万达店)(暂停营业),"114.201569,30.529531",114.201569,30.529531
朱家山路圣特立・国际花园B区-2期,湖北省,武汉市,ChineseFood,Hannan,一撮毛汉南店,"114.080233,30.316135",114.080233,30.316135
汉南大道992号,湖北省,武汉市,ChineseFood,Hannan,巴九门老火锅(汉南店),"114.088185,30.327174",114.088185,30.327174
汉南大道654号,湖北省,武汉市,ChineseFood,Hannan,徐记麻辣烫(汉南店),"114.085378,30.312395",114.085378,30.312395
汉南大道1253号,湖北省,武汉市,Bakery,Hannan,QQ饼屋(汉南大道店),"114.087624,30.326642",114.087624,30.326642
汉南大道311附15附近,湖北省,武汉市,Bakery,Hannan,广隆蛋挞王(汉南大道店),"114.082384,30.308954",114.082384,30.308954
纱帽街道汉南大道264号洪湖一绝,湖北省,武汉市,ChineseFood,Hannan,洪湖一绝(汉南店),"114.080155,30.305061",114.080155,30.305061
百花街234号,湖北省,武汉市,DrinkShop,Hannan,1点点(汉南店),"114.082353,30.307553",114.082353,30.307553
纱帽街银莲路汉南世纪购物广场1层A48室,湖北省,武汉市,ForeignFood,Hannan,韩式炸鸡啤酒,"114.079852,30.307798",114.079852,30.307798
农垦街122号,湖北省,武汉市,ChineseFood,Hannan,醉八仙(汉南店),"114.084470,30.325002",114.08447,30.325002
纱帽大道武商量贩1层,湖北省,武汉市,Bakery,Hannan,皇冠幸福里(汉南纱帽店),"114.082971,30.309477",114.082971,30.309477
百花街236号书亦烧仙草,湖北省,武汉市,DrinkShop,Hannan,书亦烧仙草(武汉百花街店),"114.082346,30.307624",114.082346,30.307624
月亮湾西路圣特立一期7幢1层10室,湖北省,武汉市,ChineseFood,Hannan,南北凤猪肚鸡餐馆(圣特立国际花园A区店),"114.080815,30.317148",114.080815,30.317148
马影河大道碧桂园酒店商业街3号楼114号门面,湖北省,武汉市,ChineseFood,Hannan,陈记公安牛肉鱼杂(武汉碧桂园风情商业街店),"114.087273,30.351167",114.087273,30.351167
汉南大道488号沪上阿姨,湖北省,武汉市,DrinkShop,Hannan,沪上阿姨(汉南店),"114.083458,30.309053",114.083458,30.309053
金河北路与永清路交叉口西南360米,湖北省,武汉市,ChineseFood,Hannan,平账饺子馆,"114.054129,30.345452",114.054129,30.345452
朱家山路2号,湖北省,武汉市,DrinkShop,Hannan,吾饮良品(圣特立店),"114.080071,30.316726",114.080071,30.316726
纱帽街滨江路528号,湖北省,武汉市,ChineseFood,Hannan,农家山庄(滨江路),"114.088274,30.310117",114.088274,30.310117
汉南大道281号赞宏购物广场F1,湖北省,武汉市,ChineseFood,Hannan,鑫艾鑫菜馆(纱帽店),"114.080825,30.309172",114.080825,30.309172
长航蓝晶国际7号楼附楼栋1-2层1层10室,湖北省,武汉市,Bakery,Hongshan,武汉市Hongshan三个桔子烘焙店,"114.418681,30.495877",114.418681,30.495877
珞珈山88号中国兰州拉面,湖北省,武汉市,ChineseFood,Hongshan,武汉市Hongshan清园祥拉面馆,"114.355914,30.531654",114.355914,30.531654
关山大道金地太阳城B一、4门面,湖北省,武汉市,ChineseFood,Hongshan,武汉市Hongshan乡里乡亲餐厅(金地・太阳城店),"114.411913,30.491178",114.411913,30.491178
青菱街道东澜岸广场2栋2楼,湖北省,武汉市,ChineseFood,Hongshan,武汉市Hongshan烤德上芳芳烤鸭店,"114.263205,30.432377",114.263205,30.432377
雄楚大道268号湖北出版文化城内东南角有图书城批发市场外围临街商铺19号门面,湖北省,武汉市,DrinkShop,Hongshan,武汉市Hongshan梨念奶茶店,"114.343485,30.506444",114.343485,30.506444
东湖新技术开发区高新大道666号光谷生物城创新基地E区S3-104,湖北省,武汉市,ChineseFood,Hongshan,小菜一碟(武汉Hongshan),"114.480409,30.481859",114.480409,30.481859
建安街与巡司河西路交叉口西200米,湖北省,武汉市,ChineseFood,Hongshan,正宗南京灌汤小笼包,"114.306216,30.505447",114.306216,30.505447
保利公园九里北区巡司河西路114号,湖北省,武汉市,DrinkShop,Hongshan,十三町食品科技武汉创投体验中心(Hongshan南湖保利公园九里北区店),"114.308218,30.509835",114.308218,30.509835
东湖旅游风景区先锋综合市场4-02,湖北省,武汉市,DrinkShop,Hongshan,古茗(落雁路店),"114.429636,30.588963",114.429636,30.588963
雄楚大道268号湖北出版文化城内东南角有图书城批发市场外围临街商铺26号门面,湖北省,武汉市,ChineseFood,Hongshan,湘味多・盖码饭(洪山店),"114.344141,30.507693",114.344141,30.507693
光谷华城新都823号,湖北省,武汉市,Bakery,Hongshan,甜蜜π创意手工生日蛋糕(洪山店),"114.394188,30.500424",114.394188,30.500424
白沙洲大道张家湾武昌工学院建材路48号,湖北省,武汉市,Bakery,Hongshan,帝冠蛋糕(楚天帝冠a店),"114.283025,30.487389",114.283025,30.487389
珞狮路10号附6号(小洪山地铁站A口步行500米),湖北省,武汉市,ChineseFood,Hongshan,聚贤阁酸汤鱼(荣泰小区店),"114.355115,30.532092",114.355115,30.532092
友谊大道1387号,湖北省,武汉市,ChineseFood,Hongshan,小四川江湖菜,"114.413968,30.620501",114.413968,30.620501
东湖新技术开发区雄庄路阳光尚东2-3栋12层,湖北省,武汉市,ChineseFood,Hongshan,金港湾大酒店(雄楚大道店),"114.405129,30.495251",114.405129,30.495251
喻家山南路与西三路交叉口西140米,湖北省,武汉市,ChineseFood,Hongshan,翠园,"114.408370,30.518708",114.40837,30.518708
狮子山街李家墩特1号(湖工大地铁站A口步行460米),湖北省,武汉市,ChineseFood,Hongshan,湖北工业大学北区食堂,"114.311102,30.484869",114.311102,30.484869
广发路113号附38号(广埠屯地铁站K口步行420米),湖北省,武汉市,ForeignFood,Hongshan,大泽屋咖喱,"114.364471,30.528047",114.364471,30.528047
鲁磨路388号中国地质大学北区,湖北省,武汉市,ChineseFood,Hongshan,中国地质大学北区一食堂,"114.399128,30.527447",114.399128,30.527447
黄家湖西路2号武汉科技大学黄家湖校区家属附1幢1号,湖北省,武汉市,ChineseFood,Hongshan,武汉科技大学黄家湖校区南园餐厅,"114.263453,30.437831",114.263453,30.437831
文华学院创新创业基地一楼中部,湖北省,武汉市,DrinkShop,Hongshan,红枫咖啡,"114.440803,30.494724",114.440803,30.494724
虎泉街247号-16,湖北省,武汉市,ChineseFood,Hongshan,潜江小李子(虎泉店),"114.375637,30.508490",114.375637,30.50849
欢乐大道(铁机路地铁站A口步行180米),湖北省,武汉市,ChineseFood,Hongshan,状元甲(欢乐大道店),"114.367750,30.582852",114.36775,30.582852
软件园中路光谷E城E2栋1层,湖北省,武汉市,DrinkShop,Hongshan,瑞幸咖啡(光谷软件园E区店),"114.402346,30.476503",114.402346,30.476503
东方红村东方雅园三期B-5栋1层2-3号商铺,湖北省,武汉市,Bakery,Hongshan,幸福西饼蛋糕(青山店),"114.402692,30.614241",114.402692,30.614241
鉴湖路与洪达巷交叉口南120米,湖北省,武汉市,ForeignFood,Hongshan,金智茵(鸿岭花园东区店),"114.342158,30.518186",114.342158,30.518186
梳子桥路与步行街南路交叉路口光谷法国风情街一层H3107,湖北省,武汉市,ChineseFood,Hongshan,木屋烧烤(光谷店),"114.411526,30.500084",114.411526,30.500084
青菱乡黄家湖福星惠誉东澜岸广场2号楼3楼,湖北省,武汉市,ChineseFood,Hongshan,蜀滋香鲜鱼火锅(黄家湖店),"114.263472,30.432241",114.263472,30.432241
古田路19号江湾国际二期E栋/单元1层商号,湖北省,武汉市,ChineseFood,Qiaokou,武汉市民Qiaokou独道餐厅,"114.193866,30.595882",114.193866,30.595882
张竹路9号华生汉口城市广场三期南2附楼/单元一层.3,湖北省,武汉市,ChineseFood,Qiaokou,武汉市Qiaokou稻田园餐饮店,"114.174249,30.620846",114.174249,30.620846
古田二路39号附144号,湖北省,武汉市,DrinkShop,Qiaokou,武汉市Qiaokou菲喝不渴DrinkShop,"114.192445,30.595185",114.192445,30.595185
解放大道358号,湖北省,武汉市,ChineseFood,Qiaokou,民间瓦罐汤(武汉Qiaokou),"114.244178,30.575215",114.244178,30.575215
多福路商城北门旁(汉正街地铁站A口步行280米),湖北省,武汉市,DrinkShop,Qiaokou,吾饮良品(Qiaokou长堤街店),"114.276235,30.569752",114.276235,30.569752
京汉大道308号(~口路地铁站A口步行190米),湖北省,武汉市,ChineseFood,Qiaokou,夜猫子小黄鱼(~口路店),"114.252815,30.571744",114.252815,30.571744
中山大道25附9号(第三人民医院对面),湖北省,武汉市,Bakery,Qiaokou,小李发糕(~口店),"114.254050,30.569799",114.25405,30.569799
长丰村城中村改造K8地块幢1层商号、1幢1层商号,湖北省,武汉市,ChineseFood,Qiaokou,李八哥成都石井火锅(~口店),"114.207454,30.621279",114.207454,30.621279
京汉大道668号武汉恒隆广场F4,湖北省,武汉市,ForeignFood,Qiaokou,争鲜回转寿司(~口恒隆店),"114.273305,30.578421",114.273305,30.578421
古田四路云鹤小区13号(藤原咖喱饭旁边),湖北省,武汉市,ForeignFood,Qiaokou,金在石韩式拌饭(~口店),"114.220726,30.603088",114.220726,30.603088
古田路19号江湾国际二期第B幢/单元2层商号,湖北省,武汉市,Bakery,Qiaokou,米兰西饼生日蛋糕(~口店),"114.191351,30.593799",114.191351,30.593799
古田四路南区402栋裙房1层7号,湖北省,武汉市,ForeignFood,Qiaokou,首尔欧巴炸鸡(~口店),"114.221939,30.605192",114.221939,30.605192
营房路8号,湖北省,武汉市,ChineseFood,Qiaokou,新疆艾力美味烤肉王(~口店),"114.251530,30.578257",114.25153,30.578257
汉口西园东1门南50米,湖北省,武汉市,ChineseFood,Qiaokou,方世私房菜(~口店),"114.201918,30.602533",114.201918,30.602533
凯德西城B1层B1-53,湖北省,武汉市,DrinkShop,Qiaokou,古茗(~口凯德西城店),"114.194624,30.597767",114.194624,30.597767
仁寿路33号(太平洋地铁站A口步行470米),湖北省,武汉市,ChineseFood,Qiaokou,涛涛甲鱼馆(仁寿社区店),"114.243998,30.574565",114.243998,30.574565
~口路185号(~口路地铁站A口步行410米),湖北省,武汉市,ChineseFood,Qiaokou,和鸣宴,"114.251504,30.574761",114.251504,30.574761
利济北路151号附7号,湖北省,武汉市,ForeignFood,Qiaokou,荞鳗屋(利北社区店),"114.267875,30.577066",114.267875,30.577066
解放大道和长丰大道交汇处的武汉轻轨交通1号线二期舵落口站配套P+R综合楼门面1楼8号门面,湖北省,武汉市,ChineseFood,Qiaokou,小厨人家,"114.168061,30.610765",114.168061,30.610765
宝丰街66号附35号,湖北省,武汉市,DrinkShop,Qiaokou,比邻咖啡(利北社区店),"114.267371,30.577723",114.267371,30.577723
电源小区东南门旁(宗关地铁站A3口步行380米),湖北省,武汉市,Bakery,Qiaokou,美佳禾蛋糕,"114.227148,30.583606",114.227148,30.583606
中山大道1号越秀・星汇云锦,湖北省,武汉市,ForeignFood,Qiaokou,Homie活力轻食,"114.249338,30.569698",114.249338,30.569698
汉中路166-2号,湖北省,武汉市,ChineseFood,Qiaokou,开源酒家(存仁社区店),"114.269972,30.566373",114.269972,30.566373
建设大道387号附近,湖北省,武汉市,ChineseFood,Qiaokou,粥饼(营北社区店),"114.246579,30.585459",114.246579,30.585459
汉兴养老・阳光医院东南门西南100米,湖北省,武汉市,Bakery,Qiaokou,多麦(解放社区店),"114.248786,30.575833",114.248786,30.575833
一清路143号,湖北省,武汉市,ChineseFood,Qiaokou,乐山麻辣烫(一清路店),"114.154193,30.622215",114.154193,30.622215
江夏服务区东南侧,湖北省,武汉市,ChineseFood,Jiangxia,江夏服务区餐厅,"114.396792,30.357134",114.396792,30.357134
武汉绕城高速江夏服务区,湖北省,武汉市,ChineseFood,Jiangxia,江夏服务区老龚家牛肉面,"114.395055,30.358618",114.395055,30.358618
明星小区一路大花岭小区A7栋西4通,湖北省,武汉市,Bakery,Jiangxia,武汉市Jiangxia十月烘焙店,"114.311254,30.416830",114.311254,30.41683
富士康西路与流芳一路交叉口南20米,湖北省,武汉市,ChineseFood,Jiangxia,武汉市Jiangxia志峰餐饮店,"114.448081,30.434349",114.448081,30.434349
大花岭东区D5栋东2通,湖北省,武汉市,DrinkShop,Jiangxia,小滋润Jiangxia大花岭店,"114.312426,30.417304",114.312426,30.417304
兴新街28号(纸坊大街地铁站A口步行140米),湖北省,武汉市,DrinkShop,Jiangxia,武汉市Jiangxia冰粉籽冷饮店,"114.323085,30.346900",114.323085,30.3469
大桥产业园大桥村还建小区十三号楼一楼1-2门店,湖北省,武汉市,ChineseFood,Jiangxia,武汉市Jiangxia罗大师小吃店,"114.318891,30.372034",114.318891,30.372034
大花岭红花路长泰花园2号门面,湖北省,武汉市,ChineseFood,Jiangxia,武汉市Jiangxia游昌益小吃店,"114.311477,30.403154",114.311477,30.403154
武汉东湖新技术开发区未来科技城A4栋1号门面,湖北省,武汉市,ChineseFood,Jiangxia,沙县小吃(武汉Jiangxia),"114.538258,30.495840",114.538258,30.49584
兴新街1附5号(纸坊大街地铁站G口步行290米),湖北省,武汉市,Bakery,Jiangxia,芝士工坊(Jiangxia总店),"114.326738,30.347592",114.326738,30.347592
齐心大道9号附7号,湖北省,武汉市,ChineseFood,Jiangxia,乐里烧烤江夏店,"114.335580,30.351972",114.33558,30.351972
北华街公园仕家4栋1号门面,湖北省,武汉市,ForeignFood,Jiangxia,MIMIYOYO韩国炸鸡(江夏店),"114.325930,30.355719",114.32593,30.355719
江夏大道与梅南北街交叉口北180米,湖北省,武汉市,ChineseFood,Jiangxia,老五烧烤,"114.373567,30.419148",114.373567,30.419148
江夏天地,湖北省,武汉市,Bakery,Jiangxia,快乐烘焙(江夏天地店),"114.319353,30.394035",114.319353,30.394035
纸坊街文华路37号中百广场江夏店F1,湖北省,武汉市,DrinkShop,Jiangxia,书亦烧仙草(江夏中百广场店),"114.321398,30.364811",114.321398,30.364811
中百广场五楼,湖北省,武汉市,ChineseFood,Jiangxia,潮牛壹号鲜牛肉火锅江夏中百店,"114.321019,30.364181",114.321019,30.364181
沙羡街东62号旭辉江夏府,湖北省,武汉市,ChineseFood,Jiangxia,淮南二哥家牛肉汤(旭辉江夏府店),"114.333872,30.355478",114.333872,30.355478
江夏大道128号附1号(中央大街城市生活摩尔1号楼1层1A-17),湖北省,武汉市,Bakery,Jiangxia,皇冠幸福里(江夏大道店),"114.329514,30.354733",114.329514,30.354733
庙山产业园江夏大道14号广信万汇城商业A区一层9,湖北省,武汉市,ForeignFood,Jiangxia,N多寿司(理工学院店),"114.373282,30.418519",114.373282,30.418519
民族大道307号中南财经政法大学东门金谷国际酒店3楼,湖北省,武汉市,ChineseFood,Jiangxia,巨浪美食(民族大道),"114.392936,30.472347",114.392936,30.472347
"江夏大道与北华街交汇处九全嘉国际广场1层129,2层224、225",湖北省,武汉市,ForeignFood,Jiangxia,豪客来牛排(九全嘉广场店),"114.330258,30.358768",114.330258,30.358768
谭新培路17号万豪世纪天街A1-1层12商铺,湖北省,武汉市,Bakery,Jiangxia,仟吉(江夏万豪天街店),"114.326501,30.367498",114.326501,30.367498
纸坊街四贤路97号,湖北省,武汉市,DrinkShop,Jiangxia,remember记得咖啡,"114.316419,30.356153",114.316419,30.356153
江夏大道158号环保局对面,湖北省,武汉市,ChineseFood,Jiangxia,大众餐馆(武汉Jiangxia),"114.333142,30.360877",114.333142,30.360877
文化大道中百广场2F(江夏店),湖北省,武汉市,DrinkShop,Jiangxia,瑞幸咖啡(中百广场江夏店),"114.321602,30.364781",114.321602,30.364781
中南大道特1附2号附近,湖北省,武汉市,ChineseFood,Jiangxia,麻辣无限(政院小区店),"114.384536,30.476402",114.384536,30.476402
东湖新技术开发区两湖大道水蓝路津发小区第17号商铺,湖北省,武汉市,DrinkShop,Jiangxia,长长久久咖啡馆(津发小区西区西北),"114.382245,30.470147",114.382245,30.470147
南湖时尚城K6栋二楼电梯口,湖北省,武汉市,ChineseFood,Jiangxia,江畔炉鱼(南湖时尚城店),"114.386262,30.476287",114.386262,30.476287
栗庙路栗庙新村541号,湖北省,武汉市,ChineseFood,Jiangxia,襄樊牛肉面馆(栗庙店),"114.422163,30.390088",114.422163,30.390088
天门墩路25号附45号(三眼桥地铁站D口步行180米),湖北省,武汉市,DrinkShop,Jianghan,武汉市Jianghan满逸咖啡馆,"114.277224,30.609129",114.277224,30.609129
姑嫂树12号南国北都广场(石桥地铁站F口步行430米),湖北省,武汉市,DrinkShop,Jianghan,武汉市Jianghan小南都奶茶店,"114.266428,30.626402",114.266428,30.626402
解放大道666号(中山公园地铁站A口步行370米),湖北省,武汉市,ChineseFood,Jianghan,武汉市Jianghan商奇烤鱼店,"114.268819,30.580097",114.268819,30.580097
Jianghan步行街中心百货5楼江南金草帽,湖北省,武汉市,ForeignFood,Jianghan,武汉市Jianghan江南金草帽韩式自助餐厅,"114.289516,30.581683",114.289516,30.581683
新华小路111号-附7号,湖北省,武汉市,ChineseFood,Jianghan,Jianghan新华小路111附5(30+小酒馆),"114.270397,30.593834",114.270397,30.593834
江汉二路2号,湖北省,武汉市,ChineseFood,Jianghan,武汉市Jianghan随心饮餐厅,"114.288089,30.580936",114.288089,30.580936
解放大道与精武路交汇处越秀国际金融汇四期十五幢商10,湖北省,武汉市,DrinkShop,Jianghan,武汉市Jianghan芝麻咖啡馆,"114.278867,30.585632",114.278867,30.585632
新湾二路54号,湖北省,武汉市,ChineseFood,Jianghan,武汉市Jianghan酒点整烤肉店,"114.246940,30.625399",114.24694,30.625399
三新横街18附13号(江汉路地铁站G口步行250米),湖北省,武汉市,ChineseFood,Jianghan,大盛烤脑花(Jianghan三新横街18附13),"114.288583,30.579388",114.288583,30.579388
万松街办事处万松横路22号,湖北省,武汉市,ChineseFood,Jianghan,一根面馆(武汉市Jianghan万松街阳光家园店),"114.262529,30.588250",114.262529,30.58825
汉兴街办事处姑嫂树路31号附1号,湖北省,武汉市,ChineseFood,Jianghan,欧阳辉酒家(Jianghan汉兴街和祥里社区店),"114.261847,30.629956",114.261847,30.629956
建设大道机施公寓1层商铺,湖北省,武汉市,Bakery,Jianghan,榴莲千层蛋糕坊(Jianghan万松街航空社区店),"114.259061,30.591147",114.259061,30.591147
银松路与红松巷交叉口西南40米,湖北省,武汉市,ChineseFood,Jianghan,原气轻食(Jianghan教育局教师公寓店),"114.271460,30.590583",114.27146,30.590583
妙墩路与妙墩横路交叉口西160米,湖北省,武汉市,Bakery,Jianghan,常青麦香园热干面(Jianghan万松街航空社区店),"114.259676,30.591532",114.259676,30.591532
江汉路万达c座110(江汉路地铁站出入口步行50米),湖北省,武汉市,ForeignFood,Jianghan,腾寿司(江汉路店),"114.292249,30.578488",114.292249,30.578488
新佳丽广场六楼扶手电梯口(江汉路地铁站G口步行80米),湖北省,武汉市,ForeignFood,Jianghan,西月山居(新佳丽店),"114.291063,30.578402",114.291063,30.578402
中山大道543号大汉口一楼(江汉路地铁站F口旁),湖北省,武汉市,Bakery,Jianghan,v禾Uhealth(江汉路店),"114.290809,30.579785",114.290809,30.579785
江汉路悦荟广场B座87号,湖北省,武汉市,ChineseFood,Jianghan,红宛麻辣香锅(江汉路店),"114.291537,30.577368",114.291537,30.577368
大汉口美食城2层(江汉路地铁站F口旁),湖北省,武汉市,ChineseFood,Jianghan,壹盏灯(江汉路店),"114.290638,30.579529",114.290638,30.579529
民生路195号大洋百货商场侧边对面地铁G出口190米,湖北省,武汉市,ForeignFood,Jianghan,牛也日式烧肉(江汉路店),"114.289521,30.576688",114.289521,30.576688
江汉路61号上海三联READWAY4楼(地铁c出口),湖北省,武汉市,ForeignFood,Jianghan,仙隐小鹿中Aの日料(江汉路三联店),"114.293356,30.578796",114.293356,30.578796
江汉三路2号(江汉路地铁站G口步行430米),湖北省,武汉市,ChineseFood,Jianghan,米奇林卤肉饭(前进五路),"114.287293,30.581273",114.287293,30.581273
交通路与花楼街交叉口北20米(江汉路地铁站出入口旁),湖北省,武汉市,ChineseFood,Jianghan,经典成都火锅(江汉路步行街店),"114.292765,30.578946",114.292765,30.578946
新华小路106号特1号,湖北省,武汉市,DrinkShop,Jianghan,古茗(武汉江汉万松园店),"114.269556,30.593534",114.269556,30.593534
武汉市Jianghan江汉路129号中心百货4楼,湖北省,武汉市,DrinkShop,Jianghan,田籽茶事(江汉路店),"114.289782,30.581826",114.289782,30.581826
江汉二路与江汉路步行街交叉口西南40米,湖北省,武汉市,ChineseFood,Jianghan,黄泰吉汉派炭火铜锅(江汉路总店),"114.289284,30.582247",114.289284,30.582247
香江花园8栋1层10室商网,湖北省,武汉市,Bakery,Jianghan,米琪诺生日蛋糕店(江汉店),"114.275955,30.615558",114.275955,30.615558
湖北省武汉市Jianghan汉兴街华安里社区复兴五村280号,湖北省,武汉市,DrinkShop,Jianghan,奶茶先生(江汉华安里店),"114.241375,30.617493",114.241375,30.617493
江汉北路109号1层-08,湖北省,武汉市,ChineseFood,Jianghan,汉煨老手艺煨汤专门店(江汉北路店),"114.279863,30.588379",114.279863,30.588379
江汉一路50-2号,湖北省,武汉市,DrinkShop,Jianghan,泰竺・老挝冰咖啡・泰式奶茶(江汉路店),"114.290320,30.581343",114.29032,30.581343
一元路15号附4号,湖北省,武汉市,DrinkShop,Jiang'an,武汉市Jiang'an无偶咖啡,"114.301877,30.593380",114.301877,30.59338
渣家左路94号-103(循礼门地铁站E口步行480米),湖北省,武汉市,Bakery,Jiang'an,武汉市Jiang'an艾思蛋糕店,"114.284245,30.588973",114.284245,30.588973
后湖大道66号A1号楼,湖北省,武汉市,ChineseFood,Jiang'an,武汉市Jiang'an栖月阁餐饮店,"114.276716,30.636045",114.276716,30.636045
金地京汉1903琅目商业街D-2D14商铺,湖北省,武汉市,DrinkShop,Jiang'an,Jiang'an波妮咖啡店,"114.291608,30.591543",114.291608,30.591543
中山大道与郝梦龄路交叉口东北40米,湖北省,武汉市,ForeignFood,Jiang'an,武汉市Jiang'an摇滚象餐饮店,"114.308612,30.605913",114.308612,30.605913
东立街东部购物公园青桔和木鱼,湖北省,武汉市,Bakery,Jiang'an,青桔和木鱼.新中式糕点.甜点东部购物公园Jiang'an店,"114.316056,30.624848",114.316056,30.624848
蔡锷路10号,湖北省,武汉市,ChineseFood,Jiang'an,川香园(Jiang'an店),"114.303082,30.590977",114.303082,30.590977
台北商城东南温馨路,湖北省,武汉市,ChineseFood,Jiang'an,小四川平价美食(武汉Jiang'an),"114.317186,30.641137",114.317186,30.641137
九万方保润小区东南门旁,湖北省,武汉市,ChineseFood,Jiang'an,海鲜烧烤(武汉Jiang'an),"114.290696,30.620115",114.290696,30.620115
百步亭花园景兰苑102栋3单元1层5室商铺,湖北省,武汉市,ChineseFood,Jiang'an,无名烧烤(武汉Jiang'an),"114.318412,30.660524",114.318412,30.660524
汉口花园一期A区3栋1层7室,湖北省,武汉市,ForeignFood,Jiang'an,缘禾米寿司(江岸店),"114.266638,30.631783",114.266638,30.631783
建设大道668号华润万象城L609商铺,湖北省,武汉市,ForeignFood,Jiang'an,争鲜回转寿司(江岸万象城店),"114.280077,30.599524",114.280077,30.599524
武汉万象城负一楼B103,湖北省,武汉市,Bakery,Jiang'an,泸溪河桃酥(江岸万象城店),"114.278640,30.598967",114.27864,30.598967
球场路武汉六中大门对面(苗栗路地铁站B口步行440米),湖北省,武汉市,ChineseFood,Jiang'an,鹏记(武汉六中店),"114.290893,30.602052",114.290893,30.602052
京汉大道856号,湖北省,武汉市,ForeignFood,Jiang'an,牛式炭火烧肉酒场(循礼门店),"114.287808,30.585883",114.287808,30.585883
马祖路12号,湖北省,武汉市,ForeignFood,Jiang'an,Casa Romero(高雄小区店),"114.287195,30.596651",114.287195,30.596651
惠济路41号,湖北省,武汉市,DrinkShop,Jiang'an,zS・Cafe(惠中社区北区店),"114.293764,30.612381",114.293764,30.612381
京汉大道1167号,湖北省,武汉市,DrinkShop,Jiang'an,CLOUDS(仁义社区店),"114.306829,30.607244",114.306829,30.607244
后湖街办事处兴业路海赋天韵23栋一楼二门,湖北省,武汉市,ChineseFood,Jiang'an,常青九村牛肉热干面,"114.306683,30.644608",114.306683,30.644608
劳动街31号,湖北省,武汉市,ForeignFood,Jiang'an,KO熊牛排手作意面,"114.297053,30.601881",114.297053,30.601881
后湖五路鼎盛华城,湖北省,武汉市,ForeignFood,Jiang'an,食堂私町外带寿司(鼎盛华城店),"114.299614,30.642578",114.299614,30.642578
二七路东部购物公园C32层,湖北省,武汉市,ChineseFood,Jiang'an,小四川酒楼(东部购物公园南),"114.316818,30.624129",114.316818,30.624129
钓台道与百秀街交叉口西南180米,湖北省,武汉市,ChineseFood,Huangpi,武汉市Huangpi人民医院食堂,"114.370969,30.888174",114.370969,30.888174
木兰山风景区铁石墩村包家湾41号,湖北省,武汉市,ChineseFood,Huangpi,Huangpi丰芳园农家乐,"114.389212,31.113056",114.389212,31.113056
盘龙城28街还建楼1栋16号,湖北省,武汉市,ChineseFood,Huangpi,Huangpi盘龙城邻里乡家常菜馆,"114.260961,30.716155",114.260961,30.716155
前川街道大南街247号,湖北省,武汉市,ChineseFood,Huangpi,武汉市Huangpi平继过桥米线店,"114.379977,30.872325",114.379977,30.872325
巨龙大道(名流人和天地),湖北省,武汉市,ChineseFood,Huangpi,Huangpi阿娘粑粑烤饼店,"114.277725,30.709217",114.277725,30.709217
巨龙大道08经典28号A13,湖北省,武汉市,Bakery,Huangpi,武汉市Huangpi滠口名嘉蛋糕店(08经典店),"114.295532,30.699161",114.295532,30.699161
横店街中兴街20号,湖北省,武汉市,Bakery,Huangpi,武汉市Huangpi横店艾美斯饼屋,"114.295076,30.801921",114.295076,30.801921
盘龙大道50号奥莱汇S-1栋10,湖北省,武汉市,ChineseFood,Huangpi,碗里有渔,"114.260840,30.728118",114.26084,30.728118
盘龙城佳海工业园K6栋1层12室,湖北省,武汉市,Bakery,Huangpi,梅花王蛋糕(武汉Huangpi),"114.241231,30.730932",114.241231,30.730932
前川街道向阳大道196号尚嘟茶饮,湖北省,武汉市,DrinkShop,Huangpi,尚嘟茶饮(武汉Huangpi),"114.366818,30.869691",114.366818,30.869691
盘龙城叶店还建楼18栋64号,湖北省,武汉市,ForeignFood,Huangpi,藤谷屋港式滑蛋饭(黄陂店),"114.263600,30.715716",114.2636,30.715716
前川街大南街239号,湖北省,武汉市,ForeignFood,Huangpi,奈良・日式咖喱(黄陂店),"114.380140,30.872150",114.38014,30.87215
前川大道与共和巷交叉口西南160米,湖北省,武汉市,ChineseFood,Huangpi,杨家匠黄陂三鲜,"114.371259,30.866057",114.371259,30.866057
百秀街98号,湖北省,武汉市,DrinkShop,Huangpi,古茗(黄陂百秀街店),"114.373403,30.879653",114.373403,30.879653
金都丽园中心金都街74号,湖北省,武汉市,ForeignFood,Huangpi,火狐狸韩式炸鸡(黄陂总店),"114.375455,30.873309",114.375455,30.873309
前川街黄陂大道155号,湖北省,武汉市,ChineseFood,Huangpi,贤掌柜牛肉面(黄陂前川店),"114.378609,30.880310",114.378609,30.88031
黄陂大道387号黄陂广场F4,湖北省,武汉市,ForeignFood,Huangpi,王妃意大利餐厅(黄陂广场店),"114.375722,30.880648",114.375722,30.880648
忠孝门与云架桥交叉口南220米,湖北省,武汉市,ChineseFood,Wuchang,Wuchang老兵之家(民主路店),"114.314266,30.543583",114.314266,30.543583
杨园街116号,湖北省,武汉市,ChineseFood,Wuchang,武汉市武昌医院西区食堂,"114.341272,30.602347",114.341272,30.602347
文明路192号,湖北省,武汉市,Bakery,Wuchang,武汉市Wuchang咔觅烘焙店,"114.295675,30.539968",114.295675,30.539968
张之洞路198号陆羽茶都二楼(复兴路地铁站F口旁),湖北省,武汉市,DrinkShop,Wuchang,武汉市Wuchang七碗茶坊,"114.301117,30.533061",114.301117,30.533061
中北路凯德1818B1/19/20,湖北省,武汉市,DrinkShop,Wuchang,武汉市Wuchang勇冠DrinkShop,"114.340094,30.552904",114.340094,30.552904
紫阳东路万金国际广场美食城负一楼A01档口,湖北省,武汉市,ChineseFood,Wuchang,武汉市Wuchang陈小宝水煮鱼经营部(万金国际广场店),"114.317467,30.532177",114.317467,30.532177
自由路与青龙巷交叉口东50米,湖北省,武汉市,ChineseFood,Wuchang,武汉第一锅弯弯(武昌司门口店),"114.303821,30.548459",114.303821,30.548459
中南路9号中商广场中南路F1(中南路地铁站C2口旁),湖北省,武汉市,ChineseFood,Wuchang,R香远m州牛肉面(武昌中商广场店),"114.332063,30.536734",114.332063,30.536734
风光村175号(兰州拉面馆旁边的巷子进来风光超市前面一点),湖北省,武汉市,ForeignFood,Wuchang,中韩熊石锅拌饭・辛拉面(武昌店),"114.376642,30.533770",114.376642,30.53377
中南路街街道民主一路72号紫沙金苑小区商铺109,湖北省,武汉市,Bakery,Wuchang,遇见・蛋先生网红蛋糕(武昌店),"114.320376,30.548453",114.320376,30.548453
民主路71号,湖北省,武汉市,ChineseFood,Wuchang,老宅藕香武昌鱼・传统藕汤湖北菜(黄鹤楼新店),"114.297919,30.546714",114.297919,30.546714
长虹桥39号(原37-2)伟业佳苑4栋一层6室格林童话蛋糕店,湖北省,武汉市,Bakery,Wuchang,格林童话生日蛋糕冰淇淋(武昌店),"114.310859,30.514535",114.310859,30.514535
珞珈山街办事处洪山路66号湖北省政协对面,湖北省,武汉市,ChineseFood,Wuchang,土家苑,"114.352707,30.545763",114.352707,30.545763
楚河汉街1号武汉中央文化旅游区-楚河汉街第二街区110号,湖北省,武汉市,DrinkShop,Wuchang,哈根达斯(汉街店),"114.340979,30.556742",114.340979,30.556742
烈士街8号(复兴路地铁站C2口步行240米),湖北省,武汉市,ChineseFood,Wuchang,哈尔滨餐厅(烈士街),"114.303097,30.535156",114.303097,30.535156
张之洞路151号泛悦汇1层85-88室,湖北省,武汉市,DrinkShop,Wuchang,星巴克臻选(武汉首义汇店),"114.304300,30.534558",114.3043,30.534558
张之洞路151号泛悦汇南区F2层2-23,湖北省,武汉市,ForeignFood,Wuchang,炙舍韩式烤肉(泛悦汇店),"114.304228,30.535049",114.304228,30.535049
昙华林路202号南国昙华林1楼,湖北省,武汉市,ForeignFood,Wuchang,江户前寿司(昙华林店),"114.315845,30.551511",114.315845,30.551511
Wuchang机关幼儿园西北门旁,湖北省,武汉市,ForeignFood,Wuchang,N多寿司(解放路店),"114.300919,30.550566",114.300919,30.550566
楚河南路汉街一街区汉街总部国际C座对面(小川料理汉街一店旁),湖北省,武汉市,ForeignFood,Wuchang,曼谷五巷,"114.345334,30.554108",114.345334,30.554108
张之洞路151号泛悦汇南区F1层1-97、1-101,湖北省,武汉市,DrinkShop,Wuchang,纸盒咖啡(泛悦汇店),"114.304649,30.534771",114.304649,30.534771
星海路星海虹城6号(小龟山地铁站B口步行320米),湖北省,武汉市,ChineseFood,Wuchang,星海壹号家宴餐厅,"114.330047,30.549800",114.330047,30.5498
彭刘杨路53号大富豪隔壁,湖北省,武汉市,ChineseFood,Wuchang,菜篮子餐厅(大成路店),"114.294951,30.543218",114.294951,30.543218
