id,parent,address,pname,cityname,type,typecode,shopinfo,childtype,adname,name,location,tel,lng,lat
B0FFLHVA44,[],洞庭街133号(明珠豪生酒店背后),湖北省,武汉市,餐饮服务;中餐厅;中餐厅,050100,0,[],江岸区,EAT ME,"114.303591,30.591046",17786579735,114.303591,30.591046
B001B0427B,B001B1BP6Z,公安路1号附4号,湖北省,武汉市,餐饮服务;中餐厅;四川菜(川菜),050102,1,320,江岸区,盛宏鑫四川鲜鱼馆(中城国际2期店),"114.301255,30.594346",13871017948,114.301255,30.594346
B001B0911C,[],蔡锷路35号(近解放电影院),湖北省,武汉市,餐饮服务;中餐厅;特色/地方风味餐厅,050118,1,[],江岸区,解放烧烤王(总店),"114.302035,30.591366",13986029006;15972983961;18971039807,114.302035,30.591366
B001B0A8KY,[],蔡锷路33号,湖北省,武汉市,餐饮服务;中餐厅;特色/地方风味餐厅,050118,0,[],江岸区,亮亮烧烤王(蔡锷路店),"114.302391,30.591177",13720394333;13886179841,114.302391,30.591177
B001B16GEI,[],三阳路1号,湖北省,武汉市,餐饮服务;中餐厅;海鲜酒楼,050119,0,[],江岸区,靓靓蒸虾(三阳路店),"114.307313,30.595782",[],114.307313,30.595782
B001B06VJ7,[],蔡锷路18号,湖北省,武汉市,餐饮服务;中餐厅;综合酒楼,050101,0,[],江岸区,蔡锷酒家,"114.302581,30.591215",027-82813189;13807151102,114.302581,30.591215
B001B0IZ5J,B001B0IZKJ,一元街办事处沿江大道182号明珠豪生大酒店,湖北省,武汉市,餐饮服务;外国餐厅;泰国/越南菜品餐厅,050206,0,202,江岸区,泰国金兰花旋转餐厅,"114.304144,30.590768",027-82776666,114.304144,30.590768
B0FFFA1IWA,[],蔡锷路31号(亮亮烧烤旁),湖北省,武汉市,餐饮服务;中餐厅;潮州菜,050123,0,[],江岸区,潮州粥庄(蔡锷路店),"114.302280,30.591237",13886093581,114.302280,30.591237
B001B0I2YY,[],一元路19号,湖北省,武汉市,餐饮服务;中餐厅;中餐厅,050100,0,[],江岸区,一品红(一元路店),"114.301517,30.593532",13971111121,114.301517,30.593532
B0FFI24QT8,[],胜利街186号,湖北省,武汉市,餐饮服务;中餐厅;湖南菜(湘菜)|餐饮服务;中餐厅;综合酒楼,050108|050101,0,[],江岸区,东达酒楼,"114.302291,30.591927",027-82323889;18908623435,114.302291,30.591927
B0HUSAJI4K,B001B1BP6Z,公安横街中城国际2期3号,湖北省,武汉市,餐饮服务;中餐厅;中餐厅,050100,0,320,江岸区,米国现煮煲仔饭(一元路店),"114.300120,30.594983",027-82777557;15827228937;15907186031,114.300120,30.594983
B001B16Y2F,B001B0JQOS,四唯街办事处中山大道1541号三阳金城c栋3-7号商铺,湖北省,武汉市,餐饮服务;中餐厅;中餐厅,050100,0,320,江岸区,谢先生酒店(外滩店),"114.303971,30.599036",027-82728777;027-82729777,114.303971,30.599036
B001B16YDD,B001B0IIBO,胜利街204号(近二曜路),湖北省,武汉市,餐饮服务;中餐厅;中餐厅,050100,0,320,江岸区,雉羹坊(公安宿舍店),"114.304644,30.594999",[],114.304644,30.594999
B001B0JD59,B0FFH436OL,沿江大道169号湖北银兴电影城2层,湖北省,武汉市,餐饮服务;中餐厅;中餐厅|住宿服务;旅馆招待所;旅馆招待所,050100|100200,0,202,江岸区,粗茶淡饭・兰亭别院,"114.303293,30.588215",[],114.303293,30.588215
B001B09KYA,[],洞庭街129号小贝壳酒店管理有限公司,湖北省,武汉市,餐饮服务;中餐厅;中餐厅,050100,0,[],江岸区,小贝壳(洞庭街店),"114.303117,30.590424",027-82832846;027-82844071,114.303117,30.590424
B001B0A8AT,[],一元路21号附1号,湖北省,武汉市,餐饮服务;中餐厅;中餐厅,050100,0,[],江岸区,李记炸酱面(一元路),"114.301529,30.593527",[],114.301529,30.593527
B0FFGCC4DE,B001B0IVZE,中山大道1161号锦江苑1-B层,湖北省,武汉市,餐饮服务;中餐厅;海鲜酒楼,050119,0,320,江岸区,一锅鱼(锦江苑店),"114.304349,30.599673",15377015668;15926375599,114.304349,30.599673
B001B072Z8,B001B09JRP,胜利街315号(近六合路)荔湾美食城,湖北省,武汉市,餐饮服务;中餐厅;综合酒楼,050101,0,320,江岸区,荔湾酒楼(胜利街店),"114.307486,30.600259",027-82727976;027-82737976;15872412167,114.307486,30.600259
B001B0IVXV,B001B092X3,京汉大道1081号(三阳路地铁站C1口旁),湖北省,武汉市,餐饮服务;中餐厅;中餐厅,050100,0,320,江岸区,荔晶时代餐厅(麟趾路店),"114.302067,30.600516",027-82727979;027-82737979,114.302067,30.600516
B001B09ZDC,B0FFFA1EDB,车站路3号,湖北省,武汉市,餐饮服务;中餐厅;中餐厅,050100,0,302,江岸区,陈记家常菜(江岸店),"114.303152,30.588973",13971549698;13995634219,114.303152,30.588973
B0HRRAS7HJ,[],黎黄陂路2号,湖北省,武汉市,餐饮服务;外国餐厅;日本料理,050202,0,[],江岸区,吉摹せ羁诀┯恪ど杖,"114.301850,30.586542",18507169676,114.301850,30.586542
B001B0I2V8,B001B0IZM8,长青广场友益街38号(大智路地铁站B口步行370米),湖北省,武汉市,餐饮服务;中餐厅;中餐厅,050100,1,320,江岸区,虾蟹宝宝(长青广场店),"114.298011,30.591995",17720539520,114.298011,30.591995
B001B0JT3D,B0FFH88TUY,融科・天城1期东南门西南140米,湖北省,武汉市,餐饮服务;中餐厅;综合酒楼,050101,0,320,江岸区,盐商府(融科・天城一期店),"114.296711,30.594771",027-82213877;027-82213977,114.296711,30.594771
B001B1DIBZ,[],球场街915号京汉花园1层,湖北省,武汉市,餐饮服务;中餐厅;中餐厅,050100,0,[],江岸区,鑫小城故事(京汉店),"114.295555,30.593386",027-82818576;027-82818586,114.295555,30.593386
B001B09GTP,B001B0IZKP,有益街如寿里人家天声街3栋1层2室,湖北省,武汉市,餐饮服务;中餐厅;中餐厅,050100,0,320,江岸区,天天餐厅(如寿里人家店),"114.299069,30.593061",027-82752131;15671672233,114.299069,30.593061
B0FFIBJA91,B001B15UBN,新长江国际广场B座1层8号,湖北省,武汉市,餐饮服务;中餐厅;中餐厅,050100,0,202,江岸区,胡桃里,"114.301534,30.599897",027-66669788,114.301534,30.599897
B001B0I8VV,[],车站路107号(近车站路老火车站100米处),湖北省,武汉市,餐饮服务;中餐厅;中餐厅,050100,0,[],江岸区,牛华杜家鸡,"114.297748,30.593086",027-82803661,114.297748,30.593086
B001B0II7E,[],沿江大道159号,湖北省,武汉市,住宿服务;宾馆酒店;五星级宾馆|餐饮服务;中餐厅;中餐厅,100102|050100,0,[],江岸区,武汉马哥孛罗酒店,"114.301835,30.585467",027-82778888,114.301835,30.585467
B001B0B5V1,[],兰陵路86号,湖北省,武汉市,餐饮服务;中餐厅;中餐厅,050100,1,[],江岸区,刘记三狗牛肉面馆,"114.297194,30.587637",15327308186,114.297194,30.587637
B0HKVC4PJU,[],一元街沿江大道111号(江滩凡象酒店后侧),湖北省,武汉市,餐饮服务;外国餐厅;日本料理,050202,1,[],江岸区,江户岚・BN烧B(江滩店),"114.301514,30.586379",17607572752,114.301514,30.586379
B001B1H2GU,B001B0IHWW,解放南路425附7(三阳路地铁站J口步行150米),湖北省,武汉市,餐饮服务;中餐厅;海鲜酒楼,050119,0,320,江岸区,凤鳖巢甲鱼馆(云宏大厦店),"114.299184,30.598709",027-82800753,114.299184,30.598709
B0G1N15OF1,B0FFGA4NOD,沿江大道159号时代广场1栋18层,湖北省,武汉市,餐饮服务;外国餐厅;外国餐厅,050200,0,320,江岸区,悦LOUNGE 270度超一线江景酒廊,"114.302040,30.585810",15071175208;17702707978,114.302040,30.585810
B0IDNMK2I9,B0FFK6SJBB,中山大道1241号都市产业大厦,湖北省,武汉市,餐饮服务;快餐厅;麦当劳,050302,0,202,江岸区,麦当劳(武汉都市产业大厦餐厅),"114.306019,30.602656",4009200205,114.306019,30.602656
B0FFHTVP4H,B001B1BYR4,京汉大道929号(大智路老汉口火车站正对面),湖北省,武汉市,餐饮服务;中餐厅;中餐厅|餐饮服务;咖啡厅;咖啡厅,050100|050500,0,202,江岸区,石烧珈i(大智路店),"114.296375,30.594576",027-82659277;13307173777,114.296375,30.594576
B001B06O2B,[],胜利街74号胜利街与天津路交叉口,湖北省,武汉市,餐饮服务;中餐厅;中餐厅,050100,0,[],江岸区,老妈烧菜馆(天津路店),"114.296835,30.585542",027-82818472;15072445055,114.296835,30.585542
B0IGCHDBGO,[],三阳路30号,湖北省,武汉市,餐饮服务;快餐厅;肯德基,050301,0,[],江岸区,肯德基公园送,"114.309443,30.594907",[],114.309443,30.594907
B001B1C9LV,[],天津路52-56号海伦司小酒馆,湖北省,武汉市,餐饮服务;外国餐厅;西餐厅(综合风味),050201,1,[],江岸区,Helens海伦司(武汉天津路店),"114.296351,30.585685",027-82807797,114.296351,30.585685
B0FFHMV913,[],洞庭街74号,湖北省,武汉市,餐饮服务;中餐厅;火锅店,050117,0,[],江岸区,青石小什锦九宫格火锅(洞庭街店),"114.300275,30.586186",027-82851717,114.300275,30.586186
B0FFIK26ID,B0FFITA6IO,一元街街道宝丽金一楼(三阳路地铁站H口步行370米),湖北省,武汉市,餐饮服务;快餐厅;麦当劳,050302,0,320,江岸区,麦当劳(融科天城五期餐厅),"114.296902,30.597316",4009200205,114.296902,30.597316
B0FFHG0T7E,B001B15T8X,球场街办事处解放南路义合巷馨悦国际三栋1-3层,湖北省,武汉市,餐饮服务;外国餐厅;日本料理,050202,1,320,江岸区,柚彩日本料理(馨悦国际店),"114.291964,30.591759",027-85257197,114.291964,30.591759
B0FFH6L88F,[],兰陵路2号界立方期,湖北省,武汉市,餐饮服务;外国餐厅;日本料理,050202,1,[],江岸区,横丁居酒屋,"114.301004,30.585007",18571452915,114.301004,30.585007
B001B16VIT,B001B0II62,吉庆街吉庆家园8号,湖北省,武汉市,餐饮服务;中餐厅;四川菜(川菜),050102,0,320,江岸区,渝家小馆(吉庆街店),"114.294337,30.587145",027-82779477;13247196988,114.294337,30.587145
B001B0JS7U,[],解放大道1779号德加连锁酒店旁(三合街和解放大道交汇处),湖北省,武汉市,餐饮服务;中餐厅;中餐厅,050100,0,[],江岸区,驼子小吃,"114.300587,30.601790",18239573255,114.300587,30.601790
B001B09M1L,B001B0IKZD,京汉大道1310附6号(黄浦路地铁站E口步行450米),湖北省,武汉市,餐饮服务;中餐厅;特色/地方风味餐厅,050118,0,320,江岸区,阿迪力烧烤美食(京汉店),"114.305492,30.604500",027-65024077;13808651940;15207170709,114.305492,30.604500
B0HR9K47A5,[],合作路17号,湖北省,武汉市,餐饮服务;外国餐厅;外国餐厅,050200,0,[],江岸区,Aqualand源,"114.298013,30.585145",17786435499,114.298013,30.585145
B0FFIPT8YL,B0FFIAYWZP,黄石路2号吉庆街168号,湖北省,武汉市,餐饮服务;中餐厅;综合酒楼,050101,0,324,江岸区,武汉四季美汤包(总店),"114.294241,30.586077",027-50476567;15926205088,114.294241,30.586077
B001B09BRM,B001B0IL2N,山海关路5号附3号,湖北省,武汉市,餐饮服务;中餐厅;中餐厅,050100,0,320,江岸区,润发汤包(山海关店),"114.308421,30.603092",13657247615;18062517615,114.308421,30.603092
B0FFFAPMLQ,[],球场街办事处京汉大道黄石路101号佳时得酒店一楼,湖北省,武汉市,餐饮服务;中餐厅;中餐厅,050100,0,[],江岸区,福宝漠北羊肉(汉口店),"114.289267,30.588323",027-82885898;13018011604;18571581822,114.289267,30.588323
B001B09E1X,[],车站路127号附1号(大智路地铁站B口步行350米),湖北省,武汉市,餐饮服务;中餐厅;中餐厅,050100,1,[],江岸区,世方御药膳,"114.297537,30.593428",027-82838883;13797077975,114.297537,30.593428
B0FFHS2WHX,B0FFIAYWZP,黄石路与吉庆街交叉口,湖北省,武汉市,餐饮服务;中餐厅;火锅店,050117,0,324,江岸区,东来顺(吉庆街店),"114.292348,30.586205",027-59599696;13971064983;18971185898,114.292348,30.586205
B0FFHM0JZY,[],一元街办事处胜利街152号,湖北省,武汉市,餐饮服务;中餐厅;中餐厅,050100,0,[],江岸区,首尔厨房(胜利街店),"114.299990,30.589153",[],114.299990,30.589153
B001B16QKK,B0FFG0F9CM,苗栗路36号新香港大厦1层(近苗栗路),湖北省,武汉市,餐饮服务;中餐厅;中餐厅,050100,0,320,江岸区,岳二郎田鸡(苗栗路店),"114.289348,30.596314",17702778076,114.289348,30.596314
B0H0J5V2SG,[],义和巷21号(大智路地铁站G口步行360米),湖北省,武汉市,餐饮服务;外国餐厅;日本料理,050202,0,[],江岸区,四张日式烧肉专门店(大智路一店),"114.291627,30.591461",[],114.291627,30.591461
B001B0ADKC,B001B0IU6J,吉庆街104号附2号,湖北省,武汉市,餐饮服务;中餐厅;湖南菜(湘菜),050108,1,320,江岸区,湘味人家(吉庆街店),"114.291736,30.585691",027-82784450;027-82903652,114.291736,30.585691
B001B06J3R,B001B0IZRP,光华路6号,湖北省,武汉市,餐饮服务;中餐厅;中餐厅,050100,1,320,江岸区,袁大头包子(解放公园店),"114.291846,30.604475",027-82863415,114.291846,30.604475
B001B0JV4X,[],胜利街308号(张自忠路口),湖北省,武汉市,餐饮服务;中餐厅;中餐厅,050100,0,[],江岸区,老村长私募菜(胜利街店),"114.309971,30.604630",027-82727676,114.309971,30.604630
B0IGBAJ6FU,[],张自忠路47号2,湖北省,武汉市,餐饮服务;外国餐厅;日本料理,050202,0,[],江岸区,赤羽烧鸟居酒屋,"114.308045,30.604777",15827186941,114.308045,30.604777
B001B0I24J,B001B0J47Q,黄石路9号德润大厦楼下吉庆街71号,湖北省,武汉市,餐饮服务;中餐厅;火锅店,050117,0,202,江岸区,德润串串火锅,"114.291682,30.585981",15071379889;18627949199,114.291682,30.585981
B001B0B52N,[],苗栗路1号(苗栗路与高雄路路口),湖北省,武汉市,餐饮服务;中餐厅;中餐厅,050100,0,[],江岸区,老妈烧菜馆(苗栗路总店),"114.286902,30.594944",027-85800762;15927689212,114.286902,30.594944
B001B0IKRX,B001B161X8,京汉大道1149号(轻轨黄浦站附近七一中学正对面),湖北省,武汉市,餐饮服务;中餐厅;中餐厅,050100,0,320,江岸区,苗姑酒堂,"114.306088,30.606207",027-82737076;15071278299,114.306088,30.606207
B001B08FII,B001B0II62,大智路5号吉庆家园1楼12室,湖北省,武汉市,餐饮服务;中餐厅;中餐厅,050100,0,320,江岸区,阿才小馆(交易街),"114.294072,30.587194",13554029993;13886122675,114.294072,30.587194
B001B0IT1T,[],诚昌里4号一楼1818室,湖北省,武汉市,餐饮服务;中餐厅;海鲜酒楼,050119,0,[],江岸区,小黄鱼酒楼,"114.297941,30.585492",027-82815434;027-82919788;15377681818,114.297941,30.585492
B001B18OLU,B0G2ZOHRVM,江汉二路98号(循礼门地铁站H口步行390米),湖北省,武汉市,餐饮服务;中餐厅;特色/地方风味餐厅,050118,1,324,江岸区,大马烧烤(江汉二路店),"114.290705,30.583225",027-82881017;15927041443,114.290705,30.583225
B001B16KQO,[],天津路36号(汉口江滩附近),湖北省,武汉市,餐饮服务;中餐厅;综合酒楼,050101,0,[],江岸区,红庄园酒楼,"114.297153,30.585041",027-82793177;027-82795177;13507123505,114.297153,30.585041
B0G23RD94Z,B001B16R94,长春街37号附3号,湖北省,武汉市,餐饮服务;外国餐厅;日本料理,050202,0,320,江岸区,鳗匠町(武汉天地店),"114.309057,30.604962",027-59210730,114.309057,30.604962
B001B0I2KD,B0FFFALHFZ,南京路61号(江汉路地铁站E口步行430米),湖北省,武汉市,餐饮服务;中餐厅;海鲜酒楼,050119,0,320,江岸区,518玉龙香辣虾(南京路店),"114.292003,30.583240",027-82821039;15827180906,114.292003,30.583240
B0FFM3AD0S,B001B1BOGB,融科天城三期16栋26号商铺,湖北省,武汉市,餐饮服务;中餐厅;中餐厅,050100,0,320,江岸区,冒泡儿(融科・天城三期店),"114.297871,30.597204",15827031065,114.297871,30.597204
B0FFGIQKVY,B0FFKZUQ4A,芦沟桥路68号武汉天地4号楼1层,湖北省,武汉市,餐饮服务;外国餐厅;德国菜,050214,1,202,江岸区,haxnbauer海森堡现代德国餐厅(武汉天地店),"114.310424,30.607342",027-82801516,114.310424,30.607342
B001B0B6DO,B0G2ZOHRVM,铭新街13号(铭心街小学对面),湖北省,武汉市,餐饮服务;中餐厅;火锅店,050117,0,324,江岸区,满堂红串串香(铭新街总店),"114.288461,30.584337",027-82810915,114.288461,30.584337
B0FFHBMLVG,B001B0IY6L,苗栗路26号(苗栗路与马祖路交界处百帝苑一层),湖北省,武汉市,餐饮服务;中餐厅;四川菜(川菜),050102,0,320,江岸区,付先生在成都(苗栗路店),"114.289052,30.596005",027-85558876,114.289052,30.596005
B0G107HSIA,B0FFKZUQ4A,卢沟桥路武汉天地12号楼1楼,湖北省,武汉市,餐饮服务;中餐厅;中餐厅,050100,1,202,江岸区,贰麻酒馆(武汉天地斗酒场店),"114.312729,30.606869",17702728889,114.312729,30.606869
B001B1DI2A,[],洞庭街40号,湖北省,武汉市,餐饮服务;中餐厅;中餐厅,050100,0,[],江岸区,龙记菜馆(洞庭街店),"114.298943,30.582868",13638627822,114.298943,30.582868
B001B0AAZ6,[],光华路3号(光华小区斜对面),湖北省,武汉市,餐饮服务;中餐厅;湖南菜(湘菜),050108,0,[],江岸区,神仙钵湘香土菜馆(光华路店),"114.290787,30.604105",13037128490;18802777591,114.290787,30.604105
B001B0BCUZ,[],高雄路47号,湖北省,武汉市,餐饮服务;中餐厅;中餐厅,050100,0,[],江岸区,王师傅豆皮馆(高雄路店),"114.286316,30.595547",027-85773256;18186121777,114.286316,30.595547
B001B07QVC,[],沿江大道136号,湖北省,武汉市,餐饮服务;中餐厅;火锅店,050117,0,[],江岸区,满旗楼(沿江大道店),"114.298427,30.578841",027-82791563;15307163818,114.298427,30.578841
B0FFGQGCR1,B001B1DI74,台北街办事处台北路68号,湖北省,武汉市,餐饮服务;中餐厅;火锅店,050117,0,320,江岸区,金苹果涮羊肉(台北路店),"114.285802,30.592474",027-82427233;027-85764693,114.285802,30.592474
B0FFHUAYHQ,B0FFFTT6YZ,卢沟桥路28号武汉天地1期7栋2层,湖北省,武汉市,餐饮服务;外国餐厅;韩国料理,050203,0,202,江岸区,青瓦炭韩潮烤肉(武汉天地店),"114.310834,30.607198",027-82881977,114.310834,30.607198
B001B0JHGQ,B0FFIAYWZP,吉庆民俗街1栋1楼3号门,湖北省,武汉市,餐饮服务;中餐厅;中餐厅,050100,0,324,江岸区,大宅门菜馆,"114.293930,30.586778",15902778176,114.293930,30.586778
B0G0PRG5CK,B0FFM1DTA2,江汉二路135号金宝大厦A座F1层,湖北省,武汉市,餐饮服务;外国餐厅;日本料理,050202,0,202,江岸区,久藏膈膜烧肉・酒场(江汉路店),"114.290945,30.583764",027-82782818,114.290945,30.583764
B001B0JQWY,B001B0I6GT,吉庆街长盛大厦附楼1楼4号,湖北省,武汉市,餐饮服务;快餐厅;快餐厅,050300,1,324,江岸区,华莱士(吉庆街店),"114.289266,30.583293",17762503103;18163325653,114.289266,30.583293
B0H6SU0BXK,B0FFH68B8Q,沿江大道141号世通物流大楼,湖北省,武汉市,餐饮服务;中餐厅;中餐厅,050100,0,202,江岸区,清风紫雾・别有洞天私人订制餐厅,"114.299236,30.580242",[],114.299236,30.580242
B001B16LP3,B001B086CW,江汉路129号中心百货江汉路店1层,湖北省,武汉市,餐饮服务;快餐厅;麦当劳,050302,0,201,江汉区,麦当劳(中心百货餐厅餐厅),"114.290083,30.581513",027-82779843,114.290083,30.581513
B001B18OEO,[],黄兴路53号附1号(好又多对面),湖北省,武汉市,餐饮服务;中餐厅;中餐厅,050100,0,[],江岸区,泰来美食(黄兴路店),"114.296587,30.590825",13080613122,114.296587,30.590825
B001B15T9H,[],"苗栗路23号,老友记酒吧斜对面",湖北省,武汉市,餐饮服务;中餐厅;湖南菜(湘菜),050108,0,[],江岸区,小家庭・湖南特色姜辣味馆(苗粟路店),"114.288362,30.595561",13317174337,114.288362,30.595561
B001B0BALX,B001B15YWZ,西马路台东路口137号,湖北省,武汉市,餐饮服务;中餐厅;特色/地方风味餐厅,050118,0,320,江岸区,江辰水货烧烤西马路旗舰店,"114.289078,30.594155",15926318013,114.289078,30.594155
B0HGTRADIJ,[],黎黄陂路22号,湖北省,武汉市,餐饮服务;外国餐厅;外国餐厅,050200,0,[],江岸区,醉隐雪茄吧,"114.299760,30.587617",[],114.299760,30.587617
B001B0I2DP,B0FFGJ90WZ,汉口京汉大道881号滚石音乐台左侧(大智路口),湖北省,武汉市,餐饮服务;中餐厅;中餐厅,050100,0,324,江岸区,食尚坊(京汉大道店),"114.292510,30.590664",027-82800077;027-82810077,114.292510,30.590664
B001B16PKL,B0FFKZUQ4A,芦沟桥路68号武汉天地8号楼,湖北省,武汉市,餐饮服务;中餐厅;中餐厅,050100,0,202,江岸区,芙蓉堂(武汉天地店),"114.311755,30.607581",027-82720999;027-82730999;13597698153,114.311755,30.607581
B0G257X8RS,B0HAVUA081,中山大道1515号壹方购物中心5楼,湖北省,武汉市,餐饮服务;外国餐厅;西餐厅(综合风味),050201,1,201,江岸区,苏梅花园,"114.309740,30.609081",17343294718,114.309740,30.609081
B001B0IJ82,[],黄石路89号(武汉剧院村东北),湖北省,武汉市,餐饮服务;中餐厅;四川菜(川菜),050102,0,[],江岸区,小四川酒家(武汉剧院村东北店),"114.288928,30.588567",027-82851227,114.288928,30.588567
B001B1CAXL,B0FFFWPQ5E,花楼街198号宝利金国际广场B座1层,湖北省,武汉市,餐饮服务;快餐厅;麦当劳,050302,0,320,江汉区,麦当劳(宝丽金店),"114.293100,30.578486",027-82778517;4008517517,114.293100,30.578486
B0HAMC1UAQ,B001B15T8X,球场街街道解放南路26号,湖北省,武汉市,餐饮服务;外国餐厅;日本料理,050202,1,320,江岸区,鳗之屋日料(馨悦国际店),"114.292016,30.592280",15927322908;18086696520,114.292016,30.592280
B0HABAOZVT,B001B0I2IH,吉庆街44附3(宝成路与吉庆街交叉口),湖北省,武汉市,餐饮服务;外国餐厅;日本料理,050202,0,320,江岸区,吉松家日式烧肉专门店(吉庆街店),"114.290038,30.584001",15172400778;18285505483,114.290038,30.584001
B001B0IZLL,[],汇通路榆荫里1号(循礼门地铁站H口步行440米),湖北省,武汉市,餐饮服务;中餐厅;湖南菜(湘菜),050108,0,[],江岸区,湘味人家(汇通路店),"114.290712,30.585687",027-82903652;15377067593,114.290712,30.585687
B0FFFTPC0F,B0FFFALHFZ,江汉二路100号负12号,湖北省,武汉市,餐饮服务;中餐厅;海鲜酒楼|餐饮服务;中餐厅;特色/地方风味餐厅,050119|050118,0,320,江岸区,沈记烧烤海鲜(江汉二路店),"114.291012,30.583621",027-82899877;18627845881;18674085881,114.291012,30.583621
B0G2RAIGRX,B001B086CW,江汉路129号中百百货6层,湖北省,武汉市,餐饮服务;外国餐厅;日本料理,050202,1,202,江汉区,小川洋风料理(中心百货店),"114.289591,30.582173",15327102619,114.289591,30.582173
B001B15UBW,B0FFGA4UTO,胜利街六合路232号,湖北省,武汉市,餐饮服务;中餐厅;中餐厅,050100,0,320,江岸区,翡翠阁(六合店),"114.308431,30.601131",027-82737977,114.308431,30.601131
B001B1CAXL,B0FFFWPQ5E,花楼街198号宝利金国际广场B座1层,湖北省,武汉市,餐饮服务;快餐厅;麦当劳,050302,0,320,江汉区,麦当劳(宝丽金店),"114.293100,30.578486",027-82778517;4008517517,114.293100,30.578486
B0HAMC1UAQ,B001B15T8X,球场街街道解放南路26号,湖北省,武汉市,餐饮服务;外国餐厅;日本料理,050202,1,320,江岸区,鳗之屋日料(馨悦国际店),"114.292016,30.592280",15927322908;18086696520,114.292016,30.592280
B0HABAOZVT,B001B0I2IH,吉庆街44附3(宝成路与吉庆街交叉口),湖北省,武汉市,餐饮服务;外国餐厅;日本料理,050202,0,320,江岸区,吉松家日式烧肉专门店(吉庆街店),"114.290038,30.584001",15172400778;18285505483,114.290038,30.584001
B001B0IZLL,[],汇通路榆荫里1号(循礼门地铁站H口步行440米),湖北省,武汉市,餐饮服务;中餐厅;湖南菜(湘菜),050108,0,[],江岸区,湘味人家(汇通路店),"114.290712,30.585687",027-82903652;15377067593,114.290712,30.585687
B0FFFTPC0F,B0FFFALHFZ,江汉二路100号负12号,湖北省,武汉市,餐饮服务;中餐厅;海鲜酒楼|餐饮服务;中餐厅;特色/地方风味餐厅,050119|050118,0,320,江岸区,沈记烧烤海鲜(江汉二路店),"114.291012,30.583621",027-82899877;18627845881;18674085881,114.291012,30.583621
B0G2RAIGRX,B001B086CW,江汉路129号中百百货6层,湖北省,武汉市,餐饮服务;外国餐厅;日本料理,050202,1,202,江汉区,小川洋风料理(中心百货店),"114.289591,30.582173",15327102619,114.289591,30.582173
B001B15UBW,B0FFGA4UTO,胜利街六合路232号,湖北省,武汉市,餐饮服务;中餐厅;中餐厅,050100,0,320,江岸区,翡翠阁(六合店),"114.308431,30.601131",027-82737977,114.308431,30.601131
B001B0JUJM,B0FFKZUQ4A,芦沟桥路68号武汉天地2期6栋1层,湖北省,武汉市,餐饮服务;中餐厅;中餐厅,050100,0,202,江岸区,馋艺堂(武汉天地店),"114.311156,30.607426",027-82726668;18971618574,114.311156,30.607426
B001B1DKVI,B0FFKZUQ4A,芦沟桥路68号武汉天地48号9号楼1层(近美乐活专卖店、轻轨1号线黄浦路站),湖北省,武汉市,餐饮服务;中餐厅;特色/地方风味餐厅,050118,0,202,江岸区,焱铁烧(武汉天地店),"114.311406,30.607387",027-82944288,114.311406,30.607387
B0HKG9K75X,B0FFKZUQ4A,武汉天地12号楼2楼(贰麻酒馆楼上),湖北省,武汉市,餐饮服务;外国餐厅;泰国/越南菜品餐厅,050206,0,202,江岸区,POKIFIVE泰式五味茶餐厅(武汉天地店),"114.312699,30.606878",18162678767,114.312699,30.606878
B001B0JU37,[],南京路14号,湖北省,武汉市,餐饮服务;中餐厅;特色/地方风味餐厅,050118,0,[],江岸区,百姓烧烤总店,"114.297637,30.580389",027-82782571,114.297637,30.580389
B0G0VRNDT9,B0FFKMIK80,香港路8号万科一楼附11号,湖北省,武汉市,餐饮服务;外国餐厅;日本料理,050202,1,320,江岸区,和玖・居酒屋,"114.292706,30.595906",13871313620,114.292706,30.595906
B001B16D88,B001B0II62,大智路吉庆家园10-11室1-2楼,湖北省,武汉市,餐饮服务;中餐厅;综合酒楼,050101,0,320,江岸区,金满酒楼(吉庆街店),"114.294084,30.587167",13797068848,114.294084,30.587167
B001B0BDDZ,[],高雄路47号附7号,湖北省,武汉市,餐饮服务;中餐厅;中餐厅,050100,0,[],江岸区,吾家香港烧腊专门店(总店),"114.286311,30.595822",027-85815257,114.286311,30.595822
B0IGC7F7FD,[],合作路23号石狩料理店,湖北省,武汉市,餐饮服务;外国餐厅;日本料理,050202,1,[],江岸区,石狩料理店,"114.297415,30.585732",15926378734,114.297415,30.585732
B001B06YNH,[],胜利街256号,湖北省,武汉市,餐饮服务;中餐厅;中餐厅,050100,0,[],江岸区,莉莉周花园餐厅(胜利街店),"114.308895,30.602134",027-82718271;15391535477,114.308895,30.602134
B0FFJCOR73,B0H1NN6LN5,大汉口美食城1层(江汉路地铁站G口步行130米),湖北省,武汉市,餐饮服务;快餐厅;麦当劳,050302,0,202,江汉区,麦当劳(武汉麦当劳江汉路大汉口餐厅),"114.290611,30.579531",027-82702925;027-82745700;4008517517,114.290611,30.579531
B001B0I2I2,B001B0IZMA,江汉一路62号(江汉路地铁站E口步行270米),湖北省,武汉市,餐饮服务;外国餐厅;牛扒店(扒房),050211,0,320,江岸区,宝岛牛排(江汉路总店),"114.291008,30.582029",027-82844799;19945052492,114.291008,30.582029
B001B1CCJ0,B001B0IZMA,江汉路步行街104号3层(扬子江酒店旁),湖北省,武汉市,餐饮服务;中餐厅;火锅店,050117,1,320,江岸区,捞旺猪肚鸡(江汉路店),"114.291273,30.581148",13971639103,114.291273,30.581148
B0FFJ231PX,B001B0IZMA,江汉路原潮流百货现一食万巷二楼,湖北省,武汉市,餐饮服务;中餐厅;火锅店,050117,0,320,江岸区,锅捞大海成都火锅(江汉路店),"114.290831,30.581792",027-82842188,114.290831,30.581792
B001B0B98N,B001B0I6GT,江汉一路46号(旋宫饭店对面),湖北省,武汉市,餐饮服务;中餐厅;四川菜(川菜),050102,1,324,江汉区,烤鱼家常菜馆(江汉路步行街店),"114.290078,30.581118",027-82333277;027-82817274;18071708329,114.290078,30.581118
B0FFLHIORC,B0FFH1J7RE,和平大道750号绿地缤纷城5楼5F-10,湖北省,武汉市,餐饮服务;中餐厅;火锅店,050117,1,202,武昌区,海底捞火锅(绿地缤纷城店),"114.321730,30.582993",027-87258877;027-87268877,114.321730,30.582993
B001B0I2I0,B001B0IZMA,水塔街办事处江汉路步行街112号,湖北省,武汉市,餐饮服务;快餐厅;肯德基|餐饮服务;冷饮店;冷饮店,050301|050700,0,320,江岸区,肯德基(启新餐厅),"114.290903,30.581461",027-82839999;4009200715,114.290903,30.581461
B001B06V1S,[],汉口南京路74号(武汉少年儿童图书馆旁),湖北省,武汉市,餐饮服务;中餐厅;特色/地方风味餐厅,050118,0,[],江岸区,金孔雀烧烤王(南京路店),"114.293686,30.582696",13071278281;13339992182,114.293686,30.582696
B0FFJ69O40,B001B09JRP,永清街办事处胜利街345号,湖北省,武汉市,餐饮服务;中餐厅;湖北菜(鄂菜),050112,0,320,江岸区,老村长私募菜(胜利街店),"114.307580,30.600350",[],114.307580,30.600350
B0HDPZIDFS,B0HAVU8R8G,中山大道1515号壹方购物中心3层,湖北省,武汉市,餐饮服务;休闲餐饮场所;休闲餐饮场所|餐饮服务;糕饼店;糕饼店,050400|050800,0,201,江岸区,工匠面包(壹方超级工坊店),"114.310102,30.609401",027-82637668,114.310102,30.609401
B0IAYARH2O,B001B16OUH,京汉大道856号,湖北省,武汉市,餐饮服务;外国餐厅;日本料理,050202,1,320,江岸区,牛式炭火烧肉酒场(循礼门店),"114.287808,30.585883",13886160006,114.287808,30.585883
B0HD21FJMJ,B0HAVUA081,中山大道1515号天地壹方南馆5F-04,湖北省,武汉市,餐饮服务;外国餐厅;日本料理,050202,0,201,江岸区,御牛道日式料理炭火烤肉(天地壹方店),"114.309700,30.608825",027-82848088,114.309700,30.608825
B0I247S3B4,B001B08ZU3,南京路建华大厦一楼,湖北省,武汉市,餐饮服务;中餐厅;综合酒楼,050101,1,202,江岸区,俏小张自助海鲜烧烤(南京路店),"114.290595,30.584341",18627031783,114.290595,30.584341
B001B03AB4,[],解放公园路34-1号(近公交车站),湖北省,武汉市,餐饮服务;中餐厅;中餐厅,050100,0,[],江岸区,健康快餐福荣餐厅(解放公园路店),"114.300207,30.604087",027-82436885;13477066449;13507169957,114.300207,30.604087
B0FFGAI94Y,B001B086CW,江汉区步行街中心百货5楼江南金草帽,湖北省,武汉市,餐饮服务;外国餐厅;韩国料理,050203,1,201,江汉区,武汉市江汉区江南金草帽韩式自助餐厅,"114.289516,30.581683",027-82878718,114.289516,30.581683
B0FFGSCA92,[],西马街球东小区15号底层部分,湖北省,武汉市,餐饮服务;中餐厅;火锅店,050117,0,[],江岸区,胖哥特色主题餐厅(球场路店),"114.293287,30.598056",15327225166,114.293287,30.598056
B0HA978AP6,B001B0I6GT,江汉路61号上海三联READWAY4楼(地铁c出口),湖北省,武汉市,餐饮服务;外国餐厅;日本料理,050202,1,324,江汉区,仙隐小鹿中Aの日料(江汉路三联店),"114.293356,30.578796",18571861560,114.293356,30.578796
B0FFM0RYN0,B001B0I6GT,江汉路37号3层(江汉路地铁站C口步行160米),湖北省,武汉市,餐饮服务;外国餐厅;牛扒店(扒房),050211,0,324,江汉区,菲可牛排(江汉路步行街分店),"114.294535,30.578333",027-66665606,114.294535,30.578333
B001B1C1O4,[],京汉大道1277号,湖北省,武汉市,餐饮服务;中餐厅;中餐厅,050100,0,[],江岸区,巴厘龙虾(黄浦二店),"114.309205,30.610715",027-82283775;027-82328097,114.309205,30.610715
B0FFHDX31J,B001B0ITBD,胜利街25号(江汉路地铁站D口步行200米),湖北省,武汉市,餐饮服务;中餐厅;火锅店,050117,0,320,江岸区,刘二串串(胜利街店),"114.293648,30.580744",13554130165;15377520621,114.293648,30.580744
B0FFFCQLEI,B001B0ITM8,汉口江汉北路渣家路132号,湖北省,武汉市,餐饮服务;中餐厅;海鲜酒楼,050119,1,320,江岸区,渣家田师傅香辣虾蟹牛蛙(渣家路总店),"114.284606,30.588125",13707198864,114.284606,30.588125
B0FFGD1AUR,B001B15QTJ,江汉二路还建楼B栋1楼3-1号,湖北省,武汉市,餐饮服务;中餐厅;中餐厅|餐饮服务;冷饮店;冷饮店,050100|050700,1,320,江岸区,阿俪诗家(江汉路店),"114.289784,30.582906",13971682919;18086063393,114.289784,30.582906
B0FFL8KUED,B0FFF4OTF1,江汉一路57号璇宫饭店2层,湖北省,武汉市,餐饮服务;中餐厅;火锅店,050117,0,202,江汉区,合记潮汕牛肉火锅(璇宫饭店),"114.290061,30.581419",027-62435517;16602725588,114.290061,30.581419
B0FFLM8NEM,B001B0B7WI,中山大道818号新佳丽时尚广场F5层5-58,湖北省,武汉市,餐饮服务;中餐厅;火锅店,050117,1,202,江汉区,吉火寿喜烧(新佳丽时尚广场店),"114.291055,30.578398",17771731193,114.291055,30.578398
B0GR7MGXQD,B001B0I6HQ,新佳丽广场六楼扶手电梯口(江汉路地铁站G口步行80米),湖北省,武汉市,餐饮服务;外国餐厅;日本料理,050202,1,202,江汉区,西月山居(新佳丽店),"114.291063,30.578402",17362908231,114.291063,30.578402
B0FFFFY0AR,B0H1NN6LN5,前进五路2号大汉口城2层(江汉路地铁站G口步行70米),湖北省,武汉市,餐饮服务;外国餐厅;西餐厅(综合风味),050201,0,202,江汉区,豪客来牛排(武汉大汉口新餐厅),"114.289929,30.579102",027-82288336,114.289929,30.579102
B001B16VGQ,B0FFG1X0J9,卢沟桥路28号武汉天地5栋1层,湖北省,武汉市,餐饮服务;中餐厅;广东菜(粤菜),050103,1,202,江岸区,丹青宴,"114.311303,30.607886",027-82711777,114.311303,30.607886
B0G2VGIN8N,B001B0IWGJ,江汉路257号大润发超市江汉路店一楼1004柜位,湖北省,武汉市,餐饮服务;外国餐厅;牛扒店(扒房),050211,0,201,江汉区,豪客来牛排(大润发江汉店),"114.285681,30.585032",027-85748088;15927137310,114.285681,30.585032
B001B1HBDD,[],高雄路128号(香港路地铁站B口步行220米),湖北省,武汉市,餐饮服务;外国餐厅;日本料理,050202,0,[],江岸区,味藏日本料理(高雄路店),"114.285423,30.602322",027-85711792,114.285423,30.602322
B001B16LEI,[],沿江大道134号(上海路口),湖北省,武汉市,餐饮服务;中餐厅;中餐厅,050100,0,[],江岸区,老江夏,"114.297909,30.577819",027-51763179;027-82762188,114.297909,30.577819
B0FFJOADAB,B001B0IKZB,京汉大道解放公园小区11栋1层10-1号商网,湖北省,武汉市,餐饮服务;中餐厅;火锅店,050117,0,320,江岸区,恭喜发财火锅(京汉店),"114.305016,30.604670",027-82327779,114.305016,30.604670
B001B0IT1Q,B001B0IWGJ,江汉路257号大润发F1层(循礼门地铁站B口旁),湖北省,武汉市,餐饮服务;快餐厅;肯德基|餐饮服务;冷饮店;冷饮店,050301|050700,0,201,江汉区,肯德基(循礼门餐厅),"114.285690,30.584810",027-85893495;027-85894750;4009208801,114.285690,30.584810
B001B044D0,B0FFFALGH5,江汉一路67号卢庄对面(江汉路地铁站E口步行350米),湖北省,武汉市,餐饮服务;中餐厅;中餐厅,050100,0,320,江岸区,久久餐厅(江汉一路),"114.291423,30.582683",027-82789492;18607133760,114.291423,30.582683
B001B0IURV,[],湖边坊路63(苗栗路地铁站B口步行470米),湖北省,武汉市,餐饮服务;中餐厅;中餐厅,050100,0,[],江岸区,一家人,"114.293456,30.601690",027-82449551;15717174132,114.293456,30.601690
B001B0BKAF,B001B15QL5,京汉大道823附5(循礼门地铁站H口步行480米),湖北省,武汉市,餐饮服务;中餐厅;四川菜(川菜),050102,1,320,江岸区,飘香鱼家常菜(安静社区店),"114.290359,30.588733",13307157109,114.290359,30.588733
B0H23DRKBI,B001B0I6HQ,中山大道818号新佳丽时尚广场F5,湖北省,武汉市,餐饮服务;外国餐厅;韩国料理,050203,0,202,江汉区,朴德善・首尔大排档(新佳丽店),"114.290734,30.578493",13260525171;15072223255,114.290734,30.578493
B0FFKT855I,[],新兴街三元里25号附1(黄浦路地铁站E口步行390米),湖北省,武汉市,餐饮服务;快餐厅;快餐厅,050300,0,[],江岸区,你的明治(武汉天地店),"114.305988,30.605228",13886176717,114.305988,30.605228
B001B06VGM,B001B08FX8,香港路137号,湖北省,武汉市,餐饮服务;中餐厅;中餐厅,050100,1,320,江岸区,小妹酒楼(香港路店),"114.287440,30.601647",027-85798062;15337150762,114.287440,30.601647
B001B1GZX5,B001B0I6GT,江汉路步行街江汉一路19号欧利新天地1层,湖北省,武汉市,餐饮服务;中餐厅;特色/地方风味餐厅,050118,0,324,江汉区,森黾呛何犊居(江汉路店),"114.289457,30.581111",027-82857579,114.289457,30.581111
B0HA1CGBMH,B001B0I6GT,扬子街一号(江汉路地铁站D口步行130米),湖北省,武汉市,餐饮服务;外国餐厅;日本料理,050202,1,324,江岸区,燕舍寿司・料理店,"114.293103,30.580082",15927503316,114.293103,30.580082
B001B18PUE,B001B0AHUB,花楼街街道中山大道756号大洋百货7楼,湖北省,武汉市,餐饮服务;外国餐厅;西餐厅(综合风味),050201,0,201,江汉区,半秋山西餐厅(大洋店),"114.290136,30.577754",027-82450197,114.290136,30.577754
B001B0I2F5,[],高雄路宝岛公园门口,湖北省,武汉市,餐饮服务;中餐厅;中餐厅,050100,0,[],江岸区,鑫小城故事(高雄路店),"114.286283,30.596247",027-85834522;18071546330,114.286283,30.596247
B001B06XE4,B001B0I6HQ,"汉口中山大道818号新佳丽广场1,2楼",湖北省,武汉市,餐饮服务;快餐厅;肯德基,050301,0,201,江汉区,肯德基(新佳丽餐厅),"114.290720,30.578577",4009200715,114.290720,30.578577
B0I12CACVC,[],劳动街道球场路24号附楼1层7室,湖北省,武汉市,餐饮服务;中餐厅;综合酒楼,050101,1,[],江岸区,筋子皇烧烤,"114.294050,30.598817",15927128002,114.294050,30.598817
B0FFIMCL6F,B001B0I6GT,前进五路4号水塔街2楼,湖北省,武汉市,餐饮服务;中餐厅;火锅店,050117,1,324,江汉区,巴人重庆老火锅(江汉旗舰店),"114.289455,30.579653",027-82297689;13697325880,114.289455,30.579653
B0H1OCRDET,B001B0I6GT,欧利新天地2楼(江汉路地铁站G口步行310米),湖北省,武汉市,餐饮服务;外国餐厅;日本料理,050202,0,324,江汉区,松本藏日式烧肉,"114.289178,30.580628",13517235975;13972235853,114.289178,30.580628
B0FFGXZ2ZN,B001B0I6HQ,中山大道818号新佳丽时尚广场3层,湖北省,武汉市,餐饮服务;外国餐厅;西餐厅(综合风味)|餐饮服务;咖啡厅;咖啡厅,050201|050500,0,201,江汉区,秀玉coffee&kitchen(新佳丽时尚广场店),"114.290869,30.578711",027-82801995;13247138078;13476161877,114.290869,30.578711
B0FFI5WDGL,B001B0IWGJ,江汉路257号大润发江汉店1层2号,湖北省,武汉市,餐饮服务;快餐厅;永和豆浆,050304,0,201,江汉区,永和大王(京汉大道店),"114.285346,30.584492",027-85813288;4000979797,114.285346,30.584492
B001B1FS8Y,B0H0USJ9A0,一元街办事处天津路9号,湖北省,武汉市,餐饮服务;中餐厅;中餐厅,050100,0,324,江岸区,汪小姐的后花园,"114.298842,30.583073",027-82285997,114.298842,30.583073
B0FFJM6LW8,B001B0I6HQ,中山大道818号新佳丽时尚广场4楼(近地铁2号线江汉路站),湖北省,武汉市,餐饮服务;中餐厅;火锅店,050117,1,202,江汉区,张大师鸭爪爪特色干锅(江汉路店),"114.291385,30.578459",027-82797977,114.291385,30.578459
B0FFHU69RM,B001B0IWGJ,江汉路257号大润发F1层(循礼门地铁站B口旁),湖北省,武汉市,餐饮服务;快餐厅;必胜客,050303,0,201,江汉区,必胜客(大福源店),"114.285572,30.584728",027-85841312;4009701890,114.285572,30.584728
B001B0J6ZE,B001B07YIV,中山大道818号平安大厦一楼(江汉路地铁站H口旁),湖北省,武汉市,餐饮服务;快餐厅;必胜客,050303,0,202,江汉区,必胜客(新佳丽时尚广场),"114.290772,30.578608",027-82702752;4009208809,114.290772,30.578608
B0H0C9YREL,B0FFF3X1YV,黄兴路35号(大智路地铁站A口步行490米),湖北省,武汉市,餐饮服务;外国餐厅;外国餐厅,050200,0,320,江岸区,35号私房牛排馆(华新里店),"114.297048,30.589958",[],114.297048,30.589958
B0ID376W0T,[],江汉二路118号X118商场第1层半,湖北省,武汉市,餐饮服务;外国餐厅;日本料理,050202,1,[],江岸区,和米堂,"114.290118,30.582581",19997948603,114.290118,30.582581
B0HRDHY2ZY,B001B0I6HQ,新佳丽商场4楼迷你椰泰式大排档,湖北省,武汉市,餐饮服务;外国餐厅;外国餐厅,050200,1,202,江汉区,迷你椰泰式大排档(江汉路店),"114.290736,30.578537",18162680200,114.290736,30.578537
B0FFF5J5JS,[],自治街前进四路240号,湖北省,武汉市,餐饮服务;中餐厅;中餐厅,050100,0,[],江汉区,严老幺重油烧麦,"114.285246,30.581076",18707171715,114.285246,30.581076
B001B0IK1N,[],惠济路25-27号(惠济二路地铁站A口步行380米),湖北省,武汉市,餐饮服务;中餐厅;湖北菜(鄂菜),050112,0,[],江岸区,口味堂(惠济路店),"114.290196,30.609228",027-82866069,114.290196,30.609228
B001B0JTBP,B0FFIAYWZP,大智街办事处交易街27-29,湖北省,武汉市,餐饮服务;中餐厅;四川菜(川菜),050102,0,324,江岸区,巴蜀菜馆(吉庆街总店),"114.293804,30.587735",027-82784088,114.293804,30.587735
B001B15UPH,B001B0IKF2,建设大道774号(近金色华府),湖北省,武汉市,餐饮服务;中餐厅;湖北菜(鄂菜),050112,0,320,江岸区,老村长私募菜(惠济路店),"114.287491,30.608157",027-82429677,114.287491,30.608157
B0IDR5JM3K,B001B16P44,江汉路x118商场5层L504-505铺,湖北省,武汉市,餐饮服务;外国餐厅;西餐厅(综合风味),050201,1,202,江岸区,耶耶泰・泰式大排档(江汉路店),"114.290041,30.582303",18171212806,114.290041,30.582303
B001B16PU6,B001B0JQ9D,香港路173-175号1层3号(市儿童医院斜对面),湖北省,武汉市,餐饮服务;快餐厅;快餐厅,050300,0,320,江岸区,永和大王(香港路店),"114.286429,30.603093",027-85729330;4000979797,114.286429,30.603093
B001B0JAVF,[],香港路151号(香港路地铁站B口步行330米),湖北省,武汉市,餐饮服务;中餐厅;综合酒楼,050101,0,[],江岸区,青莲酒家(香港路店),"114.287294,30.601809",027-82413657;027-85771117,114.287294,30.601809
B001B1HBCF,B001B0AHUB,江汉路中山大道756号大洋百货七楼,湖北省,武汉市,餐饮服务;外国餐厅;日本料理,050202,1,201,江汉区,仓桥家・锅物・烧鸟・h寿司(中山大洋百货店),"114.289995,30.577559",027-82456930;18064000676,114.289995,30.577559
B0I1F4EQ5T,[],新江汉城1A楼2-5,湖北省,武汉市,餐饮服务;外国餐厅;西餐厅(综合风味),050201,1,[],江汉区,GAOYUEE高越越西餐,"114.294975,30.578153",027-82889077,114.294975,30.578153
B0FFGLN3TW,B001B0II2P,江汉四路4-6号(循礼门地铁站C口步行360米),湖北省,武汉市,餐饮服务;中餐厅;火锅店,050117,0,320,江汉区,小龙坎(江汉路店),"114.286937,30.582615",027-82609219,114.286937,30.582615
B0FFHCU3YB,B0HAVU8R8G,中山大道1515号壹方购物中心4层,湖北省,武汉市,餐饮服务;中餐厅;火锅店,050117,0,201,江岸区,掂档潮汕牛肉火锅(武汉壹方购物中心店),"114.310142,30.610506",[],114.310142,30.610506
B001B15UYI,[],民生路黄陂街89号,湖北省,武汉市,餐饮服务;中餐厅;综合酒楼,050101,0,[],江汉区,刘胖子(黄陂街总店),"114.294135,30.573633",027-85360207;027-85361583;18071094259,114.294135,30.573633
B001B1C1NR,B001B1BP6W,永清小路20号永清汇大厦1层,湖北省,武汉市,餐饮服务;快餐厅;麦当劳,050302,0,202,江岸区,麦当劳(永清路武商量贩餐厅),"114.300452,30.614316",027-82887298;4008517517,114.300452,30.614316
B0HU2NQLYE,B0FFFWPQ5E,花楼街198号宝利金国际公馆商铺一层6.7室,湖北省,武汉市,餐饮服务;外国餐厅;日本料理,050202,1,320,江汉区,虎白料理(江汉路店),"114.292652,30.576827",13628639991,114.292652,30.576827
B0FFH1JPA4,B001B0IKF2,建设大道742号(近金色华府),湖北省,武汉市,餐饮服务;外国餐厅;日本料理,050202,0,320,江岸区,牛者烧肉专门店(香港路店),"114.287411,30.608136",027-82210977,114.287411,30.608136
B001B0I2HH,B0FFFA1D5O,自治街219号,湖北省,武汉市,餐饮服务;中餐厅;火锅店,050117,0,202,江汉区,胖锅轩(水塔店),"114.284943,30.581280",027-82777766;027-82777788,114.284943,30.581280
B0ID6DZQY2,B0FFHFHITS,建设大道668号武汉万象城外街手扶梯上2层,湖北省,武汉市,餐饮服务;外国餐厅;日本料理,050202,1,202,江岸区,一心烧鸟屋(万象城店),"114.281614,30.599264",027-85696366,114.281614,30.599264
B0I1RM2FPC,B001B0IK76,劳动街31号,湖北省,武汉市,餐饮服务;外国餐厅;西餐厅(综合风味),050201,1,320,江岸区,KO熊牛排手作意面,"114.297053,30.601881",18186472720,114.297053,30.601881
B001B08SM1,B001B0I6GT,京汉大道826号(循礼门地铁站C口步行180米),湖北省,武汉市,餐饮服务;外国餐厅;日本料理,050202,0,324,江汉区,汉和京都日本料理,"114.284651,30.583387",027-82791698;027-82792658;15972088347,114.284651,30.583387
B001B0JTCE,B001B1C43G,永广里东南门旁(江汉路地铁站G口步行280米),湖北省,武汉市,餐饮服务;中餐厅;中餐厅,050100,0,320,江汉区,蔡林记(万达店),"114.289386,30.576548",027-88841196;13971476652;4000171779,114.289386,30.576548
B0FFHG3NTD,B0FFKZUQ4A,卢沟桥路28号武汉天地2期9栋1层,湖北省,武汉市,餐饮服务;外国餐厅;外国餐厅,050200,0,202,江岸区,PizzaMarzano玛尚诺(武汉天地店),"114.311812,30.607297",027-82200708;13476249240,114.311812,30.607297
B0FFHGRZ0L,B001B0IO1K,前进四路60号,湖北省,武汉市,餐饮服务;中餐厅;火锅店,050117,1,320,江汉区,水货火锅城,"114.287837,30.578406",027-82808568,114.287837,30.578406
B0FFHZSRAE,B001B0B7WI,花楼街办事处中山大道818号平安大厦,湖北省,武汉市,餐饮服务;外国餐厅;韩国料理,050203,0,202,江汉区,辛明堂洞芝士年糕火锅(江汉路店),"114.291188,30.578645",15002752870,114.291188,30.578645
B0FFF3KMOG,B001B0I6HQ,中山大道818号新佳丽广场3楼(江汉路地铁站G口旁),湖北省,武汉市,餐饮服务;中餐厅;中餐厅,050100,0,201,江汉区,百艳青花(新佳丽店),"114.290754,30.578476",027-82798306;13260683757,114.290754,30.578476
B0H1SHJYJ6,[],武汉天地专卖店南3门西北60米,湖北省,武汉市,餐饮服务;外国餐厅;日本料理,050202,0,[],江岸区,初・割烹料理(武汉天地店),"114.311620,30.607005",[],114.311620,30.607005
B0FFFV2UQK,B001B16PRO,和平大道750号绿地金融国际1层,湖北省,武汉市,餐饮服务;快餐厅;肯德基,050301,0,202,武昌区,肯德基(六零六餐厅),"114.325066,30.582615",027-86732750;4008823823;4009200715,114.325066,30.582615
