id,address,pname,cityname,type,adname,name,location,lng,lat,rank
B0GD0Y720O,古田一路30号附12(古田一路地铁站A口步行360米),湖北省,武汉市,购物服务;家电电子卖场;综合家电商场,Qiaokou,武汉市凯兴信电器有限公司,"114.184602,30.607065",114.184602,30.607065,3
B0HB4U8A4L,江汉路步行街与京汉大道交汇处,湖北省,武汉市,购物服务;商场;普通商场|购物服务;商场;购物中心,Jianghan,M+购物中心,"114.286339,30.583478",114.286339,30.583478,1
B0I64DSH1V,珞喻路1号新世界百货F3(街道口地铁站C口步行90米),湖北省,武汉市,购物服务;商场;商场,Hongshan,新世界百货-武汉市Hongshan消费扶贫专柜,"114.354028,30.526953",114.354028,30.526953,1
B0FFH48CA0,和平大道1278号(和平公园地铁站B口步行410米),湖北省,武汉市,购物服务;商场;购物中心,Qingshan,武汉印象城,"114.390023,30.632005",114.390023,30.632005,1
B001B0HZ72,解放大道688号,湖北省,武汉市,购物服务;商场;购物中心,Jianghan,武商MALL??武广,"114.270178,30.580192",114.270178,30.580192,1
B0FFIKXHUB,京汉大道668号(利济北路地铁站B1口步行190米),湖北省,武汉市,购物服务;商场;购物中心,Qiaokou,武汉恒隆广场,"114.273801,30.577836",114.273801,30.577836,1
B0FFGL1P49,汉正街地铁站A口步行320米,湖北省,武汉市,购物服务;商场;普通商场,Qiaokou,武汉多福路商城,"114.276206,30.568903",114.276206,30.568903,2
B0HGTS8J6J,解放大道690号(中山公园地铁站A口步行190米),湖北省,武汉市,购物服务;商场;普通商场|购物服务;商场;购物中心,Jianghan,武汉国际广场B,"114.269851,30.580705",114.269851,30.580705,1
B0FFGMX0T2,汉口解放大道690号(中山公园地铁站A口步行90米),湖北省,武汉市,购物服务;商场;购物中心|购物服务;商场;普通商场,Jianghan,武汉国际广场购物中心,"114.270721,30.581007",114.270721,30.581007,1
B0FFGM2FX9,解放大道586号(中山公园地铁站A口步行90米),湖北省,武汉市,购物服务;商场;购物中心,Jianghan,武汉国际广场,"114.270733,30.580897",114.270733,30.580897,1
B0FFHFHITS,建设大道668号,湖北省,武汉市,购物服务;商场;购物中心,Jiang'an,武汉万象城,"114.280583,30.599266",114.280583,30.599266,1
B0FFG87QDO,中山大道1515号(黄浦路地铁站C口步行270米),湖北省,武汉市,购物服务;商场;购物中心,Jiang'an,武汉天地壹方南馆,"114.309889,30.609527",114.309889,30.609527,1
B0HR410XXE,中山大道555号(六渡桥地铁站A口步行390米),湖北省,武汉市,购物服务;商场;商场,Jianghan,1828武汉新天地(中山大道店),"114.279833,30.573367",114.279833,30.573367,1
B0FFHOJC1L,解放大道690号(中山公园地铁站A口步行100米),湖北省,武汉市,购物服务;商场;购物中心,Jianghan,武汉国际广场AB座,"114.271053,30.580351",114.271053,30.580351,1
B0FFKZLB52,园博大道1号武汉荟聚F1,湖北省,武汉市,购物服务;商场;普通商场,Qiaokou,武汉荟聚中心-H282,"114.166635,30.616546",114.166635,30.616546,1
B0FFHXO53H,解放大道690号武汉国际广场F6,湖北省,武汉市,购物服务;商场;免税品店,Jianghan,ATRIVM(武汉广场店),"114.270873,30.580944",114.270873,30.580944,2
B0H045ADWV,松竹路与沙湖大道交叉口东南80米,湖北省,武汉市,购物服务;商场;购物中心,Wuchang,武汉SKP(装修中),"114.338374,30.557185",114.338374,30.557185,2
B0FFKTZOCK,盘龙城巨龙大道39号(香奈天鹅湖旁),湖北省,武汉市,购物服务;商场;普通商场|购物服务;商场;购物中心,Huangpi,武汉环球广场,"114.289575,30.701397",114.289575,30.701397,2
B0FFGOBHN7,高桥二路特1号,湖北省,武汉市,购物服务;商场;购物中心,Dongxihu,武汉自贸城,"114.049768,30.62874",114.049768,30.62874,2
B0FFLIN96L,青年路518号(范湖地铁站C口步行330米),湖北省,武汉市,购物服务;商场;普通商场,Jianghan,武汉江宸天街,"114.261446,30.606668",114.261446,30.606668,1
B0HKO5HVZL,解放大道557号(武广正对面)武商MALL・国广B座F6,湖北省,武汉市,购物服务;商场;商场,Jianghan,WEDGWOOD(武汉国际广场购物中心店),"114.270764,30.580810",114.270764,30.58081,1
B0FFHBVTHM,关山大道330号,湖北省,武汉市,购物服务;商场;购物中心,Hongshan,武汉保利广场,"114.410385,30.490946",114.410385,30.490946,1
B0FFI2U918,,湖北省,武汉市,购物服务;商场;购物中心,Hongshan,武汉K11Select,"114.41289,30.493297",114.41289,30.493297,1
B0FFFFP4PD,经济开发区江城大道408号,湖北省,武汉市,购物服务;商场;购物中心,Hanyang,永旺梦乐城(武汉经开店),"114.20595,30.503804",114.20595,30.503804,1
B0FFINIB5C,金桥大道与井南路交汇处,湖北省,武汉市,购物服务;商场;购物中心,Jiang'an,武汉ZAMA荟(建设中),"114.294358,30.654573",114.294358,30.654573,2
B0FFKC5A44,解放大道628号,湖北省,武汉市,购物服务;商场;购物中心,Qiaokou,武汉K11购物艺术中心,"114.265515,30.578995",114.265515,30.578995,1
B0HRV7VMIL,青年路518号(范湖地铁站E口旁),湖北省,武汉市,购物服务;商场;购物中心,Jianghan,武汉江宸天街购物中心,"114.260985,30.607050",114.260985,30.60705,1
B001B0AHUB,江汉路,湖北省,武汉市,购物服务;商场;购物中心,Jianghan,大洋百货(武汉中山店),"114.290084,30.577444",114.290084,30.577444,1
B001B0JYZC,解放大道690号,湖北省,武汉市,购物服务;商场;购物中心,Jianghan,武商MALL??国广,"114.271169,30.579913",114.271169,30.579913,1
B0FFI9BJV3,金山大道1239号,湖北省,武汉市,购物服务;商场;购物中心,Dongxihu,武汉金银湖万达广场,"114.177202,30.637673",114.177202,30.637673,1
B0HBB53NLG,解放大道628号,湖北省,武汉市,购物服务;商场;购物中心,Qiaokou,武汉K11购物艺术中心I馆,"114.263812,30.578494",114.263812,30.578494,1
B0HG47RJCK,烽胜路与白沙三路交汇口(光霞地铁站C口步行170米),湖北省,武汉市,购物服务;商场;商场,Hongshan,龙湖武汉白沙天街A馆,"114.292689,30.477457",114.292689,30.477457,1
B001B171HX,东风大道111号,湖北省,武汉市,购物服务;商场;购物中心,Caidian,万达广场(经开店),"114.174648,30.507031",114.174648,30.507031,1
B0FFGCBELS,四新大道608号,湖北省,武汉市,购物服务;商场;购物中心,Hanyang,武汉汉阳万达广场,"114.199788,30.531011",114.199788,30.531011,1
B001B0AU26,沿河大道165号多福家电(近多福路),湖北省,武汉市,购物服务;家电电子卖场;综合家电商场,Qiaokou,武汉多福家电市场,"114.279474,30.562231",114.279474,30.562231,2
B0FFLFB74O,高桥二路与万国街交叉口西380米,湖北省,武汉市,购物服务;商场;普通商场,Dongxihu,武汉自贸城39栋,"114.049142,30.629038",114.049142,30.629038,2
B0FFLFB6B7,高桥二路与万国街交叉口西140米,湖北省,武汉市,购物服务;商场;普通商场,Dongxihu,武汉自贸城3栋,"114.051542,30.628305",114.051542,30.628305,2
B0G04R8JUC,高桥二路与万国街交叉口西180米,湖北省,武汉市,购物服务;商场;普通商场,Dongxihu,武汉自贸城18栋,"114.051149,30.628503",114.051149,30.628503,2
B0G04S89SQ,高桥二路与万国街交叉口西南180米,湖北省,武汉市,购物服务;商场;普通商场,Dongxihu,武汉自贸城4栋,"114.051369,30.628010",114.051369,30.62801,2
B0G0PUETEG,高桥二路与万国街交叉口西200米,湖北省,武汉市,购物服务;商场;普通商场,Dongxihu,武汉自贸城20栋,"114.051014,30.627989",114.051014,30.627989,2
B0H3C7BEE6,新天大道地铁4号线知音站B出口,湖北省,武汉市,购物服务;商场;购物中心|购物服务;商场;普通商场,Caidian,武汉蔡甸吾悦广场,"114.093986,30.554961",114.093986,30.554961,1
B001B0K7C0,多福路8号,湖北省,武汉市,购物服务;商场;普通商场,Qiaokou,汉正街中心商城,"114.277655,30.567428",114.277655,30.567428,2
B0FFFGULCQ,将军路街办事处金银潭大道1号,湖北省,武汉市,购物服务;商场;购物中心,Dongxihu,永旺梦乐城(武汉金银潭店),"114.237878,30.650288",114.237878,30.650288,1
B0G0XU1ZY0,将军路街办事处车场南路7号,湖北省,武汉市,购物服务;商场;购物中心|购物服务;超级市场;超市,Dongxihu,永旺超市(武汉常青城店),"114.251278,30.657951",114.251278,30.657951,1
B0HG47SLEM,白沙三路与光霞路交汇口,湖北省,武汉市,购物服务;商场;商场,Hongshan,龙湖武汉白沙天街B馆,"114.287844,30.478318",114.287844,30.478318,1
B0HGT9B8TF,解放大道630号,湖北省,武汉市,购物服务;商场;商场,Qiaokou,武汉K11购物艺术中心II馆,"114.266362,30.579187",114.266362,30.579187,1
B0H14HTFN0,烽胜路60号(白沙六路地铁站C口旁),湖北省,武汉市,购物服务;商场;普通商场,Hongshan,Oval Space 一奥荟・武汉启城购物公园(装修中),"114.292508,30.469272",114.292508,30.469272,2
B0FFM1CYVH,嘉禾园46栋3单元102,湖北省,武汉市,购物服务;家电电子卖场;综合家电商场,Dongxihu,武汉聚力名匠电器维修有限公司,"114.154945,30.629356",114.154945,30.629356,3
B0FFLA2WKG,友谊大道金盛国际家居后广场辅楼W27/W28,湖北省,武汉市,购物服务;家电电子卖场;综合家电商场,Wuchang,武汉麦田威尔商贸有限公司,"114.318614,30.559948",114.318614,30.559948,3
B0FFK7L8Q0,南李路32号(板桥地铁站D口步行130米),湖北省,武汉市,购物服务;商场;免税品店,Hongshan,武汉金鑫盛家具交易中心,"114.314048,30.474454",114.314048,30.474454,3
B0FFHUX5XP,解放大道690号(中山公园地铁站A口步行210米),湖北省,武汉市,购物服务;商场;购物中心,Jianghan,武汉国际广场,"114.272092,30.580115",114.272092,30.580115,1
B001B0JX9J,龙阳大道特6号,湖北省,武汉市,购物服务;商场;购物中心,Hanyang,武汉摩尔城,"114.207033,30.559123",114.207033,30.559123,1
B001B0IHD0,宗关解放大道201号南国西汇生活广场2-3楼,湖北省,武汉市,购物服务;家电电子卖场;综合家电商场,Qiaokou,工贸家电(大武汉店),"114.223116,30.583635",114.223116,30.583635,2
B0FFGDYGIN,解放大道557号(武广正对面),湖北省,武汉市,购物服务;商场;商场,Jianghan,武商MALL??国广A座,"114.270746,30.580948",114.270746,30.580948,1
B0FFM2W1ZQ,中山大道多福路交汇处(汉正街地铁站B口步行200米),湖北省,武汉市,购物服务;商场;普通商场,Qiaokou,云尚・武汉国际时尚中心-B馆,"114.277373,30.571528",114.277373,30.571528,1
B0FFH1U6XE,解放大道557号(武广正对面),湖北省,武汉市,购物服务;商场;购物中心,Jianghan,武商MALL??国广B座,"114.271435,30.579919",114.271435,30.579919,1
B0FFKDUBSS,永和路8号(头道街地铁站A口步行450米),湖北省,武汉市,购物服务;商场;普通商场,Jiang'an,武汉天地壹方北馆,"114.314103,30.616206",114.314103,30.616206,1
B001B1CCBG,中山大道238号,湖北省,武汉市,购物服务;商场;购物中心,Qiaokou,凯德广场,"114.267015,30.568734",114.267015,30.568734,1
B001B1GYLS,龙阳大道与四新大道交汇处,湖北省,武汉市,购物服务;商场;购物中心,Hanyang,武汉方圆荟,"114.189294,30.533986",114.189294,30.533986,2
B0H1BA63EQ,江汉路118号,湖北省,武汉市,购物服务;商场;购物中心,Jiang'an,武汉X118,"114.290045,30.582477",114.290045,30.582477,2
B0HDPZJ08S,中山大道1515号武汉天地壹方购物中心F3,湖北省,武汉市,购物服务;商场;购物中心,Jiang'an,武汉天地壹方购物中心西座,"114.309380,30.608831",114.30938,30.608831,1
B0HDPZJ08Q,中山大道1515号(黄浦路地铁站C口步行280米),湖北省,武汉市,购物服务;商场;购物中心,Jiang'an,武汉天地壹方购物中心东座,"114.310444,30.610339",114.310444,30.610339,1
B0FFI0JMMV,解放大道367号2栋1单元,湖北省,武汉市,购物服务;商场;购物中心,Qiaokou,南国大武汉3期西汇广场,"114.222692,30.585643",114.222692,30.585643,2
B0FFFFAPXD,云杉路199号(近淮海路),湖北省,武汉市,购物服务;商场;商场,Jianghan,武汉范湖万达广场,"114.255455,30.603127",114.255455,30.603127,1
B0FFM1VOYY,中山大道388号(汉正街地铁站B口步行350米),湖北省,武汉市,购物服务;商场;普通商场,Qiaokou,云尚・武汉国际时尚中心-A馆,"114.279028,30.572112",114.279028,30.572112,1
B001B1FJ4N,解放大道686号世贸广场一楼,湖北省,武汉市,购物服务;专卖店;珠宝首饰工艺品|购物服务;商场;商场,Jianghan,六福珠宝(武汉世贸店),"114.269328,30.580137",114.269328,30.580137,2
B0G2XPKM14,烟霞路1号,湖北省,武汉市,购物服务;商场;购物中心,Wuchang,武汉汉街万达,"114.332716,30.559469",114.332716,30.559469,1
B0FFM1TSVX,中山大道388号(汉正街地铁站B口步行200米),湖北省,武汉市,购物服务;商场;普通商场,Qiaokou,云尚・武汉国际时尚中心-C馆(云尚国际时尚中心店),"114.276916,30.570733",114.276916,30.570733,1
B0FFGSXPYZ,汉庭酒店珞瑜路560号(吴家湾大厦1楼),湖北省,武汉市,购物服务;商场;商场,Hongshan,武汉光谷广场店,"114.389526,30.512321",114.389526,30.512321,1
B001B0IOGE,沿河大道166号,湖北省,武汉市,购物服务;家电电子卖场;综合家电商场,Qiaokou,工贸沿河家电市场(武汉工贸大厦店),"114.279083,30.562185",114.279083,30.562185,2
B0HKXUSDPR,江城大道388号永旺梦乐城武汉经开店F3,湖北省,武汉市,购物服务;商场;商场,Hanyang,永旺梦乐城(武汉经开店)-自动售货机,"114.206554,30.505965",114.206554,30.505965,1
B0HUBCFA8Y,中山大道武汉天地壹方购物中心(中山大道店),湖北省,武汉市,购物服务;商场;商场,Jiang'an,HORIZON壹方(武汉天地壹方购物中心店),"114.310525,30.609829",114.310525,30.609829,2
B0FFH9TKLI,龙腾大道与古城大道交界处幸福时代百货广场一楼,湖北省,武汉市,购物服务;商场;商场,Xinzhou,湖北武汉幸福时代百货广场店,"114.799948,30.826669",114.799948,30.826669,3
B0FFL1EOBI,盘龙城经济开发区,湖北省,武汉市,购物服务;商场;商场,Huangpi,武汉百联奥特莱斯c区(百联奥特莱斯广场店),"114.258309,30.731317",114.258309,30.731317,2
B0FFJV7BE6,江城大道388号永旺梦乐城武汉经开店F2,湖北省,武汉市,购物服务;商场;商场,Hanyang,永旺梦乐城(武汉经开店)-自动售货机,"114.204667,30.502037",114.204667,30.502037,1
B0FFH1MN2R,友谊大道友谊国际负一楼B018号,湖北省,武汉市,购物服务;商场;商场,Wuchang,EDS会员商城(武汉天韵灯饰有限公司店),"114.316249,30.556002",114.316249,30.556002,3
B0FFM0UA8C,机场大道武汉天河国际机场T3航站楼F2层,湖北省,武汉市,购物服务;商场;免税品店,Huangpi,AI机器时代(武汉天河国际机场T3航站楼),"114.220553,30.768837",114.220553,30.768837,3
B0G2M4V2BI,万松街街道解放大道688号武汉广场,湖北省,武汉市,购物服务;商场;免税品店,Jianghan,fiveps专柜(武汉国际广场店),"114.271240,30.580010",114.27124,30.58001,2
B0FFM0UG0U,机场大道武汉天河国际机场T3航站楼F4层,湖北省,武汉市,购物服务;商场;免税品店,Huangpi,cdf中国免税店(武汉天河国际机场T3航站楼),"114.219952,30.773482",114.219952,30.773482,3
B001B1C63Z,中山大道754号(江汉路地铁站G口步行250米),湖北省,武汉市,购物服务;商场;普通商场,Jianghan,新首信时尚广场(武汉工艺大楼店),"114.288904,30.576895",114.288904,30.576895,2
B0FFGE9OIE,马影河大道与桂子湖路交叉口西北60米,湖北省,武汉市,购物服务;商场;免税品店,Hannan,U-LIFE(武汉碧桂园风情商业街店),"114.087826,30.351150",114.087826,30.35115,2
B0IRL7HA13,青年路161号ICC武汉环贸中心,湖北省,武汉市,购物服务;商场;普通商场,Jianghan,TAHAN(ICC武汉环贸中心店),"114.262417,30.589656",114.262417,30.589656,3
B0IG4R5SU4,武汉站西进站口A1检票口,湖北省,武汉市,购物服务;商场;商场,Hongshan,NODE+5%免税会员店(武汉站),"114.423382,30.607900",114.423382,30.6079,3
B0IRTZEN18,汉西三路与南泥湾大道交叉口东北200米,湖北省,武汉市,购物服务;商场;普通商场,Qiaokou,武汉汉口商场(香江家居店),"114.222147,30.599246",114.222147,30.599246,2
B0FFJKQ9V1,青年路辅路与马场路交叉口东80米,湖北省,武汉市,购物服务;商场;商场,Jianghan,武汉天街广场,"114.258458,30.612230",114.258458,30.61223,1
B0IAJKKKPV,中山大道与多福路交叉口东100米,湖北省,武汉市,购物服务;商场;购物中心,Qiaokou,武汉国际时尚中心,"114.277314,30.571742",114.277314,30.571742,1
B0IA3XIBTZ,团结大道1335号(仁和路地铁站A口步行480米),湖北省,武汉市,购物服务;商场;购物中心,Hongshan,武汉金地广场-购物中心,"114.384035,30.603700",114.384035,30.6037,2
B0I63HVAGB,新华路与解放大道辅路交叉口东北120米,湖北省,武汉市,购物服务;商场;购物中心,Jianghan,越秀・武汉国金天地(装修中),"114.277217,30.584321",114.277217,30.584321,1
B0IG1UF3XI,园博大道与宜欣路交叉口西100米,湖北省,武汉市,购物服务;商场;普通商场,Qiaokou,悦活里.PARK,"114.169517,30.617350",114.169517,30.61735,2
B0FFLAGEFR,恒安路与平顺路交叉口西100米(瑞安街地铁站A口旁),湖北省,武汉市,购物服务;家电电子卖场;综合家电商场,Wuchang,武汉专营二手家电空调回收与销售,"114.313191,30.516999",114.313191,30.516999,3
B001B15YDC,和平大道1544号(红钢城地铁站A口步行160米),湖北省,武汉市,购物服务;商场;商场,Qingshan,青山商场,"114.402937,30.639209",114.402937,30.639209,3
B001B0JNDX,汉南大道580号,湖北省,武汉市,购物服务;商场;购物中心,Hannan,中百仓储(汉南购物广场),"114.085161,30.311307",114.085161,30.311307,3
B0FFFY0O71,中北路120号(青鱼嘴地铁站B口步行50米),湖北省,武汉市,购物服务;商场;商场,Wuchang,家盛时代城市生活广场(中北店),"114.350349,30.562856",114.350349,30.562856,2
B001B16L1O,民族大道,湖北省,武汉市,购物服务;商场;普通商场,Hongshan,华罗利广场,"114.396168,30.483272",114.396168,30.483272,2
B001B07YIV,中山大道858号,湖北省,武汉市,购物服务;商场;购物中心,Jianghan,王府井百货(中山大道店),"114.291476,30.579247",114.291476,30.579247,1
B001B0I64M,珞喻路1号(街道口地铁站C口步行90米),湖北省,武汉市,购物服务;商场;购物中心,Hongshan,新世界百货(武昌店),"114.354125,30.527154",114.354125,30.527154,1
B0FFHEWWXZ,高新二路139号,湖北省,武汉市,购物服务;商场;购物中心,Jiangxia,首创奥特莱斯,"114.461443,30.477419",114.461443,30.477419,1
B001B06SEO,建设大道566号,湖北省,武汉市,购物服务;商场;购物中心,Jianghan,新世界百货(国贸店),"114.269964,30.594962",114.269964,30.594962,1
B0FFGE6URB,常青一路218号,湖北省,武汉市,购物服务;商场;购物中心,Jianghan,万科广场,"114.26199,30.623342",114.26199,30.623342,1
B001B0JON9,黄陂大道162号黄陂购物广场,湖北省,武汉市,购物服务;商场;普通商场,Huangpi,中百仓储(黄陂店),"114.372399,30.881419",114.372399,30.881419,3
B001B0JNCL,藏龙岛光谷大道紫微星广场1-2层,湖北省,武汉市,购物服务;商场;购物中心,Jiangxia,中百仓储(紫微星购物广场),"114.423466,30.436463",114.423466,30.436463,3
B001B16TBS,四明路和东吴大道交汇处,湖北省,武汉市,购物服务;商场;购物中心,Dongxihu,服投广场,"114.142606,30.622463",114.142606,30.622463,2
B001B0J3MA,中山大道600号(六渡桥地铁站A口旁),湖北省,武汉市,购物服务;商场;普通商场,Jianghan,库玛商场,"114.283445,30.574082",114.283445,30.574082,3
B001B16GH3,丁字桥南路520号,湖北省,武汉市,购物服务;商场;购物中心,Wuchang,南国南湖城市广场(建安街),"114.324906,30.505355",114.324906,30.505355,2
B0FFGLNE3C,街道口珞喻路4号乐天城(街道口地铁站B口旁),湖北省,武汉市,购物服务;商场;购物中心,Hongshan,乐天城,"114.354417,30.525489",114.354417,30.525489,2
B0FFGEA3J6,雄楚大道与石牌岭路交汇处,湖北省,武汉市,购物服务;商场;购物中心|购物服务;服装鞋帽皮具店;服装鞋帽皮具店,Hongshan,乐都汇(石牌岭路),"114.335908,30.516469",114.335908,30.516469,3
B0FFIL2S3W,姑嫂树路12号(石桥地铁站F口步行180米),湖北省,武汉市,购物服务;商场;普通商场|科教文化服务;培训机构;培训机构,Jianghan,泛悦Mall(北都店),"114.266309,30.627133",114.266309,30.627133,2
B0FFF3W3ZF,文治街与丁字桥南路交叉路口,湖北省,武汉市,购物服务;商场;商场,Hongshan,维佳・佰港城,"114.326487,30.503319",114.326487,30.503319,1
B0FFHCQHD6,后湖大道与建设大道延长线交汇处汉口城市广场F1,湖北省,武汉市,购物服务;家电电子卖场;综合家电商场,Jiang'an,工贸家电(汉口城市广场店),"114.310558,30.653177",114.310558,30.653177,2
B0FFFD3QT6,和平大道959号(建设二路地铁站C口步行110米),湖北省,武汉市,购物服务;商场;购物中心,Qingshan,武商城市奥莱,"114.377101,30.6268",114.377101,30.6268,1
B0FFHLP36K,卓刀泉路238号(地铁2号线杨家湾站B出口旁),湖北省,武汉市,购物服务;商场;购物中心,Hongshan,皇后公园,"114.383451,30.504556",114.383451,30.504556,3
B0FFKAV139,清江路与范湖路交叉口东南100米,湖北省,武汉市,商务住宅;楼宇;商务写字楼|购物服务;商场;普通商场|风景名胜;公园广场;城市广场,Jianghan,泛海城市广场,"114.253973,30.600375",114.253973,30.600375,2
B0FFJ2UUIC,龙阳大道48号(龙阳村地铁站C口步行270米),湖北省,武汉市,商务住宅;楼宇;商务写字楼|购物服务;商场;普通商场,Hanyang,万隆城市广场,"114.206634,30.555802",114.206634,30.555802,2
B0FFI7V0MH,丁字桥南路518号,湖北省,武汉市,购物服务;商场;普通商场,Wuchang,泛悦Mall(南湖店),"114.324907,30.505357",114.324907,30.505357,3
B0G2NH245Q,,湖北省,武汉市,购物服务;商场;购物中心,Huangpi,武汉盘龙城万达广场,"114.304329,30.694782",114.304329,30.694782,2
B0G0B528IY,云彩路198号(云飞路地铁站C口步行390米),湖北省,武汉市,购物服务;商场;购物中心|购物服务;商场;普通商场|商务住宅;楼宇;商务写字楼,Jianghan,万达广场,"114.254613,30.602242",114.254613,30.602242,1
B0FFHTYBQQ,雄楚大道938号,湖北省,武汉市,购物服务;商场;普通商场|商务住宅;楼宇;商住两用楼宇,Hongshan,洪福添美广场,"114.398645,30.497479",114.398645,30.497479,3
B0FFH1VC4B,康美路附近,湖北省,武汉市,购物服务;商场;普通商场,Qingshan,丽红购物广场,"114.48592,30.606942",114.48592,30.606942,2
B001B09DU2,前进一路特6号(六渡桥地铁站C1口步行140米),湖北省,武汉市,购物服务;商场;普通商场,Jianghan,时代美博城,"114.284057,30.576228",114.284057,30.576228,2
B0HKOZEJ94,和平大道与九医院路交叉口西100米,湖北省,武汉市,购物服务;专卖店;礼品饰品店|购物服务;商场;普通商场|商务住宅;楼宇;商务写字楼,Qingshan,武商城市奥莱B馆,"114.377346,30.626348",114.377346,30.626348,1
B0IRZ77J73,金地广场(园林路地铁站E口步行440米),湖北省,武汉市,购物服务;商场;购物中心,Hongshan,永旺,"114.383567,30.603205",114.383567,30.603205,1
B0IGVA1TYT,白沙四路与长征三路交叉口西20米,湖北省,武汉市,购物服务;商场;普通商场|商务住宅;住宅区;住宅小区,Hongshan,金色城市,"114.261711,30.483655",114.261711,30.483655,2
B0FFJZ7C6R,盘龙城经济开发区盘龙城,湖北省,武汉市,购物服务;商场;普通商场,Huangpi,名流城市广场,"114.274922,30.70914",114.274922,30.70914,2
B001B171HQ,后湖大道与建设大道延长线交汇处(同安家园旁),湖北省,武汉市,购物服务;商场;购物中心,Jiang'an,汉口城市广场SOHO,"114.306253,30.651889",114.306253,30.651889,1
B0HGFS4M4L,武珞路628号(宝通寺地铁站B口步行130米),湖北省,武汉市,购物服务;商场;购物中心|商务住宅;楼宇;商务写字楼,Wuchang,武商亚贸广场,"114.342759,30.529261",114.342759,30.529261,2
B0FFG78ZR6,卓尔总部基地,湖北省,武汉市,购物服务;商场;购物中心,Huangpi,中城时代百尚购物广场,"114.287993,30.702516",114.287993,30.702516,3
B0G055L5BA,常青花园地铁站B1口步行360米,湖北省,武汉市,购物服务;商场;普通商场,Dongxihu,武商超市(常青花园店),"114.239008,30.63949",114.239008,30.63949,2
B0HBOHM3H8,腾龙大道西50米,湖北省,武汉市,购物服务;商场;普通商场,Huangpi,奥莱之星城市广场,"114.255408,30.729530",114.255408,30.72953,1
B0FFINC82M,环湖中路43号,湖北省,武汉市,购物服务;商场;普通商场|购物服务;商场;购物中心,Dongxihu,恒大城市广场,"114.171791,30.661503",114.171791,30.661503,3
B0FFH3QH6B,常青路168中百仓储3楼,湖北省,武汉市,购物服务;家电电子卖场;综合家电商场,Jianghan,中百工贸电器(常青店),"114.240059,30.625536",114.240059,30.625536,3
B0HB2UWPWL,沿河大道68号,湖北省,武汉市,购物服务;商场;普通商场|购物服务;综合市场;综合市场,Jianghan,万商白马服装交易中心市场,"114.285436,30.567575",114.285436,30.567575,3
B0FFHQ70S2,后湖大道汉口城市广场购物中心,湖北省,武汉市,购物服务;商场;购物中心,Jiang'an,汉口城市广场D区,"114.309355,30.652832",114.309355,30.652832,1
B001B16C6H,青王路99号(厂前地铁站C口步行360米),湖北省,武汉市,购物服务;商场;购物中心,Qingshan,丽红购物广场(站前路店),"114.437905,30.609991",114.437905,30.609991,3
B0FFLFO5NP,后湖大道与温馨路交叉口西80米,湖北省,武汉市,购物服务;商场;普通商场|购物服务;商场;购物中心|购物服务;超级市场;超市,Jiang'an,汉口城市广场E区,"114.31073,30.653357",114.31073,30.653357,1
B001B1CP2R,姑嫂树路12号(姑嫂树路和兴业路交叉口),湖北省,武汉市,购物服务;商场;普通商场,Jianghan,南国北都城市广场,"114.266346,30.627198",114.266346,30.627198,2
B0H3J75QYJ,春晓路永旺梦乐城(武汉经开店),湖北省,武汉市,购物服务;商场;购物中心,Hanyang,永旺超市(春晓路店),"114.204757,30.502320",114.204757,30.50232,1
B0FFG4LLIB,建桥街道钟家村地铁站B出口,湖北省,武汉市,购物服务;商场;普通商场|购物服务;商场;购物中心,Hanyang,汉商银座知音站台,"114.265632,30.548998",114.265632,30.548998,1
B0FFGLOQFF,珞喻路456号,湖北省,武汉市,购物服务;商场;购物中心|购物服务;超级市场;超市,Hongshan,中商超市(光谷店),"114.430557,30.505530",114.430557,30.50553,2
B001B16S07,盘龙城经济开发区盘龙城,湖北省,武汉市,购物服务;商场;购物中心,Huangpi,名流城市商业广场,"114.274916,30.709126",114.274916,30.709126,2
B0FFFFYC0M,武滨路154号,湖北省,武汉市,购物服务;商场;普通商场|购物服务;综合市场;水产海鲜市场,Xinzhou,华商平价广场(仓埠店),"114.602801,30.832969",114.602801,30.832969,2
B0FFFQ2OQP,金银潭大道1号武汉永旺梦乐城2F层234,湖北省,武汉市,购物服务;家电电子卖场;综合家电商场,Dongxihu,工贸家电(永旺梦乐城金银潭店),"114.236741,30.650248",114.236741,30.650248,2
B0HBO7M60K,长嘉路太平洋农贸市场,湖北省,武汉市,购物服务;商场;普通商场,Qiaokou,长嘉百货批发城,"114.212206,30.594666",114.212206,30.594666,3
B0FFIJ2DQQ,金银湖街道金银湖路9号,湖北省,武汉市,购物服务;商场;普通商场,Dongxihu,金盛金银湖广场,"114.202625,30.631857",114.202625,30.631857,1
B0FFGFR741,后湖大道(后湖大道地铁站N口步行60米),湖北省,武汉市,购物服务;商场;购物中心,Jiang'an,汉口城市广场C区,"114.307188,30.652279",114.307188,30.652279,1
B0FFGZNRWE,民族大道和雄楚大道交叉口添美广场1层,湖北省,武汉市,购物服务;家电电子卖场;综合家电商场,Hongshan,中百工贸电器(城市广场店),"114.399430,30.497551",114.39943,30.497551,2
B0FFGBGLNB,园博大道1号,湖北省,武汉市,购物服务;商场;购物中心,Qiaokou,武汉荟聚,"114.167514,30.617138",114.167514,30.617138,1
B0FFI1ZU46,解放大道367号2栋1单元,湖北省,武汉市,购物服务;商场;购物中心,Qiaokou,泛悦・南国广场,"114.2228,30.585039",114.2228,30.585039,1
B0FFH904G6,金桥大道18号,湖北省,武汉市,购物服务;商场;购物中心,Jiang'an,永旺超市(永旺梦乐城店),"114.284184,30.630293",114.284184,30.630293,1
B0FFK1U5IA,广场环路与体育馆路交叉口南80米,湖北省,武汉市,购物服务;商场;商场,Wuchang,江南创意市集,"114.336102,30.545418",114.336102,30.545418,2
B0FFI03PTO,珞瑜路20号(街道口地铁站N口步行90米),湖北省,武汉市,购物服务;商场;普通商场|购物服务;商场;购物中心|购物服务;服装鞋帽皮具店;服装鞋帽皮具店,Hongshan,流行视窗购物广场(珞瑜路店),"114.353873,30.525893",114.353873,30.525893,3
B0FFH806LL,淮海路与商务中路交叉口东南80米,湖北省,武汉市,商务住宅;楼宇;商务写字楼|购物服务;商场;普通商场,Jianghan,中央商务区,"114.248489,30.599484",114.248489,30.599484,2
B0FFF5U516,阳逻街阳光大道151号,湖北省,武汉市,购物服务;家电电子卖场;综合家电商场,Xinzhou,海尔电器(阳逻店),"114.563850,30.656052",114.56385,30.656052,3
B0FFIS0IFO,武昌火车站公交综合体车站二楼,湖北省,武汉市,购物服务;商场;普通商场,Wuchang,新禧莲中商美食购物广场,"114.317748,30.530362",114.317748,30.530362,3
B0FFH0U4HQ,巨龙大道与和美路交叉口西北100米,湖北省,武汉市,购物服务;商场;普通商场,Huangpi,名流城市商业广场A座,"114.275355,30.709096",114.275355,30.709096,3
B0G39DOQYI,流芳路108号,湖北省,武汉市,购物服务;商场;普通商场|购物服务;超级市场;超市,Jiangxia,同兴生活广场,"114.452329,30.431713",114.452329,30.431713,3
B0FFH0U4H8,巨龙大道与和美路交叉口西200米,湖北省,武汉市,购物服务;商场;普通商场,Huangpi,名流城市商业广场B座,"114.274161,30.709201",114.274161,30.709201,3
B0FFGCBDY2,和平大道959号(靠本溪街),湖北省,武汉市,购物服务;商场;购物中心|购物服务;商场;普通商场,Qingshan,武商城市奥莱C潮品馆,"114.377658,30.627485",114.377658,30.627485,1
B0FFHUC67G,龙阳大道36号大洋百货龙阳店B2层,湖北省,武汉市,购物服务;商场;购物中心|购物服务;商场;普通商场,Hanyang,江诗尼亚龙阳大洋百货专卖店,"114.208932,30.560687",114.208932,30.560687,2
B0FFGFRN8Y,后湖大道111号汉口城市广场购物中心,湖北省,武汉市,购物服务;商场;普通商场,Jiang'an,汉口城市广场A区,"114.305435,30.65153",114.305435,30.65153,1
B0FFM2976N,巨龙大道88号名流城市商业广场F1,湖北省,武汉市,购物服务;家电电子卖场;综合家电商场,Huangpi,中百工贸电器(盘龙城店),"114.274757,30.709100",114.274757,30.7091,3
B0H33AUHHV,蔡甸街华林村华林公寓33号附近,湖北省,武汉市,购物服务;商场;普通商场,Caidian,新世纪超市(进喜路店),"114.027957,30.535633",114.027957,30.535633,3
B0FFIDV0LJ,中山大道388号(汉正街地铁站B口步行240米),湖北省,武汉市,购物服务;商场;商场,Qiaokou,云尚国际时尚中心,"114.27817,30.57138",114.27817,30.57138,1
B0FFGQ52CX,长丰大道与丰华路交汇处,湖北省,武汉市,购物服务;商场;普通商场,Qiaokou,盛惠・中原里,"114.208751,30.60779",114.208751,30.60779,2
B0HK1S6M83,唐家墩路490号,湖北省,武汉市,购物服务;商场;商场,Jianghan,5.5数字文创港,"114.269044,30.609061",114.269044,30.609061,3
B0G02R5VRU,光谷街与珞雄路交叉口西100米,湖北省,武汉市,购物服务;商场;商场,Hongshan,云尚城市奥莱(西班牙风情街店),"114.405397,30.503141",114.405397,30.503141,1
B0FFHCSLLP,九全嘉国际广场,湖北省,武汉市,购物服务;商场;普通商场|购物服务;超级市场;超市,Jiangxia,发到家(九全嘉国际广场店),"114.329919,30.358326",114.329919,30.358326,2
B0HBLG8O8D,田园中路服投广场,湖北省,武汉市,购物服务;商场;普通商场,Dongxihu,美好市集(服投广场店),"114.142749,30.622317",114.142749,30.622317,2
B0FFHRI4K3,青化路32号武钢二医院旁边,湖北省,武汉市,购物服务;商场;普通商场|购物服务;超级市场;超市,Qingshan,丽红超市(白玉山1店,"114.486296,30.606885",114.486296,30.606885,3
B001B17G05,阳光大道152号,湖北省,武汉市,购物服务;家电电子卖场;综合家电商场,Xinzhou,永兴商场,"114.565289,30.658188",114.565289,30.658188,3
B0FFLNRGU6,墨水湖北路与院子湾路交叉口东南40米,湖北省,武汉市,购物服务;商场;普通商场,Hanyang,武商量贩(入口),"114.233256,30.551713",114.233256,30.551713,2
B001B1CC98,雄楚大道杨家G保利华都A座(杨家湾地铁站C口旁),湖北省,武汉市,购物服务;商场;普通商场,Hongshan,流行视窗购物广场(卓豹店),"114.38408,30.505586",114.38408,30.505586,3
B0FFLPGILS,龙腾大街80号附近,湖北省,武汉市,购物服务;商场;商场,Xinzhou,幸福时代购物广场,"114.798783,30.826299",114.798783,30.826299,2
B0FFG77MMG,和平大道959号武商城市奥莱,湖北省,武汉市,购物服务;商场;购物中心|购物服务;商场;普通商场,Qingshan,武商城市奥莱A名品馆,"114.376612,30.626485",114.376612,30.626485,1
B001B15UZX,中山大道285-287号,湖北省,武汉市,购物服务;商场;购物中心,Qiaokou,美奇国际广场,"114.277932,30.572845",114.277932,30.572845,3
B0FFKG4J49,珞狮南路425号(马房山地铁站C口步行160米),湖北省,武汉市,购物服务;商场;普通商场,Hongshan,泛悦・城市奥特莱斯,"114.35125,30.513014",114.35125,30.513014,1
B0IA3XJ94K,和平大道959号武商众圆广场F5,湖北省,武汉市,购物服务;商场;商场,Qingshan,发源地武商众圆广场(武商城市奥莱店),"114.376401,30.626000",114.376401,30.626,1
B0GKVC58OO,解放大道18号(古田二路地铁站A口步行360米),湖北省,武汉市,购物服务;商场;普通商场|购物服务;商场;购物中心,Qiaokou,凯德广场(西城店),"114.193355,30.597579",114.193355,30.597579,1
B0FFFPA0E2,解放大道686号世贸大厦11层1108,湖北省,武汉市,购物服务;商场;普通商场,Jianghan,武商,"114.269510,30.579911",114.26951,30.579911,1
B0H05MCE95,解放大道367号2栋1单元南国・西汇F5,湖北省,武汉市,购物服务;商场;商场,Qiaokou,潮玩黑市(南国西汇城市广场2期店),"114.222697,30.585559",114.222697,30.585559,3
B001B1IQWX,龙阳大道36号大洋百货B1层,湖北省,武汉市,购物服务;商场;普通商场|购物服务;服装鞋帽皮具店;品牌鞋店,Hanyang,大洋龙阳百货专卖店,"114.208652,30.560929",114.208652,30.560929,1
B0HRJ9SIS5,中山大道与民意四路交叉口南40米,湖北省,武汉市,购物服务;商场;商场,Qiaokou,云尚国际旗舰店,"114.279415,30.572479",114.279415,30.572479,1
B0FFKZUQ4A,芦沟桥路长春街小学东北侧约110米,湖北省,武汉市,购物服务;商场;免税品店,Jiang'an,MOORIGINS,"114.311146,30.607474",114.311146,30.607474,2
B0FFMHBO7G,汉口北商贸物流枢纽区管委会汉口北大道电商大厦12楼,湖北省,武汉市,购物服务;商场;普通商场,Huangpi,汉口北,"114.323082,30.704595",114.323082,30.704595,2
B001B18XV6,后湖大道111号(后湖大道地铁站N口步行70米),湖北省,武汉市,购物服务;商场;购物中心,Jiang'an,汉口城市广场购物中心,"114.306636,30.65195",114.306636,30.65195,1
