id,parent,address,pname,cityname,type,typecode,shopinfo,childtype,adname,name,location,tel,lng,lat
B0FFGMDF2A,B001B0IIVV,徐东大街18号销品茂购物广场五楼,湖北省,武汉市,餐饮服务;餐饮相关场所;餐饮相关,050000,1,202,武昌区,香识销品茂店,"114.343340,30.589175",027-68899277,114.343340,30.589175
B0FFJXF5NH,B001B0IIVV,徐东大街18号销品茂7F层,湖北省,武汉市,餐饮服务;冷饮店;冷饮店,050700,0,201,武昌区,sweet(销品茂),"114.343578,30.588960",[],114.343578,30.588960
B0FFH61HJE,B001B0IIVV,徐东大街18号销品茂5F层,湖北省,武汉市,餐饮服务;中餐厅;中餐厅,050100,0,201,武昌区,我们烧烤吧(徐东店),"114.343120,30.588050",15107175877,114.343120,30.588050
B001B19RD4,B001B0IIVV,徐东大街30号武昌销品茂3层,湖北省,武汉市,餐饮服务;外国餐厅;西餐厅(综合风味),050201,0,201,武昌区,半秋山西餐厅(销品茂店),"114.343372,30.589102",027-68898777;027-68899977,114.343372,30.589102
B0FFM8Q5E1,B001B0IIVV,徐东大街18号武汉销品茂壹层F1011A,湖北省,武汉市,餐饮服务;冷饮店;冷饮店,050700,0,202,武昌区,喜茶(销品茂店),"114.343496,30.588880",027-88840771,114.343496,30.588880
B0FFJCKKS5,B001B0IIVV,徐东大街销品茂五楼G5003A,湖北省,武汉市,餐饮服务;外国餐厅;日本料理,050202,0,201,武昌区,一捧饭团(销品茂店),"114.342662,30.587978",13995648904;13237131244,114.342662,30.587978
B001B0JALS,B001B0IIVV,徐东大街18号武汉销品茂1层,湖北省,武汉市,餐饮服务;冷饮店;冷饮店|餐饮服务;糕饼店;糕饼店,050700|050800,0,201,武昌区,DQ(徐东销品茂店),"114.342597,30.587869",4001088870;13407136739,114.342597,30.587869
B0FFHHPH8G,B001B0IIVV,洪山徐东商圈友谊大道销品茂1层,湖北省,武汉市,餐饮服务;冷饮店;冷饮店,050700,0,202,武昌区,1点点(徐东销品茂店),"114.342740,30.588606",027-62438047,114.342740,30.588606
B0G134Y0N7,B001B0IIVV,徐东大街18号销品茂5层F5012A号,湖北省,武汉市,餐饮服务;中餐厅;火锅店,050117,0,202,武昌区,海底捞火锅(销品茂店),"114.343501,30.589203",027-86709077;027-86709078,114.343501,30.589203
B001B19SBS,B001B0IIVV,徐东大街18号销品茂5层,湖北省,武汉市,餐饮服务;中餐厅;中餐厅,050100,1,201,武昌区,荷花亭(销品茂店),"114.342410,30.587097",027-68899177,114.342410,30.587097
B0FFIAS4ZI,B001B0IIVV,徐东大街18号销品茂5F层,湖北省,武汉市,餐饮服务;餐饮相关场所;餐饮相关,050000,0,201,武昌区,刘芒鸭(销品茂),"114.343173,30.588197",18502728975,114.343173,30.588197
B0FFJJG5FT,B001B0IIVV,徐东大街18号武汉销品茂五楼F5020号商铺,湖北省,武汉市,餐饮服务;中餐厅;中餐厅,050100,0,201,武昌区,丽满园・春饼烤鸭(销品茂店),"114.342828,30.588448",027-88513277;15527379002,114.342828,30.588448
B0FFKU0RQB,B001B0IIVV,徐东大街118号销品茂5楼(金逸影城旁),湖北省,武汉市,餐饮服务;中餐厅;中餐厅,050100,0,201,武昌区,老五烧烤(销品茂店),"114.342502,30.587971",027-88772567;4008267710,114.342502,30.587971
B0FFJE2SB9,B001B0IIVV,徐东大街18号销品茂5楼,湖北省,武汉市,餐饮服务;餐饮相关场所;餐饮相关,050000,0,201,武昌区,沙拉之间(销品茂店),"114.342719,30.587777",13720111049;18571773837,114.342719,30.587777
B001B0J86B,B001B0IIVV,徐东大街18号销品茂购物广场一楼,湖北省,武汉市,餐饮服务;咖啡厅;星巴克咖啡,050501,0,201,武昌区,星巴克(武汉徐东销品茂店),"114.343960,30.588682",027-88611991,114.343960,30.588682
B0HUVX5N6M,B001B0IIVV,徐东大街18号销品茂1F层,湖北省,武汉市,餐饮服务;中餐厅;火锅店,050117,0,202,武昌区,小君干火锅串串香(销品茂),"114.342447,30.586999",[],114.342447,30.586999
B0FFHBBGE1,B001B0IIVV,友谊大道与徐东大街交界口销品茂5层,湖北省,武汉市,餐饮服务;中餐厅;特色/地方风味餐厅,050118,1,202,武昌区,匠子烤鱼(销品茂店),"114.343010,30.588115",027-86701677,114.343010,30.588115
B0FFKU0RPS,B001B0IIVV,徐东大街18号武汉销品茂四层G4004A号,湖北省,武汉市,餐饮服务;糕饼店;糕饼店,050800,0,201,武昌区,旦3蛋烘糕(销品茂店),"114.342665,30.587938",[],114.342665,30.587938
B0G0C1ZOCM,B001B0IIVV,徐东大街18号武汉销品茂五层F5009A号,湖北省,武汉市,餐饮服务;餐饮相关场所;餐饮相关,050000,0,202,武昌区,匠味(销品茂店),"114.342901,30.588507",027-88853588,114.342901,30.588507
B0FFFCO9Q1,B001B0IIVV,徐东大街18号徐东销品茂5楼,湖北省,武汉市,餐饮服务;餐饮相关场所;餐饮相关,050000,0,202,武昌区,爱比萨(销品茂店),"114.343468,30.588782",[],114.343468,30.588782
B0HGYUWN14,B001B0IIVV,徐东大街18号销品茂5楼龙记米粉,湖北省,武汉市,餐饮服务;餐饮相关场所;餐饮相关,050000,0,202,武昌区,龙记米粉(销品茂店),"114.342978,30.588295",18171235353,114.342978,30.588295
B001B0JAX8,B001B0IIVV,徐东大街18号武汉销品茂地下一层B0078号,湖北省,武汉市,餐饮服务;快餐厅;快餐厅,050300,0,201,武昌区,金童子(销品茂店),"114.343385,30.589122",15871604319;13554537458,114.343385,30.589122
B001B1IOD1,B001B0IIVV,徐东大街18号销品茂B1层,湖北省,武汉市,餐饮服务;餐饮相关场所;餐饮相关,050000,0,201,武昌区,辣得跳卤坊(销品茂),"114.343350,30.589017",18627011227;18062699998,114.343350,30.589017
B0FFH0F8HS,B001B0IIVV,徐东大街18号武汉销品茂五层65008A号商铺,湖北省,武汉市,餐饮服务;冷饮店;冷饮店,050700,0,201,武昌区,御可贡茶(销品茂店),"114.343156,30.588455",13018026717,114.343156,30.588455
B0H1M7YEOI,B001B0IIVV,徐东大街18号武汉销品茂五层G5020A1号,湖北省,武汉市,餐饮服务;冷饮店;冷饮店,050700,0,202,武昌区,茶百道(销品茂店),"114.342712,30.587935",13667265746,114.342712,30.587935
B0G23REKOY,B001B0IIVV,徐东大街18号武汉销品茂五层G5007A1号,湖北省,武汉市,餐饮服务;冷饮店;冷饮店,050700,0,202,武昌区,米芝莲(销品茂店),"114.342976,30.588333",18062621628,114.342976,30.588333
B0GKCBQIKM,B001B0IIVV,徐东大街18号1栋武汉销品茂五层F5010A2,湖北省,武汉市,餐饮服务;中餐厅;中餐厅,050100,0,202,武昌区,拾味馆(销品茂店),"114.343370,30.588990",027-88609177,114.343370,30.588990
B0FFHF87SC,B001B0IIVV,销品茂五楼(徐东地铁站出入口步行60米),湖北省,武汉市,餐饮服务;餐饮相关场所;餐饮相关,050000,1,202,武昌区,煎百味(销品茂店),"114.342833,30.588188",15235707954,114.342833,30.588188
B0FFHVDNG7,B001B0IIVV,徐东销品茂5楼(来菜餐厅旁),湖北省,武汉市,餐饮服务;餐饮相关场所;餐饮相关,050000,1,201,武昌区,哈米泡芙・HammyPuff(徐东销品茂店),"114.342867,30.587924",18607112199,114.342867,30.587924
B0HADMDDOM,B001B0IIVV,徐家棚街徐东大街18号武汉销品茂1层GF1G031号,湖北省,武汉市,餐饮服务;冷饮店;冷饮店,050700,0,202,武昌区,茶颜悦色(武汉销品茂一楼店),"114.343163,30.588343",18571805900;18986180406,114.343163,30.588343
B0FFK7TKYX,B001B0IIVV,徐东大街18号1栋地下层销品茂B1层B1009A,湖北省,武汉市,餐饮服务;糕饼店;糕饼店,050800,0,201,武昌区,仟吉(销品茂店),"114.343407,30.589092",027-88073383;4001800517;15527447163,114.343407,30.589092
B0FFLNUSJK,B001B0IIVV,徐东大街销品茂付壹层B1042A号,湖北省,武汉市,餐饮服务;餐饮相关场所;餐饮相关,050000,0,202,武昌区,韩志刚老韩煸鸡(销品茂店),"114.343719,30.589163",15872371973,114.343719,30.589163
B0G0XC0RO3,B001B0IIVV,徐东大街18号武汉销品茂五层G5020A2号,湖北省,武汉市,餐饮服务;中餐厅;中餐厅,050100,0,202,武昌区,大喜麻辣拌(销品茂店),"114.342748,30.587981",15827143805,114.342748,30.587981
B0FFK9E47Q,B001B0IIVV,徐东大街18号销品茂负一层1038A,湖北省,武汉市,餐饮服务;餐饮相关场所;餐饮相关,050000,0,202,武昌区,小胡鸭(销品茂二店),"114.343380,30.588996",15392877261,114.343380,30.588996
B001B1IOCZ,B001B0IIVV,徐东大街18号(销品茂负一层B028商铺),湖北省,武汉市,餐饮服务;餐饮相关场所;餐饮相关,050000,0,201,武昌区,廖记棒棒鸡(销品茂店),"114.343465,30.588930",4000285757;13667242021,114.343465,30.588930
B0FFKS7PVW,B001B0IIVV,徐东大街18号武汉销品茂五楼研卤堂,湖北省,武汉市,餐饮服务;餐饮相关场所;餐饮相关,050000,1,202,武昌区,研卤堂(销品茂店),"114.343092,30.588410",13995656511,114.343092,30.588410
B001B19T4U,B001B0IIVV,徐东大街18号销品茂B1(徐东地铁站出入口步行80米),湖北省,武汉市,餐饮服务;餐饮相关场所;餐饮相关,050000,0,201,武昌区,小胡鸭(销品茂店),"114.343380,30.588996",027-82775887;15392877261,114.343380,30.588996
B001B16VQ9,B001B0IIVV,徐东大街18号销品茂F5,湖北省,武汉市,餐饮服务;外国餐厅;韩国料理,050203,0,201,武昌区,金韩宫韩式烤肉料理(销品茂店),"114.343337,30.588040",027-68899577,114.343337,30.588040
B0FFIDF4FN,B001B0IIVV,徐家棚街街道徐东大街18号销品茂5楼,湖北省,武汉市,餐饮服务;中餐厅;广东菜(粤菜),050103,0,201,武昌区,若爱猪肚鸡(销品茂店),"114.342560,30.588291",15827310810;027-88703055,114.342560,30.588291
B0FFHZJRNO,B001B0IIVV,徐东大街18号销品茂5F层,湖北省,武汉市,餐饮服务;中餐厅;中餐厅,050100,0,201,武昌区,严厨老坛酸菜鱼(销品茂店),"114.342960,30.587693",[],114.342960,30.587693
B0G2FBZMRY,B001B0IIVV,友谊大道销品茂5楼5-5008A,湖北省,武汉市,餐饮服务;中餐厅;中餐厅,050100,0,202,武昌区,蛙来哒(销品茂店),"114.342756,30.588382",027-88850577,114.342756,30.588382
B0FFF86NYY,B001B0IIVV,徐东大街18号销品茂5楼,湖北省,武汉市,餐饮服务;中餐厅;特色/地方风味餐厅,050118,0,201,武昌区,茶港港式茶餐厅(销品茂店),"114.343538,30.588254",027-68898672,114.343538,30.588254
B0G3H77CN5,B001B0IIVV,徐东大街18号销品茂5F002A1,湖北省,武汉市,餐饮服务;餐饮相关场所;餐饮相关,050000,1,202,武昌区,颜小小.马来炸鸡(销品茂店),"114.342728,30.587950",13986075591,114.342728,30.587950
B0H1M92SXS,B001B1IO9C,徐东大街18号武汉销品茂负一层CB1S028号,湖北省,武汉市,餐饮服务;中餐厅;中餐厅,050100,0,202,武昌区,那个卤(销品茂店),"114.343387,30.589309",[],114.343387,30.589309
B0FFIBTA2F,B001B0IIVV,徐东大街18号武汉销品茂五层F5001A,湖北省,武汉市,餐饮服务;外国餐厅;牛扒店(扒房),050211,0,201,武昌区,汤姆家的优质牛排西餐(销品茂),"114.342572,30.588107",027-88236377;17786229329,114.342572,30.588107
B001B16TEE,B001B0IIVV,徐东大街18号销品茂4楼(徐东地铁站出入口步行80米),湖北省,武汉市,餐饮服务;外国餐厅;西餐厅(综合风味)|餐饮服务;咖啡厅;咖啡厅,050201|050500,0,201,武昌区,秀玉coffee&kitchen(徐东销品茂),"114.343360,30.589103",027-68898477,114.343360,30.589103
B0FFK2XS1B,B001B0IIVV,徐东大街18号武汉销品茂负一层6A号,湖北省,武汉市,餐饮服务;中餐厅;中餐厅,050100,0,201,武昌区,鱼你在一起(销品茂店),"114.343168,30.589056",15337186706;13349928052,114.343168,30.589056
B0HD3BMMEO,B001B1IO9C,徐东大街18号武汉销品茂负一层CB1S005号,湖北省,武汉市,餐饮服务;餐饮相关场所;餐饮相关,050000,0,202,武昌区,启饼小主(销品茂店)(暂停营业),"114.343529,30.589027",[],114.343529,30.589027
B0FFM7OXJ3,B001B0IIVV,徐东大街18号武汉销品茂五层G5007A号,湖北省,武汉市,餐饮服务;冷饮店;冷饮店,050700,0,202,武昌区,爷爷泡的茶(销品茂店),"114.343280,30.588323",17343331718,114.343280,30.588323
B0FFFZO238,B001B0IIVV,徐东大街18号武汉销品茂5楼,湖北省,武汉市,餐饮服务;外国餐厅;日本料理,050202,0,201,武昌区,仓桥家・锅物・烧鸟・h寿司(销品茂店),"114.342686,30.588204",027-68898553,114.342686,30.588204
B0HUX5KINT,B001B0IIVV,徐东大街销品茂五楼赖胖子肉蟹煲(广晟餐厅),湖北省,武汉市,餐饮服务;中餐厅;中餐厅,050100,1,202,武昌区,赖胖子肉蟹煲(销品茂店),"114.343131,30.588233",027-88855277;13119623307,114.343131,30.588233
B0FFK06XKB,B001B0IIVV,徐东大街18号武汉销品茂壹层G1046A01号,湖北省,武汉市,餐饮服务;餐饮相关场所;餐饮相关,050000,0,202,武昌区,厝内小眷村(武汉销品茂店),"114.342735,30.588616",15527185763;13599938337,114.342735,30.588616
B0FFJK1N5J,B001B0IIVV,徐东大街18号武汉销品茂负一楼B1025A号,湖北省,武汉市,餐饮服务;快餐厅;快餐厅,050300,0,201,武昌区,大米先生(销品茂店),"114.342886,30.588719",18986485129;13527449326,114.342886,30.588719
B0FFMCNLN9,B001B0IIVV,徐东大街销品茂(徐东地铁站出入口步行160米),湖北省,武汉市,餐饮服务;中餐厅;广东菜(粤菜),050103,1,202,武昌区,南棠馆(徐东销品茂店),"114.343200,30.589087",027-88877769,114.343200,30.589087
B0G3RCBAPY,B001B1IO9C,团结村徐东大街18号销品茂负一楼(阿甘锅盔斜对面),湖北省,武汉市,餐饮服务;中餐厅;中餐厅,050100,0,202,武昌区,虾爪蛙(销品茂),"114.343203,30.589215",18627777471,114.343203,30.589215
B0HDCCKBV2,B001B0IIVV,徐东销品茂负一楼沃尔玛出口可粒可粒面包店,湖北省,武汉市,餐饮服务;糕饼店;糕饼店,050800,1,202,武昌区,可粒可粒(销品茂),"114.343503,30.588965",15172543988,114.343503,30.588965
B001B1IOCX,B001B0IIVV,徐东大街18号B1层沃尔玛徐东大街店,湖北省,武汉市,餐饮服务;快餐厅;麦当劳,050302,0,201,武昌区,麦当劳(销品茂店),"114.343729,30.588804",027-68899799;027-68899797,114.343729,30.588804
B0G1998CKB,B001B0IIVV,徐东大街18号武汉销品茂壹层G1053A号,湖北省,武汉市,餐饮服务;冷饮店;冷饮店,050700,0,202,武昌区,书亦烧仙草(销品茂店),"114.342661,30.588569",13638660618;13638660616,114.342661,30.588569
B0GUPNX5A5,B001B0IIVV,徐东大街18号销品茂F4,湖北省,武汉市,餐饮服务;外国餐厅;外国餐厅,050200,0,202,武昌区,秀玉红茶坊(销品茂店),"114.343352,30.589006",027-68898477,114.343352,30.589006
B0FFM1970V,B001B0IIVV,徐东大街销品茂五楼,湖北省,武汉市,餐饮服务;餐饮相关场所;餐饮相关,050000,1,202,武昌区,围炉烤涮自助(销品茂五楼),"114.342883,30.587439",027-88852968;15098029105,114.342883,30.587439
B0FFKT2ERW,B001B0IIVV,徐东大街销品茂5楼(徐东地铁站出入口步行200米),湖北省,武汉市,餐饮服务;餐饮相关场所;餐饮相关,050000,1,201,武昌区,围炉三国锅盔(销品茂店),"114.343130,30.588061",13339991141,114.343130,30.588061
B0HB6RM0QQ,B001B0IIVV,徐东大街18号武汉销品茂五层BF5G006A1号,湖北省,武汉市,餐饮服务;糕饼店;糕饼店,050800,0,202,武昌区,京馔手工吐司(销品茂店),"114.342862,30.588226",18688966624,114.342862,30.588226
B0HRHU2C17,B001B0IIVV,徐东大街18号销品茂F5(徐东地铁站出入口步行60米),湖北省,武汉市,餐饮服务;中餐厅;中餐厅,050100,0,202,武昌区,么肆烤肉(销品茂店),"114.342983,30.588330",027-88853188;18986291200,114.342983,30.588330
B0GK1CZ2S9,B001B0IIVV,徐东大街18号销品茂B1(徐东地铁站出入口步行60米),湖北省,武汉市,餐饮服务;餐饮相关场所;餐饮相关,050000,0,202,武昌区,融创临江府(销品茂店),"114.343550,30.589290",[],114.343550,30.589290
B0HUG7R5O3,B001B0IIVV,销品茂商场5楼电影院对面(徐东地铁站出入口步行60米),湖北省,武汉市,餐饮服务;外国餐厅;韩国料理,050203,1,202,武昌区,朴德善首尔大排档(销品茂店),"114.343132,30.588279",027-88068166,114.343132,30.588279
B001B0A7T4,B001B0IIVV,徐东大街18号销品茂一层,湖北省,武汉市,餐饮服务;快餐厅;肯德基,050301,0,201,武昌区,肯德基(徐东店),"114.343408,30.589150",4009208801;027-68898145,114.343408,30.589150
B0HUFSVU1O,B001B0IIVV,徐东大街18号销品茂5楼(徐东地铁站出入口步行60米),湖北省,武汉市,餐饮服务;中餐厅;火锅店,050117,0,202,武昌区,图新鲜鲜牛肉火锅(销品茂店),"114.342792,30.588097",17762417078,114.342792,30.588097
B0HUMATIHW,B001B0IIVV,徐东大街18号销品茂5楼(徐东地铁站出入口步行60米),湖北省,武汉市,餐饮服务;中餐厅;湖北菜(鄂菜),050112,1,202,武昌区,来菜・湖北头牌藕汤(销品茂店),"114.343337,30.588040",027-88852177,114.343337,30.588040
B0G2M1YTKR,B001B1IO9C,徐东大街18号销品茂B1,湖北省,武汉市,餐饮服务;糕饼店;糕饼店,050800,0,202,武昌区,曹宽粑粑坊(徐东店),"114.343685,30.589191",13221555988,114.343685,30.589191
B0HKUZTJVL,B001B0IIVV,徐东大街18号销品茂B1(徐东地铁站出入口步行60米),湖北省,武汉市,餐饮服务;中餐厅;中餐厅,050100,0,202,武昌区,蜀滋味麻辣香锅(销品茂店),"114.342992,30.588661",[],114.342992,30.588661
B001B16PFZ,B001B0IIVV,徐东大街18号销品茂购物中心B1楼B001-2-1号近沃尔玛入口,湖北省,武汉市,餐饮服务;餐饮相关场所;餐饮相关,050000,0,201,武昌区,周黑鸭(武汉武昌区徐东销品茂店),"114.343628,30.588911",027-68898002;4001717917,114.343628,30.588911
B0I6DDQ9SK,B001B0IIVV,徐家棚街道徐东大街18号武汉销品茂五层DF5S001号商铺,湖北省,武汉市,餐饮服务;中餐厅;中餐厅,050100,1,202,武昌区,马记永兰州牛肉面(武汉销品茂店),"114.342526,30.587893",17629996366,114.342526,30.587893
B0FFIGS357,B001B0IIVV,徐东大街销品茂一楼外围西门,湖北省,武汉市,餐饮服务;餐饮相关场所;餐饮相关,050000,0,202,武昌区,老帅爷王臭豆腐,"114.342756,30.588621",18339989983;18202731369,114.342756,30.588621
B0FFHE5KN2,B001B0IIVV,徐东大街18号销品茂F5,湖北省,武汉市,餐饮服务;中餐厅;中餐厅,050100,0,202,武昌区,老碗鱼(武汉武昌区),"114.343157,30.588500",18186239290,114.343157,30.588500
B0G22GTAID,B001B0IIVV,徐东大街18号武汉销品茂五层G5026A号,湖北省,武汉市,餐饮服务;冷饮店;冷饮店,050700,0,202,武昌区,TAlTEA呔茶(徐东店),"114.343216,30.588209",[],114.343216,30.588209
B001B0JAUJ,B001B0IIVV,徐东大街18号销品茂5楼(销品茂电影院对面),湖北省,武汉市,餐饮服务;餐饮相关场所;餐饮相关,050000,0,202,武昌区,绿野仙踪(徐东大街店),"114.343307,30.588225",[],114.343307,30.588225
B001B19RWN,B001B0IIVV,徐东大街18号销品茂负一层B027号商铺,湖北省,武汉市,餐饮服务;餐饮相关场所;餐饮相关,050000,0,201,武昌区,紫燕百味鸡(沃尔玛店),"114.343427,30.588960",18971262183,114.343427,30.588960
B0HKO9MZKV,B001B0IIVV,徐家棚街街道徐东路销品茂五层,湖北省,武汉市,餐饮服务;中餐厅;火锅店,050117,0,202,武昌区,潮汕火锅店,"114.343131,30.588239",[],114.343131,30.588239
B0FFFWVZLZ,[],徐东大街销品茂门口正新店,湖北省,武汉市,餐饮服务;餐饮相关场所;餐饮相关,050000,0,[],~口区,正新鸡排(多福店),"114.276499,30.570325",4008218566;18771001326,114.276499,30.570325
B0HK5CJX80,B001B0IIVV,徐家棚街街道徐东大街18号销品茂5楼,湖北省,武汉市,餐饮服务;外国餐厅;西餐厅(综合风味),050201,0,202,武昌区,汤姆家西餐厅,"114.343131,30.588239",[],114.343131,30.588239
B0FFGXANKK,B001B0IIVV,徐东大街18号武汉销品茂五层编号G5015,湖北省,武汉市,餐饮服务;冷饮店;冷饮店,050700,0,201,武昌区,CoCo都可(徐东一店),"114.343014,30.588303",18986017943,114.343014,30.588303
B0HKLUUHM8,B001B1IO9C,销品茂负一层(沃尔玛出口处),湖北省,武汉市,餐饮服务;甜品店;甜品店,050900,1,202,武昌区,KEMO KEMO,"114.343010,30.588753",18702789275,114.343010,30.588753
B0G3JS4KH0,[],宏茂巷销品茂南侧约30米,湖北省,武汉市,餐饮服务;快餐厅;快餐厅,050300,0,[],武昌区,舞胖胖小吃城,"114.342677,30.586443",[],114.342677,30.586443
B0IDG9TWW3,B001B0IIVV,徐家棚街街道徐东大街销品茂负一楼,湖北省,武汉市,餐饮服务;冷饮店;冷饮店,050700,0,202,武昌区,茶以知人奶茶店,"114.343131,30.588239",[],114.343131,30.588239
B0FFI6EQJ2,B001B0IIVV,徐东大街18号武汉销品茂B1F层B025号,湖北省,武汉市,餐饮服务;外国餐厅;日本料理,050202,0,201,武昌区,鲜品萃外带寿司(销品茂店),"114.343268,30.588982",18086481234,114.343268,30.588982
B0G3LHG9U6,B001B0IIVV,徐东大街18号武汉销品茂二层F1049A-2号,湖北省,武汉市,餐饮服务;餐饮相关场所;餐饮相关,050000,0,202,武昌区,袍哥鱼冷锅鱼火锅(徐东店),"114.342310,30.587075",17320566282,114.342310,30.587075
B0HKMH8FUY,B001B0IIVV,徐东大街18号武汉销品茂二层F1049A-2号,湖北省,武汉市,餐饮服务;中餐厅;湖北菜(鄂菜),050112,0,202,武昌区,味之初精致融合菜馆,"114.342328,30.587111",13889504506,114.342328,30.587111
B0H0TRRR0D,B001B0IIVV,宏茂巷销品茂(徐东地铁站出入口步行100米),湖北省,武汉市,餐饮服务;中餐厅;中餐厅,050100,0,202,武昌区,重庆江湖菜(宏茂巷店),"114.342269,30.587072",[],114.342269,30.587072
B001B19TX4,[],徐家棚街街道徐东销品茂团结名居桔园4单元对面,湖北省,武汉市,餐饮服务;中餐厅;中餐厅,050100,0,[],武昌区,岔巴子特色烧烤,"114.342529,30.586531",13871568903,114.342529,30.586531
B0FFLES60D,[],宏茂巷团结名居桔园8号(销品茂与福客茂中间巷内80米),湖北省,武汉市,餐饮服务;餐饮相关场所;餐饮相关,050000,1,[],武昌区,有拈头成都市井火锅(徐东店),"114.342420,30.586119",027-86810898,114.342420,30.586119
B001B19VC1,B001B0IIVV,徐东大街18号武汉销品茂负壹层B1042A2号,湖北省,武汉市,餐饮服务;餐饮相关场所;餐饮相关,050000,0,201,武昌区,绝味鸭脖(徐东沃尔玛店),"114.343494,30.588908",4009995917;027-68785966,114.343494,30.588908
B0FFH681Y0,B001B0IIVV,徐家棚街办事处徐东销品茂负一楼沃尔玛收银台出口处,湖北省,武汉市,餐饮服务;餐饮相关场所;餐饮相关,050000,0,202,武昌区,腾寿司(销品茂店),"114.343253,30.588965",[],114.343253,30.588965
B0FFKTSGJ6,B001B0IIVV,徐东大街18号武汉销品茂负壹层B1003A号-1,湖北省,武汉市,餐饮服务;餐饮相关场所;餐饮相关,050000,1,202,武昌区,南膳房北京烤鸭,"114.343731,30.588819",15307296819,114.343731,30.588819
B0HUVC23XI,B001B0IIVV,武昌区徐东大街18号武汉销品茂一层FF1S039号,湖北省,武汉市,餐饮服务;餐饮相关场所;餐饮相关,050000,0,202,武昌区,牛老三潮汕牛肉火锅(徐东店),"114.342425,30.587008",027-88111577,114.342425,30.587008
B001B16NKP,B001B0AH39,徐东大街18号销品茂B1层(徐东地铁站D口旁),湖北省,武汉市,餐饮服务;快餐厅;麦当劳,050302,0,202,武昌区,麦当劳甜品站(徐东一路),"114.342841,30.587770",[],114.342841,30.587770
B0H1M90TQU,[],徐东大街18号地下第一层沃尔玛收银台对面优味鲜,湖北省,武汉市,餐饮服务;中餐厅;中餐厅,050100,0,[],武昌区,蜀之味麻辣香锅(徐东店),"114.342075,30.588358",[],114.342075,30.588358
B0FFHBKTOA,[],徐家棚街街道徐东大街徐东一路销品茂与福客茂中间巷内桔园,湖北省,武汉市,餐饮服务;中餐厅;中餐厅,050100,0,[],武昌区,玉林串串香店,"114.342373,30.585914",[],114.342373,30.585914
B0FFG4CMK3,[],宏茂巷销品茂西南侧(徐东地铁站出入口步行340米),湖北省,武汉市,餐饮服务;餐饮相关场所;餐饮相关,050000,0,[],武昌区,满口香饼屋(宏茂巷),"114.342426,30.586628",[],114.342426,30.586628
B0G2Z7I44K,B001B0IIVV,徐东大街18号销品茂B1,湖北省,武汉市,餐饮服务;餐饮相关场所;餐饮相关,050000,0,202,武昌区,蚝鸡友扇贝花甲,"114.343002,30.588897",13006367274,114.343002,30.588897
B0H02SDEV2,B001B0IIVV,徐东大街18号销品茂F5,湖北省,武汉市,餐饮服务;餐饮相关场所;餐饮相关,050000,0,202,武昌区,爱克斯沙拉,"114.342784,30.587980",[],114.342784,30.587980
B001B09VO6,[],徐家棚街街道团结名居桔园旺角烧菜馆旁边,湖北省,武汉市,餐饮服务;中餐厅;中餐厅,050100,0,[],武昌区,重庆麻辣烫(销品茂群星城店),"114.342436,30.586610",15527714459,114.342436,30.586610
B0HRHG07KS,B001B0IIVV,徐东大街18号销品茂F5(徐东地铁站出入口步行60米),湖北省,武汉市,餐饮服务;中餐厅;四川菜(川菜),050102,0,202,武昌区,汤公汤婆成都精致川菜,"114.343146,30.588424",027-88226678,114.343146,30.588424
B0IB3DB5BX,B001B1IO9C,徐东大街十八号地下一层(销品茂负一楼沃尔玛收银台对面),湖北省,武汉市,餐饮服务;快餐厅;快餐厅,050300,0,202,武昌区,优味鲜现炒小碗菜,"114.343159,30.587801",18971645273,114.343159,30.587801
B0HDRHT8U1,B001B0IIVV,销品茂五楼AF5G001(徐东地铁站出入口步行60米),湖北省,武汉市,餐饮服务;冷饮店;冷饮店,050700,1,202,武昌区,我很芒,"114.342501,30.587854",[],114.342501,30.587854
B001B09YRS,B001B0IIVV,徐东大道18号销品贸1楼,湖北省,武汉市,餐饮服务;快餐厅;必胜客,050303,0,201,武昌区,必胜客(徐东店),"114.343278,30.589095",4009701890;18571740533;027-68898148,114.343278,30.589095
B0FFHC56JA,[],友谊大道502号中商徐东平价户部巷小吃旁,湖北省,武汉市,餐饮服务;快餐厅;快餐厅,050300,0,[],武昌区,正新鸡排(武昌武佳店),"114.341763,30.587703",4008218566;15927128114,114.341763,30.587703
B0FFH08DW7,B001B0IIVV,徐东大街团结大道团结名居3号楼1层部分商铺,湖北省,武汉市,餐饮服务;餐饮相关场所;餐饮相关,050000,0,201,武昌区,蔡明纬(销品茂店),"114.343317,30.588185",13419518296,114.343317,30.588185
B0FFLBXPOP,B001B0AH39,徐东路7号中商平价一楼外围商铺,湖北省,武汉市,餐饮服务;冷饮店;冷饮店,050700,1,202,洪山区,茶百道(徐东中商平价店),"114.344443,30.590367",15527931555;19971988262,114.344443,30.590367
B0H0K1S5IE,B001B0AH39,徐东大街7号中商徐东平价广场F1(徐东地铁站D口旁),湖北省,武汉市,餐饮服务;中餐厅;中餐厅,050100,0,202,洪山区,哦哦海鲜超市(中商徐东平价广场店),"114.345189,30.589930",15207109085,114.345189,30.589930
B0IA5DBZQ5,B001B0AH39,徐东大街与徐东一路交叉口北60米(徐东地铁站D口旁),湖北省,武汉市,餐饮服务;餐饮相关场所;餐饮相关,050000,0,202,洪山区,徐东平价广场生鲜区,"114.345331,30.589413",18107236137,114.345331,30.589413
B0FFJVU8D4,[],宏茂巷路18栋1层1号,湖北省,武汉市,购物服务;综合市场;蔬菜市场|餐饮服务;餐饮相关场所;餐饮相关,060705|050000,0,[],武昌区,惠民通生鲜蔬菜超市,"114.343931,30.584876",[],114.343931,30.584876
B0H0VS0VCW,B001B1AS1B,友谊大道396号福客茂F1,湖北省,武汉市,餐饮服务;快餐厅;快餐厅,050300,0,202,武昌区,边关月新疆炒米粉(福客茂店),"114.340716,30.586274",[],114.340716,30.586274
B0H2N7H1IQ,B001B1AS1B,友谊大道396号福客茂F1,湖北省,武汉市,餐饮服务;快餐厅;快餐厅,050300,0,202,武昌区,桂林米粉螺蛳粉(福客茂店),"114.341450,30.586664",[],114.341450,30.586664
B0HDSH7YTW,B001B1AS1B,友谊大道福客茂3楼3号房,湖北省,武汉市,餐饮服务;中餐厅;中餐厅,050100,1,202,武昌区,盖式妈妈18道精品拌饭(武汉徐东店),"114.340818,30.586256",[],114.340818,30.586256
B0HK3LUHPN,B001B1AS1B,友谊大道396号福客茂F4,湖北省,武汉市,餐饮服务;外国餐厅;外国餐厅,050200,0,202,武昌区,Kran chicken韩国炸鸡(福客茂店),"114.340872,30.586642",[],114.340872,30.586642
B0HKUSX1G1,B001B1AS1B,友谊大道396号福客茂F4,湖北省,武汉市,餐饮服务;中餐厅;中餐厅,050100,0,202,武昌区,大魔王长沙小碗菜,"114.340963,30.586678",[],114.340963,30.586678
B0H1M92SH2,B001B1AS1B,友谊大道396号福客茂F3,湖北省,武汉市,餐饮服务;外国餐厅;外国餐厅,050200,0,202,武昌区,烹花雪月石锅拌饭(福客茂店),"114.340951,30.586665",[],114.340951,30.586665
B0GK1L1EJ3,B001B1AS1B,友谊大道396号福客茂F3,湖北省,武汉市,餐饮服务;中餐厅;中餐厅,050100,0,202,武昌区,萌小牛嫩牛五方(福客茂店),"114.340927,30.586306",[],114.340927,30.586306
B0H0APPGBG,B001B1AS1B,友谊大道396号福客茂F4,湖北省,武汉市,餐饮服务;中餐厅;中餐厅,050100,0,202,武昌区,韩式部队火锅&拌饭(福克茂店),"114.341376,30.586329",[],114.341376,30.586329
B0GDR1DFWX,B001B1AS1B,友谊大道396号福客茂F4,湖北省,武汉市,餐饮服务;快餐厅;快餐厅,050300,0,202,武昌区,爹爹炒饭(徐东店),"114.341227,30.586433",[],114.341227,30.586433
B0FFKMCTNR,B001B1AS1B,友谊大道396号福客茂1楼步行街,湖北省,武汉市,餐饮服务;快餐厅;快餐厅,050300,0,202,武昌区,三宝蟹脚面(福客茂店),"114.341235,30.586488",18827330674,114.341235,30.586488
B0HR3ZBFYB,B001B1AS1B,福客茂2楼(有家便利店旁客梯上),湖北省,武汉市,餐饮服务;快餐厅;快餐厅,050300,1,202,武昌区,你的明治(福客茂店),"114.340715,30.586517",13343479491;19945004253,114.340715,30.586517
B0IA3XK1KQ,[],友谊大道396号福客茂F4,湖北省,武汉市,餐饮服务;中餐厅;中餐厅,050100,0,[],武昌区,龙门阵・八十八道菜(福客茂店),"114.341138,30.586619",18171144521,114.341138,30.586619
B0HRH41BF2,B001B1AS1B,友谊大道396号福客茂F3,湖北省,武汉市,餐饮服务;快餐厅;快餐厅,050300,0,202,武昌区,小欢喜火锅冒菜・麻辣烫(福客茂店),"114.340951,30.586665",[],114.340951,30.586665
B0IA4MMHB4,B001B1AS1B,徐东福客茂3层303号,湖北省,武汉市,餐饮服务;中餐厅;中餐厅,050100,0,202,武昌区,海的一拌・捞汁海鲜(徐东福客茂店),"114.340727,30.586165",[],114.340727,30.586165
B0IGMD4GAK,B001B1AS1B,友谊大道396号福客茂1楼1号商铺,湖北省,武汉市,餐饮服务;快餐厅;快餐厅,050300,0,202,武昌区,王都旺淮南牛肉汤(徐东店),"114.341393,30.586847",15225205171,114.341393,30.586847
B0HDH7FDKA,B001B1AS1B,徐家棚街街道福客茂二楼19号,湖北省,武汉市,餐饮服务;中餐厅;中餐厅,050100,0,202,武昌区,麦道源煲仔饭(福客茂店),"114.341026,30.586907",13147136118,114.341026,30.586907
B0FFLHGEA3,B001B1AS1B,福客茂西门(徐东地铁站出入口步行430米),湖北省,武汉市,餐饮服务;餐饮相关场所;餐饮相关,050000,1,202,武昌区,大红冒火锅冒菜麻辣烫(徐东店),"114.340732,30.586272",[],114.340732,30.586272
B0H0RUBPAN,B001B1AS1B,友谊大道福客茂(徐东地铁站出入口步行290米),湖北省,武汉市,餐饮服务;快餐厅;快餐厅,050300,0,202,武昌区,青年炸鸡,"114.340673,30.586523",[],114.340673,30.586523
B0FFK7RXSG,B001B1AS1B,福客茂1层19号商铺(徐东地铁站出入口步行290米),湖北省,武汉市,餐饮服务;中餐厅;中餐厅,050100,1,202,武昌区,优吾优奶茶炸鸡简餐(徐东店),"114.341480,30.586690",[],114.341480,30.586690
B0HRL51ANG,B001B1AS1B,福客茂4楼,湖北省,武汉市,餐饮服务;中餐厅;中餐厅,050100,0,202,武昌区,偶遇饭先森・干锅焖饭(徐东店),"114.340675,30.586447",[],114.340675,30.586447
B0H0754CGM,B001B1AS1B,徐家棚街团结村福星惠誉国际城k2地块第4幢/单元2层13号房福客茂二楼辣上瘾麻辣香锅旁,湖北省,武汉市,餐饮服务;中餐厅;海鲜酒楼,050119,0,202,武昌区,林记潜江油焖大虾(徐东店),"114.341117,30.586738",[],114.341117,30.586738
B0FFKT2EWT,B001B1AS1B,徐家棚街街道友谊大道福客茂内街二楼(咖啡陪你对面),湖北省,武汉市,餐饮服务;快餐厅;快餐厅,050300,0,202,武昌区,暖心汤馆(福客茂店),"114.340667,30.586785",[],114.340667,30.586785
B0G3VB9U5C,[],友谊大道辅路与宏茂巷交叉口东140米,湖北省,武汉市,餐饮服务;快餐厅;快餐厅,050300,0,[],武昌区,俏夫子,"114.342730,30.588025",[],114.342730,30.588025
B0G11DDJ2V,B001B1AS1B,福客茂四楼19号(徐东地铁站出入口步行290米),湖北省,武汉市,餐饮服务;中餐厅;中餐厅,050100,0,202,武昌区,叶先森剁椒卤汁拌饭(福客茂店),"114.341614,30.586628",18079003390,114.341614,30.586628
B0H2ZA9XZJ,B001B1AS1B,徐家棚街团结村福星惠誉国际城K2地块第5幢徐东福客茂二楼17号商铺,湖北省,武汉市,餐饮服务;中餐厅;中餐厅,050100,0,202,武昌区,八佰秦・油泼面(惠誉国际城店),"114.341006,30.586658",13477007776,114.341006,30.586658
B0FFLPGGBW,B001B0AH39,徐东大街7号中商徐东平价广场F1,湖北省,武汉市,餐饮服务;快餐厅;快餐厅,050300,0,202,洪山区,鸭血粉丝小笼包(中商徐东平价广场店),"114.344937,30.590733",[],114.344937,30.590733
B0HKUZUNVH,[],徐东大街7号中商徐东平价广场F1,湖北省,武汉市,餐饮服务;快餐厅;快餐厅,050300,0,[],洪山区,友之缘小碗菜(中商徐东平价广场店),"114.345179,30.590793",[],114.345179,30.590793
B0H33GR8JD,B001B0AH39,徐东大街7号中商徐东平价广场F1(徐东地铁站D口旁),湖北省,武汉市,餐饮服务;快餐厅;快餐厅,050300,0,202,洪山区,鲜鱼糊汤粉(中商徐东平价广场店),"114.344938,30.590740",[],114.344938,30.590740
B0I6B7PCLR,[],徐东大街7号中商徐东平价广场F1,湖北省,武汉市,餐饮服务;快餐厅;快餐厅,050300,0,[],洪山区,热卤拌饭(中商徐东平价广场店),"114.345179,30.590793",[],114.345179,30.590793
B0HKVH7GQP,[],徐东大街7号中商徐东平价广场F1,湖北省,武汉市,餐饮服务;快餐厅;快餐厅,050300,0,[],洪山区,Lufu炒饭(中商徐东平价广场店),"114.345179,30.590793",[],114.345179,30.590793
B0FFGHMWHM,B001B0AH39,徐东大街7号中商徐东平价广场F1(徐东地铁站D口旁),湖北省,武汉市,餐饮服务;快餐厅;快餐厅,050300,0,202,洪山区,味湘居臭豆腐(中商徐东平价广场店),"114.344766,30.590580",[],114.344766,30.590580
B0H0M5J12U,B001B0AH39,徐东中商平价1层31号商铺(徐东地铁站D口旁),湖北省,武汉市,餐饮服务;餐饮相关场所;餐饮相关,050000,1,202,洪山区,研卤堂(武汉中商徐东平价店)美味堂(中商徐东平价广场店),"114.345209,30.589157",17771796793,114.345209,30.589157
B0HKLSS5MX,[],徐东二路与徐东大街交叉口北约120米,湖北省,武汉市,餐饮服务;快餐厅;吉野家,050309,0,[],洪山区,吉野家(徐东店),"114.346802,30.588650",027-86629626,114.346802,30.588650
B001B1AFC1,[],徐家棚街团结村福星惠誉国际城k2地块第5幢/单元2层19号房,湖北省,武汉市,餐饮服务;快餐厅;快餐厅,050300,0,[],武昌区,煌品粒粒香煲仔饭(徐东店),"114.341057,30.586629",13147136118,114.341057,30.586629
B0H2OK837U,B001B0I0Y9,和平街道徐东新世界百货一楼,湖北省,武汉市,餐饮服务;冷饮店;冷饮店,050700,0,202,洪山区,奈雪的茶(新世界百货徐东PRO店),"114.346405,30.588789",15872404991,114.346405,30.588789
B0FFHQ9X0K,B001B0AH39,徐东大街7号中商徐东平价广场F1层,湖北省,武汉市,餐饮服务;快餐厅;快餐厅,050300,0,201,洪山区,特色腰花煲(户部巷徐东店),"114.344975,30.590748",[],114.344975,30.590748
B0H3ZUEO2W,B001B1AS1B,徐家棚街团结村福星惠誉国际城k2地块第五栋/单元3层3号房,湖北省,武汉市,餐饮服务;餐饮相关场所;餐饮相关,050000,0,202,武昌区,左炸右拌炸串拌饼(徐东店),"114.341105,30.586726",[],114.341105,30.586726
B0HA3U3YGW,[],徐家棚街团结名居桔园6号门面,湖北省,武汉市,餐饮服务;中餐厅;中餐厅,050100,1,[],武昌区,壹宾犟人烧烤研究所(徐东店),"114.342218,30.585828",18186123768,114.342218,30.585828
B0H6XZVL5O,[],徐家棚团结村福星惠誉国际城K2地块第4幢/单元2层11号、12号房,湖北省,武汉市,餐饮服务;快餐厅;快餐厅,050300,0,[],武昌区,patty&co手工汉堡(徐东店),"114.341126,30.586344",17707231717,114.341126,30.586344
B0H3ZUFIT3,[],徐家棚街团结村福星惠誉国际城K2地块第5幢/单元4层16号房,湖北省,武汉市,餐饮服务;中餐厅;中餐厅,050100,0,[],武昌区,咔嘣脆皮鸡烤肉拌饭(徐东店),"114.340712,30.586558",[],114.340712,30.586558
B0H3ZUFISC,[],团结村福星惠誉国际城K2地块5栋3层15室,湖北省,武汉市,餐饮服务;中餐厅;中餐厅,050100,0,[],武昌区,ZCSALAD主厨・轻食(徐东店),"114.341517,30.586696",[],114.341517,30.586696
B0G23REA50,[],徐家棚街团结村福星惠誉国际城K2地块5栋2层13室,湖北省,武汉市,餐饮服务;中餐厅;中餐厅,050100,0,[],武昌区,江川右・一家有态度的粥店(徐东店),"114.341225,30.586433",18164090377,114.341225,30.586433
B0H3Z9HU86,[],徐东一路欧洲花园,湖北省,武汉市,餐饮服务;餐饮相关场所;餐饮相关,050000,0,[],洪山区,酱酱姐卤味(徐东一路店),"114.348339,30.590328",[],114.348339,30.590328
B0FFGHJ6DP,B001B0I0Y9,徐东大街新世界百货门口B1楼(徐东地铁站H2口旁),湖北省,武汉市,餐饮服务;中餐厅;中餐厅,050100,0,202,洪山区,新食代砂锅(聚香隆美食城徐东店),"114.346543,30.588235",[],114.346543,30.588235
B0G17DX9OH,[],徐东一路金银岛花园3栋芙蓉兴盛超市旁,湖北省,武汉市,餐饮服务;快餐厅;快餐厅,050300,0,[],洪山区,襄樊牛肉面(徐东一路店),"114.348395,30.590563",13554633304,114.348395,30.590563
B0H29Y6332,B001B0J4DQ,和平街道徐东路7号1栋负1层1号商铺,湖北省,武汉市,餐饮服务;外国餐厅;日本料理,050202,0,202,洪山区,金鲜生外带寿司&日料食堂(徐东路店),"114.346230,30.588351",[],114.346230,30.588351
B0H1M7ZGGT,B001B1AS1B,徐家棚街团结村福星惠誉国际城K2地块第5幢/单元3层8号房,湖北省,武汉市,餐饮服务;中餐厅;中餐厅,050100,0,202,武昌区,C味・鲜虾鱿鱼煲(徐东店),"114.341286,30.587216",[],114.341286,30.587216
B0HRUHGMN2,B001B1AS1B,徐家棚街团结村福星惠誉国际城K2地块第5幢/单元1层11号房,湖北省,武汉市,餐饮服务;中餐厅;特色/地方风味餐厅,050118,0,202,武昌区,汤哥哥麻辣烫(徐东店),"114.341390,30.586440",13098309222,114.341390,30.586440
B0G3MAW9TZ,B001B0I0Y9,和平街道徐东新世界百货负一层2号商铺,湖北省,武汉市,餐饮服务;快餐厅;快餐厅,050300,1,202,洪山区,Lucky韩式炸鸡(徐东店),"114.346666,30.588289",[],114.346666,30.588289
B0H33CX8TX,[],宏茂巷与宏昌路交叉口西120米,湖北省,武汉市,餐饮服务;快餐厅;快餐厅,050300,0,[],武昌区,王都旺淮南牛肉汤,"114.341860,30.585987",[],114.341860,30.585987
B0HD3BNOJ1,[],徐家棚街团结村福星惠誉国际城K2地块5栋3层2室,湖北省,武汉市,餐饮服务;快餐厅;快餐厅,050300,0,[],武昌区,炒饭先生(徐东店),"114.341093,30.586623",18571536385;18131218893,114.341093,30.586623
B0FFJN8AL6,B001B0I0Y9,和平街道徐东二路9号新世界百货(徐东店)负一楼新食界美食城,湖北省,武汉市,餐饮服务;快餐厅;快餐厅,050300,0,202,洪山区,广东烧鹅饭(徐东店),"114.346642,30.588166",15007151506,114.346642,30.588166
B0HUACC2RX,B001B0I0Y9,徐东大街新世界百货徐东店负一楼新食界美食城,湖北省,武汉市,餐饮服务;中餐厅;中餐厅,050100,0,202,洪山区,酸小七果味酸汤鱼(徐东新世界百货店),"114.346417,30.588361",13260640036,114.346417,30.588361
B0FFLMGIZI,[],徐东大街7号(徐东地铁站C2口步行130米),湖北省,武汉市,餐饮服务;快餐厅;快餐厅,050300,0,[],洪山区,程家牛肉(徐东店),"114.346177,30.589365",15871377710,114.346177,30.589365
B0HRFX3LK9,B001B1AS1B,徐家棚街团结村福星惠誉国际城K2地块第5幢/单元2层5号房,湖北省,武汉市,餐饮服务;中餐厅;中餐厅,050100,0,202,武昌区,干饭人麻辣香锅(福客茂店),"114.341075,30.586669",[],114.341075,30.586669
B0HGSC6OLZ,B001B0AH39,徐东一路中商徐东平价广场,湖北省,武汉市,餐饮服务;中餐厅;中餐厅,050100,0,202,洪山区,杨永兴黄陂三鲜(中商徐东店),"114.344380,30.590348",[],114.344380,30.590348
B0FFHQ9WZZ,B001B0AH39,徐东路7号中商平价1楼,湖北省,武汉市,餐饮服务;糕饼店;糕饼店|餐饮服务;甜品店;甜品店,050800|050900,0,201,洪山区,工匠面包(徐东店),"114.345155,30.589483",027-88106909;18827603097,114.345155,30.589483
B0HROXRAZ0,[],"徐东小区三期14,17栋1-1",湖北省,武汉市,餐饮服务;快餐厅;快餐厅,050300,0,[],武昌区,陈黑皮牛杂面,"114.343695,30.585317",13971467880,114.343695,30.585317
B0H1T5GWBV,B001B0I0Y9,和平街道徐东一路新食界美食城负一层,湖北省,武汉市,餐饮服务;中餐厅;湖南菜(湘菜),050108,0,202,洪山区,湘味小碗菜(徐东店),"114.346980,30.588318",13100671600,114.346980,30.588318
B0G3SXZML9,[],徐东一路(时尚欧洲),湖北省,武汉市,餐饮服务;餐饮相关场所;餐饮相关,050000,0,[],洪山区,王记饼屋(徐东一路店),"114.347514,30.590135",[],114.347514,30.590135
B0G3VBAVLJ,B001B1AS1B,宏茂巷与友谊大道交叉口东南120米,湖北省,武汉市,餐饮服务;中餐厅;中餐厅,050100,0,202,武昌区,Cobq炸鸡,"114.341711,30.586806",[],114.341711,30.586806
B0H1OMQUO1,B001B0J4DQ,和平街道徐东路7号1栋负1层1号商铺,湖北省,武汉市,餐饮服务;餐饮相关场所;餐饮相关,050000,0,202,洪山区,礼留・港式牛腩煲・牛杂煲(徐东店),"114.346602,30.588679",[],114.346602,30.588679
B0FFKSF6HH,B001B1AS1B,徐家棚街团结村福星惠誉国际城K2地块第5幢/单元3层4号楼,湖北省,武汉市,餐饮服务;中餐厅;中餐厅,050100,0,202,武昌区,鱼美瑶烤鱼(徐东店),"114.340494,30.586287",[],114.340494,30.586287
B0H2LY2S6S,[],徐家棚街团结村福星惠誉国际城K2地块第5幢/单元4层9号房,湖北省,武汉市,餐饮服务;餐饮相关场所;餐饮相关,050000,0,[],武昌区,烤了只鸭(徐东店),"114.340712,30.586558",[],114.340712,30.586558
B0H1MRYNXL,[],团结村福星惠誉国际城K2地块4栋2层14室,湖北省,武汉市,餐饮服务;中餐厅;中餐厅,050100,0,[],武昌区,可心汤馆(徐东店),"114.340522,30.586499",[],114.340522,30.586499
B0FFM8JX79,B001B1AS1B,徐家棚街团结村福星惠誉国际城k2地块第5幢1层17号,湖北省,武汉市,餐饮服务;快餐厅;快餐厅,050300,0,202,武昌区,柳螺贝贝螺蛳粉(徐东店),"114.341528,30.586744",18062572097,114.341528,30.586744
B0H3M59QZZ,B001B0AH39,和平乡徐东路7号4栋1层01-008号商铺(中商徐东平价广场),湖北省,武汉市,餐饮服务;糕饼店;糕饼店,050800,0,202,洪山区,皇冠幸福里(100徐东店),"114.344621,30.590527",027-88600463,114.344621,30.590527
B0FFKHGJSA,B001B19J8N,友谊大道与才华街交叉口西南约200米,湖北省,武汉市,餐饮服务;咖啡厅;咖啡厅,050500,0,312,洪山区,纽宾凯徐东国际酒店-咖啡吧,"114.345556,30.591652",[],114.345556,30.591652
B0FFHUFQD1,B001B0AH39,徐东大街7号中商平价广场,湖北省,武汉市,餐饮服务;冷饮店;冷饮店,050700,1,201,洪山区,1点点(徐东中商平价店),"114.344546,30.590412",17786528839,114.344546,30.590412
B0HD3KOI3J,B001B1AS1B,徐家棚街团结村福星惠誉国际城K2地块第5幢/单元3层7号房,湖北省,武汉市,餐饮服务;餐饮相关场所;餐饮相关,050000,0,202,武昌区,鸡百万叫花鸡(徐东店),"114.341389,30.587309",[],114.341389,30.587309
B0GKX7FDY8,B001B1AS1B,徐家棚街团结村福星惠誉国际城K2地块第5幢/单元2层14号房,湖北省,武汉市,餐饮服务;糕饼店;糕饼店,050800,0,202,武昌区,熊猫嘟纳厚蛋吐司(徐东店),"114.341069,30.586741",18086029669,114.341069,30.586741
B0FFHQ9X0L,B001B0AH39,徐东大街7号中商徐东平价广场1层,湖北省,武汉市,餐饮服务;餐饮相关场所;餐饮相关,050000,0,201,洪山区,正新鸡排(中商徐东平价广场店),"114.344894,30.590763",15926298687;15172323893,114.344894,30.590763
B0H2A78TIC,B001B1AS1B,徐家棚街团结村福星惠誉国际城K2地块第5幢/单元4层6号房,湖北省,武汉市,餐饮服务;中餐厅;中餐厅,050100,0,202,武昌区,虎爷精致便当(徐东店),"114.340910,30.586608",[],114.340910,30.586608
B0H251NX3E,B001B0I0Y9,徐东一路新世界百货(新食界美食城内)(徐东店),湖北省,武汉市,餐饮服务;中餐厅;湖南菜(湘菜),050108,0,202,洪山区,渔人炊烟,"114.346402,30.588508",[],114.346402,30.588508
B0FFGXCUPJ,B001B0I0Y9,徐东路31号徐东新世界百货一楼,湖北省,武汉市,餐饮服务;冷饮店;冷饮店,050700,0,201,洪山区,CoCo都可(新世界徐东店),"114.346791,30.588421",18986013415,114.346791,30.588421
B0G22KRJ7C,[],武汉大道徐东地铁站A出口负一楼,湖北省,武汉市,餐饮服务;糕饼店;糕饼店,050800,0,[],武昌区,尚酥坊中式糕点(徐东店),"114.345473,30.588095",13164159673,114.345473,30.588095
B0FFG6BT6I,B001B0AH39,徐东大街7号中商徐东平价广场F1层,湖北省,武汉市,餐饮服务;餐饮相关场所;餐饮相关,050000,0,201,洪山区,周黑鸭(武汉洪山区徐东平价广场店),"114.344434,30.590288",4001717917;027-86735870,114.344434,30.590288
B0HDH6CBSN,[],宏茂巷与宏昌路交叉口东南约140米,湖北省,武汉市,餐饮服务;餐饮相关场所;餐饮相关,050000,0,[],武昌区,可晨包子(徐东古玩城店),"114.343913,30.584752",[],114.343913,30.584752
B0FFHS0NC1,B001B0AH39,徐东路7号中商平价一楼外围商铺,湖北省,武汉市,餐饮服务;快餐厅;快餐厅,050300,0,202,洪山区,华莱士(徐东中商店),"114.344585,30.589932",15527769381;18171187664,114.344585,30.589932
B0FFJ1HTT2,[],徐东商圈友谊大道徐东村小区,湖北省,武汉市,餐饮服务;快餐厅;快餐厅,050300,0,[],洪山区,桥头排骨(徐东店),"114.345395,30.591447",15392945530,114.345395,30.591447
B0I6HHY138,B001B0AH39,徐东中商平价超市,湖北省,武汉市,餐饮服务;餐饮相关场所;餐饮相关,050000,0,202,洪山区,市井婆豆沙牛乳(徐东店),"114.344447,30.590327",13125009180,114.344447,30.590327
B0HGTCAZ64,B001B1AS1B,徐家棚街团结村福星惠誉国际城k2地块第五幢单元二层16号房,湖北省,武汉市,餐饮服务;中餐厅;中餐厅,050100,0,202,武昌区,炅爸爸・擂椒拌饭(徐东店),"114.341179,30.586627",[],114.341179,30.586627
B0HRO7MCOE,B001B0J4DQ,和平街道徐东路7号1栋负1层1号商铺,湖北省,武汉市,餐饮服务;中餐厅;中餐厅,050100,0,202,洪山区,皮皮炒饭(徐东新世界店),"114.346602,30.588679",[],114.346602,30.588679
B0H2JSTQMI,B001B0I0Y9,徐东大街31号新世界百货一层,湖北省,武汉市,餐饮服务;餐饮相关场所;餐饮相关,050000,0,202,洪山区,味千拉面(徐东大街新世界店),"114.346865,30.588346",027-51891594,114.346865,30.588346
B0H69XMSSC,[],团结村宏茂巷王家墩48号1楼,湖北省,武汉市,餐饮服务;中餐厅;中餐厅,050100,0,[],武昌区,长沙小碗菜(徐东品质店),"114.342851,30.586185",15527076870;17762569494,114.342851,30.586185
B0H27YUH9Y,B001B1AS1B,徐家棚团结村福星惠誉国际城K2地块第4幢/单元1层12号房,湖北省,武汉市,餐饮服务;餐饮相关场所;餐饮相关,050000,0,202,武昌区,南膳房北京烤鸭(福客茂店),"114.340712,30.586558",[],114.340712,30.586558
B0HGZ7452Y,B001B0AH39,徐东大街7号中商徐东平价广场F1,湖北省,武汉市,餐饮服务;餐饮相关场所;餐饮相关,050000,0,202,洪山区,老乡鸡(武汉徐东店),"114.344621,30.590323",4007661777;17786455300;13955491731,114.344621,30.590323
B0FFKTD6KT,B001B1AS1B,徐家棚街团结村福星惠誉国际城K2地块第5幢/单元4层10号房,湖北省,武汉市,餐饮服务;中餐厅;中餐厅,050100,0,202,武昌区,大掌柜凉皮肉夹馍(徐东店),"114.340963,30.586896",18256840062;15256871872,114.340963,30.586896
B0HGFB3K8M,[],徐东大街聚香隆美食广场负一楼新世纪百货边,湖北省,武汉市,餐饮服务;中餐厅;中餐厅,050100,0,[],洪山区,江边炉鱼(徐东店),"114.346590,30.588260",[],114.346590,30.588260
B0FFF5WNRW,[],汪家墩地铁站N口步行160米,湖北省,武汉市,餐饮服务;中餐厅;特色/地方风味餐厅,050118,0,[],武昌区,汉口老街烧烤(徐东桔园店),"114.347544,30.584243",15071032034,114.347544,30.584243
B0H10XXL4M,B001B0J4DQ,和平街道徐东路7号1栋负1层1号商铺,湖北省,武汉市,餐饮服务;餐饮相关场所;餐饮相关,050000,0,202,洪山区,呷地道炸炸炸(徐东店),"114.346602,30.588679",[],114.346602,30.588679
B0FFGZPCOE,[],徐家棚街徐东三期1号楼底层商业网点7号,湖北省,武汉市,餐饮服务;中餐厅;中餐厅,050100,0,[],武昌区,口福堂厨房,"114.344517,30.586259",027-86771678;15871815788,114.344517,30.586259
B0HR7AOL5B,B001B0I0Y9,徐东新世界百货新食界美食城外卖档口8号,湖北省,武汉市,餐饮服务;中餐厅;中餐厅,050100,1,202,洪山区,箐花轻厨(徐东店),"114.346414,30.588272",15102767281,114.346414,30.588272
B0FFKCTS1B,B001B0AH39,和平乡徐东路7号武汉中商平价徐东平价广场有限公司,湖北省,武汉市,餐饮服务;餐饮相关场所;餐饮相关,050000,0,202,洪山区,大米先生(徐东中商平价店),"114.344759,30.590601",15025398050,114.344759,30.590601
B0H2PDOW7D,B001B0I0Y9,徐东大街与徐东一路交叉口东120米,湖北省,武汉市,餐饮服务;中餐厅;中餐厅,050100,0,202,洪山区,陆小姐麻辣香锅,"114.346576,30.588766",[],114.346576,30.588766
B0H1RU9EDE,[],团结名居竹园3栋16号门面一楼附2号,湖北省,武汉市,餐饮服务;餐饮相关场所;餐饮相关,050000,0,[],武昌区,初晴轻食(徐东店),"114.339728,30.586136",13774072429,114.339728,30.586136
B0HDDG8W0A,[],徐东大街7号中商平价广场1层(工匠面包旁)麦当劳,湖北省,武汉市,餐饮服务;餐饮相关场所;餐饮相关,050000,1,[],洪山区,喜姐炸串(徐东店),"114.345287,30.589363",13554106133,114.345287,30.589363
B0G064KZFS,B001B1AS1B,徐家棚街团结村福星惠誉国际城K2地块第5幢/单元2层15号房,湖北省,武汉市,餐饮服务;快餐厅;快餐厅,050300,0,202,武昌区,韦小堡炸鸡汉堡(福客茂店),"114.341028,30.586750",17720523619,114.341028,30.586750
B0FFFYE9CP,B001B0I0Y9,徐东大街31号新世界百货1层,湖北省,武汉市,餐饮服务;快餐厅;快餐厅,050300,0,201,洪山区,大米先生(徐东新世界店),"114.347427,30.588481",18581292188,114.347427,30.588481
B0FFKNS8PO,[],徐东大街宏昌路宏茂巷348号,湖北省,武汉市,餐饮服务;餐饮相关场所;餐饮相关,050000,1,[],武昌区,写青春台式奶茶(徐东店),"114.343693,30.585287",13971665456,114.343693,30.585287
B001B19RCG,[],徐家棚街团结名居桔园1号门面1楼,湖北省,武汉市,餐饮服务;中餐厅;海鲜酒楼,050119,0,[],武昌区,馒头海鲜坊(徐东店),"114.342898,30.585535",18327002108,114.342898,30.585535
B0H23NRH8I,B001B0AH39,徐东大街7号中商徐东平价广场F1,湖北省,武汉市,餐饮服务;中餐厅;中餐厅,050100,0,202,洪山区,米国现煮煲仔饭(徐东平价店),"114.345241,30.589444",13554192314,114.345241,30.589444
B0H1K74YSQ,B001B0AH39,徐东路7号中商平价广场一楼宫拉拉蒜香炸鸡店,湖北省,武汉市,餐饮服务;餐饮相关场所;餐饮相关,050000,1,202,洪山区,宫拉拉蒜香炸鸡(徐东店),"114.345332,30.589350",15271238778,114.345332,30.589350
B0G39PKWPP,B001B1AS1B,徐家棚街团结村福星惠誉国际城K2地块第5幢/单元3层8号房,湖北省,武汉市,餐饮服务;中餐厅;中餐厅,050100,0,202,武昌区,牛把头煲汁牛三鲜(福客茂店),"114.340992,30.586348",13098301000,114.340992,30.586348
B0H01XRLKW,B001B0I0Y9,徐东大街与徐东一路交叉口东约100米,湖北省,武汉市,餐饮服务;中餐厅;中餐厅,050100,1,202,洪山区,墨茉点心局(新世界徐东店),"114.346458,30.588828",17762435932,114.346458,30.588828
B0H1M92FVE,[],徐家棚街团结村福星惠誉国际城K2地块第5幢/单元1层1号房,湖北省,武汉市,餐饮服务;中餐厅;中餐厅,050100,0,[],武昌区,蔡汉文早餐小碗菜(福客茂店),"114.340503,30.585995",[],114.340503,30.585995
B0FFJ968ZZ,B001B0I0Y9,徐东大街与徐东二路交叉口西北约60米,湖北省,武汉市,餐饮服务;餐饮相关场所;餐饮相关,050000,0,202,洪山区,绝味鸭脖(徐东新世界店),"114.346620,30.588119",[],114.346620,30.588119
B0HD1X49Y1,B001B1AS1B,徐家棚街团结村福星惠誉国际城K2地块第5幢/单元4层7号房,湖北省,武汉市,餐饮服务;快餐厅;快餐厅,050300,0,202,武昌区,叫了个炸鸡汉堡(福克茂店),"114.341008,30.586631",18171019050,114.341008,30.586631
B0G1TBT8S6,[],友谊大道506号五釜轩自助餐厅(原楚灶王二楼),湖北省,武汉市,餐饮服务;餐饮相关场所;餐饮相关,050000,1,[],洪山区,五釜轩徐东店,"114.345812,30.591949",17702744919;027-88081200,114.345812,30.591949
B0HG5MACG8,[],徐东一路欧洲花园7栋奶香铺子隔壁,湖北省,武汉市,餐饮服务;餐饮相关场所;餐饮相关,050000,1,[],洪山区,壹颗冰糖烤梨(徐东店),"114.348048,30.590180",13871224363,114.348048,30.590180
B0GRGGPIA5,B001B1AS1B,团结村福星惠誉国际城K2地块3栋1层1室-8号铺位,湖北省,武汉市,餐饮服务;餐饮相关场所;餐饮相关,050000,0,202,武昌区,胡炸炸(徐东店),"114.341325,30.586821",17386101103;13071212050,114.341325,30.586821
B0FFGF8OCB,B001B0AH39,徐东大街7号中商徐东平价广场1层户部巷旁边,湖北省,武汉市,餐饮服务;糕饼店;糕饼店,050800,0,201,洪山区,小李发糕(徐东分店),"114.344912,30.590780",027-83851208,114.344912,30.590780
B0FFJ1CW8M,B001B0AH39,徐东大街7号中商徐东平价广场中商平价超市麦当劳旁,湖北省,武汉市,餐饮服务;中餐厅;中餐厅,050100,0,202,洪山区,骏骏牛肉粉店(徐东店),"114.344810,30.589578",[],114.344810,30.589578
B0HD3XRI5C,B001B1AS1B,芭莎公馆小区1栋1单元605,湖北省,武汉市,餐饮服务;甜品店;甜品店,050900,0,202,武昌区,山前CAKE(徐东店),"114.341051,30.586304",19986921167,114.341051,30.586304
B0HGRZO2RN,[],徐东金马凯旋家居一楼D-102-1号,湖北省,武汉市,餐饮服务;糕饼店;糕饼店,050800,0,[],洪山区,纯坊佳哥手作(徐东店),"114.345155,30.591272",18971402065,114.345155,30.591272
B0GK2SIFLQ,B001B09NPE,徐家棚街街道宏昌路徐东古玩城3号,湖北省,武汉市,餐饮服务;中餐厅;清真菜馆,050121,0,202,武昌区,新疆手抓饭(徐东古玩城店),"114.343728,30.586074",[],114.343728,30.586074
B0FFH6FL60,[],宏昌路35号(古玩市场),湖北省,武汉市,餐饮服务;餐饮相关场所;餐饮相关,050000,0,[],武昌区,五谷渔粉(徐东店),"114.343815,30.585859",18040555803,114.343815,30.585859
B0HAFRX0JH,B001B1AS1B,徐家棚团结村福星惠誉国际城k2地块第5幢/单元3层19号房,湖北省,武汉市,餐饮服务;中餐厅;中餐厅,050100,0,202,武昌区,辣三湘酱拌饭(徐东福客茂店),"114.341602,30.586584",13656161525,114.341602,30.586584
B0H1CL5670,B001B1AS1B,徐家棚街团结村福星惠誉国际城K2地块第5幢/单元3层10号房,湖北省,武汉市,餐饮服务;中餐厅;中餐厅,050100,0,202,武昌区,稻川岛港式滑蛋饭(福客茂店),"114.341618,30.586819",[],114.341618,30.586819
B0FFL7D7B1,[],徐家棚街宏茂巷团结名居・桔园一楼10-2号,湖北省,武汉市,餐饮服务;中餐厅;火锅店,050117,0,[],武昌区,甜蜜汤馆(徐东店),"114.342275,30.586284",18602704035,114.342275,30.586284
B001B1IPM9,B001B0I0Y9,徐东大街31号徐东新世界百货一层09B号,湖北省,武汉市,餐饮服务;咖啡厅;星巴克咖啡,050501,1,201,洪山区,星巴克(武汉徐东新世界店),"114.346397,30.589003",027-59397292;027-59397263,114.346397,30.589003
B0HUA56FD3,B001B1AS1B,徐家棚街团结村福星惠誉国际K2地块第5幢/单元3层17号房,湖北省,武汉市,餐饮服务;中餐厅;火锅店,050117,0,202,武昌区,不态辣火锅烫(徐东店),"114.341652,30.586753",15377000157,114.341652,30.586753
B0H1CL5D47,B001B1AS1B,福星惠誉国际城K2地块5栋1层13室,湖北省,武汉市,餐饮服务;中餐厅;中餐厅,050100,0,202,武昌区,焱麻记鸡公煲(福客茂店),"114.341182,30.586510",15926497155,114.341182,30.586510
B001B1IPME,[],徐东村友谊大道510号徐东花园三期7.8栋1层-101室,湖北省,武汉市,餐饮服务;中餐厅;特色/地方风味餐厅,050118,0,[],洪山区,如意馄饨(徐东一路店),"114.348083,30.590423",18727433433;15527978297,114.348083,30.590423
B0HDFSI0F1,B001B1AS1B,徐家棚街团结村福星惠誉国际城K2地块第5幢/单元3层18号房,湖北省,武汉市,餐饮服务;中餐厅;四川菜(川菜),050102,0,202,武昌区,重庆川菜馆(徐东店),"114.341370,30.586564",[],114.341370,30.586564
B0FFKL3EZP,B001B1AS1B,团结村团结南路福星惠誉国际城K2地块5栋1层6室,湖北省,武汉市,餐饮服务;餐饮相关场所;餐饮相关,050000,0,202,武昌区,尊宝比萨(福客茂店),"114.340744,30.586239",027-88875086;027-88875087,114.340744,30.586239
B0FFHCZVJH,B001B0I0Y9,徐东路7号凯旋门广场新世界百货1F、2F,湖北省,武汉市,餐饮服务;快餐厅;肯德基,050301,0,201,洪山区,肯德基(徐东新世界店),"114.347063,30.588156",4009208801,114.347063,30.588156
B001B0JUIH,[],徐东友谊大道506号(金马家私旁),湖北省,武汉市,餐饮服务;中餐厅;综合酒楼,050101,0,[],洪山区,楚灶王(徐东店)(装修中),"114.345773,30.591900",[],114.345773,30.591900
B001B0IUUB,B001B0AH39,徐东大街7号中商徐东平价广场F1,湖北省,武汉市,餐饮服务;中餐厅;中餐厅,050100,0,201,洪山区,户部巷小吃(徐东路店),"114.344979,30.590826",15623273251,114.344979,30.590826
B0HRGLANVS,B001B0AH39,徐东大街7号中商徐东平价广场F1(徐东地铁站D口旁),湖北省,武汉市,餐饮服务;冷饮店;冷饮店,050700,0,202,洪山区,茶颜悦色(武汉徐东平价广场店),"114.345161,30.589528",[],114.345161,30.589528
B0FFKT7XXH,B001B0AH39,徐东大街7号中商徐东平价广场F1,湖北省,武汉市,餐饮服务;糕饼店;糕饼店,050800,0,202,洪山区,v禾Uhealth(徐东平价店),"114.345050,30.589570",027-88013002,114.345050,30.589570
B0FFIALIGO,B001B0AH39,徐东大街7号中商徐东平价广场F1层,湖北省,武汉市,餐饮服务;中餐厅;火锅店,050117,0,201,洪山区,小糖人欢乐火锅(徐东店),"114.345838,30.589406",027-88300233,114.345838,30.589406
B0FFI751ZI,[],徐东大街7号徐东新村1号,湖北省,武汉市,餐饮服务;中餐厅;中餐厅,050100,0,[],洪山区,彭厨(徐东店),"114.346990,30.589875",027-88019777,114.346990,30.589875
B001B06M7N,B001B0AH39,徐东大街7号中商徐东平价广场F1层,湖北省,武汉市,餐饮服务;快餐厅;麦当劳,050302,0,201,洪山区,麦当劳(徐东路店),"114.345484,30.589347",027-86821778;4008517517,114.345484,30.589347
B0IDAC0Z27,[],宏茂巷与宏昌路交叉口北20米,湖北省,武汉市,餐饮服务;中餐厅;中餐厅,050100,0,[],武昌区,老铁洽饭,"114.342992,30.585819",[],114.342992,30.585819
B0H6XZUZCX,B001B0AH39,徐东大街7号中商徐东平价广场F1,湖北省,武汉市,餐饮服务;快餐厅;快餐厅,050300,0,202,洪山区,李记热干面(中商徐东平价广场店),"114.344855,30.590719",[],114.344855,30.590719
B0I6X5DQBK,B001B0AH39,徐东一路与徐东大街交叉口北40米,湖北省,武汉市,餐饮服务;甜品店;甜品店,050900,0,202,洪山区,甜品站,"114.345458,30.589238",[],114.345458,30.589238
B0IBMRUHU7,B001B0I0Y9,新世界百货新食界美食城(徐东地铁站C1口旁),湖北省,武汉市,餐饮服务;餐饮相关场所;餐饮相关,050000,0,202,洪山区,饭圈,"114.346487,30.588346",[],114.346487,30.588346
B0ID4UPKTM,B0FFHWXLAC,友谊大道与才华街交叉口南120米,湖北省,武汉市,餐饮服务;冷饮店;冷饮店,050700,0,202,洪山区,低糖茶饮,"114.346080,30.592239",[],114.346080,30.592239
B0H0KDMQ7Q,B001B0AH39,徐家棚街街道徐东一路8号徐东新世界百货负1层13号商铺,湖北省,武汉市,餐饮服务;快餐厅;快餐厅,050300,0,202,洪山区,布咕鸡锡纸烧肉饭,"114.345855,30.589397",19946792811,114.345855,30.589397
B0ID41QDJ0,B001B0I0Y9,徐东新世界新食界美食城负一楼9号铺,湖北省,武汉市,餐饮服务;快餐厅;快餐厅,050300,0,202,洪山区,大吉和牛排手作意面,"114.346529,30.588185",[],114.346529,30.588185
B0IBYHTJJX,[],徐东新世界百货负一层19号商铺(徐东地铁站C1口旁),湖北省,武汉市,餐饮服务;快餐厅;快餐厅,050300,0,[],洪山区,盖饭・高氏水饺,"114.346300,30.588280",18986340320,114.346300,30.588280
B0IACDN8RM,[],友谊大道徐东新世界百货负一层外001号商铺,湖北省,武汉市,餐饮服务;快餐厅;快餐厅,050300,0,[],洪山区,二师兄.大碗猪脚饭,"114.346480,30.588155",15926319520,114.346480,30.588155
B0ID4UPCCF,[],宏茂巷与宏昌路交叉口北20米,湖北省,武汉市,餐饮服务;快餐厅;快餐厅,050300,0,[],武昌区,老曹口水凉面,"114.342990,30.585893",[],114.342990,30.585893
B0G1G1PROS,B001B1AS1B,宏茂巷与友谊大道交叉口南80米,湖北省,武汉市,餐饮服务;糕饼店;糕饼店,050800,0,202,武昌区,时光栈,"114.341293,30.587046",[],114.341293,30.587046
B0FFLDB1D7,B001B09NPE,徐东古玩城宏昌路43号2-2号,湖北省,武汉市,餐饮服务;快餐厅;快餐厅,050300,1,202,武昌区,武汉市盒甯餐饮管理有限公司,"114.343778,30.586169",15997423241,114.343778,30.586169
B0HRJCNW37,[],团结名居桔园四单元背后,湖北省,武汉市,餐饮服务;中餐厅;中餐厅,050100,0,[],武昌区,砂锅世家(味纳百川新食代美食城店),"114.342370,30.585850",[],114.342370,30.585850
B0FFGZ0FE3,[],徐家棚街办事处团结路万吨冷库对面,湖北省,武汉市,餐饮服务;中餐厅;中餐厅,050100,0,[],武昌区,何记牛杂粉面馆(团结路总店),"114.338898,30.587335",15827094608,114.338898,30.587335
B0H2H1L21I,B001B0AH39,徐东大街徐东平价超市,湖北省,武汉市,餐饮服务;糕饼店;糕饼店,050800,0,202,洪山区,v禾,"114.345027,30.589613",[],114.345027,30.589613
B0HAL76GD5,B001B1AS1B,徐东地铁站出入口步行290米,湖北省,武汉市,餐饮服务;冷饮店;冷饮店,050700,1,202,武昌区,春水涧茶,"114.340516,30.586664",[],114.340516,30.586664
B0I6NCCMZ2,B001B0AH39,徐东大街31号新世界百货(徐东地铁站H2口旁),湖北省,武汉市,餐饮服务;冷饮店;冷饮店,050700,0,202,洪山区,茶颜悦色(新世界百货店),"114.346762,30.588440",[],114.346762,30.588440
B0FFL50ZKO,[],宏茂巷团结名居竹园西侧约30米,湖北省,武汉市,餐饮服务;快餐厅;快餐厅,050300,0,[],武昌区,冷家肉丸,"114.344034,30.584010",[],114.344034,30.584010
B0HDLHVNEK,B001B0I0Y9,徐东大街新世界新食界美食城内(徐东地铁站H2口旁),湖北省,武汉市,餐饮服务;快餐厅;快餐厅,050300,0,202,洪山区,蒸凹厨房优选中式快餐,"114.346614,30.588145",[],114.346614,30.588145
B0HRV9844U,[],团结路19号,湖北省,武汉市,餐饮服务;茶艺馆;茶艺馆,050600,0,[],武昌区,三合茶社,"114.339206,30.586424",13308633383,114.339206,30.586424
B0H11HNWXV,B001B1AS1B,徐家棚街团结村福星惠誉国际城K2地块第5幢/单元2层5号房,湖北省,武汉市,餐饮服务;中餐厅;中餐厅,050100,0,202,武昌区,鱿克兄弟海鲜炒饭,"114.341101,30.586720",[],114.341101,30.586720
B0GKJHZDGS,[],徐家棚街道徐东大街30号徐东古玩城珠宝街二期1,湖北省,武汉市,餐饮服务;茶艺馆;茶艺馆,050600,1,[],武昌区,龙福源茶社,"114.343894,30.587642",18986185768,114.343894,30.587642
B0H1BB25KP,[],团结村福星惠誉国际城K2地块5栋3层2室,湖北省,武汉市,餐饮服务;中餐厅;中餐厅,050100,0,[],武昌区,江城宴・精致私房菜,"114.340903,30.586565",[],114.340903,30.586565
B0IANHILTB,[],团结路16号东原锦悦第7幢/单元3层商12号房,湖北省,武汉市,餐饮服务;中餐厅;中餐厅,050100,0,[],武昌区,黄氏小海丁・老烧烤(徐东武汉),"114.342689,30.585423",[],114.342689,30.585423
B0H1M7XUQD,[],徐家棚街团结村福星惠誉国际城K2地块5栋1层18室,湖北省,武汉市,餐饮服务;中餐厅;中餐厅,050100,0,[],武昌区,蜀滋味冷锅串串(冒菜店),"114.341352,30.586649",[],114.341352,30.586649
B0H1M91TMD,[],徐家棚街团结村福星惠誉国际城K2地块5栋2层6室,湖北省,武汉市,餐饮服务;中餐厅;中餐厅,050100,0,[],武昌区,臻湘,"114.341172,30.586756",[],114.341172,30.586756
B0G39ZMGRN,[],团结村福星惠誉国际城K2地块5栋4层14室,湖北省,武汉市,餐饮服务;快餐厅;快餐厅,050300,0,[],武昌区,老头爱马仕炒饭,"114.341114,30.586632",15271786936,114.341114,30.586632
B0FFM37QWV,[],和平街道馨苑市场内部商铺,湖北省,武汉市,餐饮服务;餐饮相关场所;餐饮相关,050000,0,[],洪山区,随便炸炸,"114.349414,30.591918",15871172865,114.349414,30.591918
B0IG7DP07C,B001B0I0Y9,徐东大街31号新世界百货徐东店1楼,湖北省,武汉市,餐饮服务;外国餐厅;牛扒店(扒房),050211,0,202,洪山区,豪客来,"114.346306,30.589061",[],114.346306,30.589061
B0HG0MW1J0,[],徐东大街7号中商徐东平价广场F1,湖北省,武汉市,餐饮服务;快餐厅;快餐厅,050300,0,[],武昌区,公安锅盔(户部巷店),"114.345922,30.593145",15872102342,114.345922,30.593145
B0G2R4H3RP,[],杨园街武汉市武昌医院(西区)东北侧约50米,湖北省,武汉市,餐饮服务;快餐厅;快餐厅,050300,0,[],武昌区,精武鸭脖(杨园街店),"114.342030,30.603475",[],114.342030,30.603475
B0FFJ3YXU3,[],徐东路7号金银花花园13号楼底层商铺,湖北省,武汉市,餐饮服务;快餐厅;快餐厅,050300,0,[],洪山区,乐活快餐馆,"114.348328,30.590523",13871415032,114.348328,30.590523
B0FFL3KAOX,B001B0IIVV,友谊大道辅路与徐东大街交叉口南180米,湖北省,武汉市,餐饮服务;快餐厅;快餐厅,050300,0,202,武昌区,小胡鸭(五环天地店),"114.343226,30.588278",15902760352,114.343226,30.588278
B0G3JN17HY,[],宏茂巷团结名居桔园(徐东地铁站出入口步行400米),湖北省,武汉市,餐饮服务;茶艺馆;茶艺馆,050600,0,[],武昌区,中老年人茶社,"114.342262,30.586123",[],114.342262,30.586123
B0IGX5NTTS,B001B0I0Y9,徐东大街31号新世界百货一层,湖北省,武汉市,餐饮服务;快餐厅;快餐厅,050300,0,202,洪山区,德华楼(徐东新世界店),"114.346357,30.589050",13971281723,114.346357,30.589050
B0H2HKG02S,[],徐家棚街团结村福星惠誉国际城K2地块第4幢/单元1层15号房,湖北省,武汉市,餐饮服务;中餐厅;中餐厅,050100,0,[],武昌区,汉牛客炙烤牛肉堡,"114.340528,30.586269",[],114.340528,30.586269
B0G2M10E57,[],徐东一路15附2(徐东地铁站C2口步行330米),湖北省,武汉市,餐饮服务;快餐厅;快餐厅,050300,0,[],洪山区,村长哥,"114.348201,30.590458",18872278382,114.348201,30.590458
B0GKNU8XLE,[],宏昌路2号附10号(徐东地铁站B口步行270米),湖北省,武汉市,餐饮服务;中餐厅;中餐厅,050100,0,[],武昌区,千喜家,"114.344961,30.586441",[],114.344961,30.586441
B0HRG5AK6S,[],宏茂巷与宏昌路交叉口西北约100米,湖北省,武汉市,餐饮服务;餐饮相关场所;餐饮相关,050000,0,[],武昌区,喜客来小笼包,"114.342490,30.586510",[],114.342490,30.586510
B0FFH7B6UH,B001B1IO9C,友谊大道辅路与宏茂巷交叉口东180米,湖北省,武汉市,餐饮服务;咖啡厅;咖啡厅,050500,0,202,武昌区,秀玉,"114.343186,30.588019",[],114.343186,30.588019
B0G0VMK6RE,B001B0IIVV,息夫人大道南段甄湾新区一号,湖北省,武汉市,餐饮服务;中餐厅;中餐厅,050100,0,202,武昌区,爱与家美食大院,"114.342910,30.587863",[],114.342910,30.587863
B0ID6S0YEP,[],友谊大道与才华街交叉口西南220米,湖北省,武汉市,餐饮服务;餐饮相关场所;餐饮相关,050000,0,[],洪山区,老汉口臭豆腐,"114.345401,30.591475",[],114.345401,30.591475
B0FFHCLPSY,[],徐东平价户部巷,湖北省,武汉市,餐饮服务;餐饮相关场所;餐饮相关,050000,0,[],洪山区,炕土豆,"114.345340,30.591518",[],114.345340,30.591518
B0H39OV62A,B001B0I0Y9,武汉大道新世界百货二楼盒马鲜生内(徐东地铁站H2口旁),湖北省,武汉市,餐饮服务;中餐厅;特色/地方风味餐厅,050118,0,202,洪山区,黄太后卤味厨房,"114.346992,30.588397",[],114.346992,30.588397
B0FFMAC0QU,B001B0AH39,杨园街办事处友谊大道513号附一号,湖北省,武汉市,餐饮服务;餐饮相关场所;餐饮相关,050000,0,202,洪山区,白记白兰州牛肉面,"114.344676,30.589873",[],114.344676,30.589873
B0H1MRZNX8,B001B0J4DQ,和平街道徐东路7号1栋负1层1号商铺,湖北省,武汉市,餐饮服务;中餐厅;特色/地方风味餐厅,050118,0,202,洪山区,麻辣香锅牛牛爆烤,"114.346624,30.588299",[],114.346624,30.588299
B0HK9S0K07,[],宏茂巷与宏昌路交叉口西北约100米,湖北省,武汉市,餐饮服务;中餐厅;中餐厅,050100,0,[],武昌区,自助餐(宏茂巷店),"114.342483,30.586522",[],114.342483,30.586522
B0HR0POTH0,[],徐东一路金银岛花园(徐东地铁站C2口步行450米),湖北省,武汉市,餐饮服务;中餐厅;中餐厅,050100,0,[],洪山区,食享会,"114.348086,30.591170",[],114.348086,30.591170
B0HD4RJR3B,B001B0J4DQ,徐东大街与徐东一路交叉口东约120米,湖北省,武汉市,餐饮服务;中餐厅;中餐厅,050100,0,202,洪山区,木桶饭干锅小炒,"114.346576,30.588750",[],114.346576,30.588750
B0IAFR9XUW,[],徐东一路13附14号(徐东地铁站C2口步行310米),湖北省,武汉市,餐饮服务;中餐厅;中餐厅,050100,0,[],洪山区,新疆兄弟羊肉大全,"114.348016,30.590386",13150439785,114.348016,30.590386
B0IATKG5BJ,[],徐东一路与徐东大街交叉口东北280米,湖北省,武汉市,餐饮服务;中餐厅;中餐厅,050100,0,[],洪山区,西安特色肉夹馍,"114.347829,30.590275",[],114.347829,30.590275
B0H0VSYI0S,[],徐东一路徐东村小区(徐东地铁站C2口步行190米),湖北省,武汉市,餐饮服务;中餐厅;中餐厅,050100,0,[],洪山区,天顺烧烤,"114.346679,30.589822",[],114.346679,30.589822
B0IAZ700MQ,[],徐东大街与徐东一路交叉口东120米,湖北省,武汉市,餐饮服务;中餐厅;中餐厅,050100,0,[],洪山区,姑娘手肉夹馍(徐东店),"114.346615,30.588884",[],114.346615,30.588884
B0HROCMJ9B,[],保集安油料所交流站17号,湖北省,武汉市,餐饮服务;中餐厅;中餐厅,050100,0,[],武昌区,饭小饱,"114.343980,30.583042",[],114.343980,30.583042
B0I6X5DAXC,[],宏昌路与徐东大街交叉口西南180米,湖北省,武汉市,餐饮服务;中餐厅;中餐厅,050100,0,[],武昌区,峰峰小饭馆,"114.345040,30.586623",[],114.345040,30.586623
B0G1VUAXET,[],徐家棚街办事处宏祥路群星城后门徐家棚,湖北省,武汉市,餐饮服务;中餐厅;中餐厅,050100,0,[],武昌区,吴福记牛肉粉,"114.345195,30.586558",[],114.345195,30.586558
B0HROCLNMB,[],徐东大街30号古玩街2-1、3号,湖北省,武汉市,餐饮服务;中餐厅;中餐厅,050100,0,[],武昌区,老甲~馆(群星城店),"114.343646,30.586737",[],114.343646,30.586737
B0ID4HOIQM,[],宏昌路与宏茂巷交叉口东北80米,湖北省,武汉市,餐饮服务;中餐厅;中餐厅,050100,0,[],武昌区,胜皇木桶饭,"114.343741,30.586193",[],114.343741,30.586193
B0I62ZFFG7,[],宏茂巷与宏昌路交叉口西北80米,湖北省,武汉市,餐饮服务;中餐厅;中餐厅,050100,0,[],武昌区,胡萝卜羊肉汤,"114.342629,30.586300",[],114.342629,30.586300
B0HR3CCDGP,[],宏茂巷与宏昌路交叉口西北约80米,湖北省,武汉市,餐饮服务;中餐厅;中餐厅,050100,0,[],武昌区,滋补汤煲铺,"114.342693,30.586263",[],114.342693,30.586263
B0H2DACRQN,[],团结村宏巷王家墩27号附4号,湖北省,武汉市,餐饮服务;中餐厅;中餐厅,050100,0,[],武昌区,稻田川・港式滑蛋饭,"114.342869,30.586707",[],114.342869,30.586707
B0IB5ZGNS5,[],宏茂巷与友谊大道交叉口东南140米,湖北省,武汉市,餐饮服务;中餐厅;中餐厅,050100,0,[],武昌区,融合菜,"114.342181,30.586916",[],114.342181,30.586916
B0ID47PRTG,[],宏茂巷与友谊大道辅路交叉口东南160米,湖北省,武汉市,餐饮服务;中餐厅;中餐厅,050100,0,[],武昌区,食味鲜,"114.342459,30.586997",[],114.342459,30.586997
B0HRO7LQR2,B001B1AS1B,团结村福星惠誉国际城K2地块5栋4层11室,湖北省,武汉市,餐饮服务;中餐厅;中餐厅,050100,0,202,武昌区,龙门阵,"114.341244,30.586781",[],114.341244,30.586781
B0H1MR09E7,B001B1AS1B,徐家棚街团结村福星惠誉国际城K2地块第5幢/单元4层16号房,湖北省,武汉市,餐饮服务;中餐厅;中餐厅,050100,0,202,武昌区,熊熊家・卤肉饭,"114.340712,30.586558",[],114.340712,30.586558
B0HROCL2TS,B001B0I0Y9,和平街道徐东二路9号新世界百货美食城负一楼(苏拉网咖),湖北省,武汉市,餐饮服务;中餐厅;中餐厅,050100,0,202,洪山区,煌鸭煲,"114.346577,30.588216",[],114.346577,30.588216
B0IGPZEXXM,[],徐家棚街团结村福星惠誉国际城K2地块第5幢/单元2层19号房,湖北省,武汉市,餐饮服务;餐饮相关场所;餐饮相关,050000,0,[],武昌区,麻辣书生手撕鸡架(徐东店),"114.341697,30.586777",18271881020,114.341697,30.586777
B0H2DACLWB,[],徐家棚街街道友谊大道406号团结名居・桔园2号商铺(大红帽旁),湖北省,武汉市,餐饮服务;中餐厅;中餐厅,050100,0,[],武昌区,双椒拌饭+干锅鸡,"114.342019,30.586351",[],114.342019,30.586351
B0FFKHS98B,[],团结村宏茂巷王家墩37号-3号,湖北省,武汉市,餐饮服务;中餐厅;中餐厅,050100,0,[],武昌区,兄弟炒饭粉面,"114.342618,30.586397",[],114.342618,30.586397
B0H19ZKORE,B001B0J4DQ,和平街道徐东路7号1栋负1层1号商铺,湖北省,武汉市,餐饮服务;中餐厅;中餐厅,050100,0,202,洪山区,王者・麻椒摇滚鸡米饭,"114.346674,30.588251",[],114.346674,30.588251
B0H1CL36YX,B001B0J4DQ,徐东二路9号新食界美食城负一楼(徐东地铁站C1口旁),湖北省,武汉市,餐饮服务;中餐厅;中餐厅,050100,0,202,洪山区,云记粥铺(凯旋门美食城店),"114.346516,30.588316",15971469877,114.346516,30.588316
B0G12BKUG4,[],徐东宏茂巷497号(徐清公寓西门),湖北省,武汉市,餐饮服务;中餐厅;中餐厅,050100,0,[],武昌区,特色牛肉面小马哥海鲜私厨,"114.343668,30.585083",[],114.343668,30.585083
B0H06HFVYI,[],徐家棚街团结村福星惠誉国际城K2地块5栋4层14室,湖北省,武汉市,餐饮服务;中餐厅;中餐厅,050100,0,[],武昌区,疆丫头新疆炒米粉,"114.341114,30.586632",[],114.341114,30.586632
B0IDGCVIC5,[],宏茂巷与宏昌路交叉口西北60米,湖北省,武汉市,餐饮服务;中餐厅;海鲜酒楼,050119,0,[],武昌区,经典小海鲜,"114.342551,30.585881",[],114.342551,30.585881
B0FFK7WLKU,[],书城路文秀街升升公寓2楼(徐东地铁站B口步行320米),湖北省,武汉市,餐饮服务;餐饮相关场所;餐饮相关,050000,0,[],武昌区,友之缘小碗菜(户部巷店),"114.344419,30.586216",13871175723,114.344419,30.586216
B0FFKSZ779,B001B1FOMS,友谊大道504号兆丰综合楼F1,湖北省,武汉市,餐饮服务;快餐厅;快餐厅,050300,0,202,洪山区,蔡明纬(金马店),"114.345102,30.591297",18108623002,114.345102,30.591297
B0FFKS7PD8,[],宏昌路王家墩69附7号,湖北省,武汉市,餐饮服务;中餐厅;中餐厅,050100,0,[],武昌区,江先生秘制排骨,"114.343357,30.585889",18963971488,114.343357,30.585889
B0H1M91TO0,[],团结名居桔园10号门面-4号,湖北省,武汉市,餐饮服务;中餐厅;中餐厅,050100,0,[],武昌区,记忆香辣锅,"114.342970,30.586100",[],114.342970,30.586100
B0GKX9GL98,[],时尚欧洲花园8号楼1楼(徐东地铁站C2口步行310米),湖北省,武汉市,餐饮服务;餐饮相关场所;餐饮相关,050000,0,[],洪山区,裕祥烧烤,"114.347977,30.590342",[],114.347977,30.590342
B0G2X6IF5L,B0FFH40Y4U,团结南路芭莎公馆1栋4楼,湖北省,武汉市,餐饮服务;糕饼店;糕饼店,050800,1,202,武昌区,暖心烘焙吧,"114.340720,30.586070",[],114.340720,30.586070
B0HB2UWAT4,[],宏茂巷团结名居桔园北侧(徐东地铁站出入口步行340米),湖北省,武汉市,餐饮服务;餐饮相关场所;餐饮相关,050000,0,[],武昌区,伊品善鲜包,"114.342516,30.586503",[],114.342516,30.586503
B0HRF134BM,[],宏昌路徐清公寓西侧(徐东地铁站B口步行410米),湖北省,武汉市,餐饮服务;中餐厅;中餐厅,050100,0,[],武昌区,一帆烧烤餐厅,"114.343536,30.585989",[],114.343536,30.585989
B0FFIORXVM,B0FFF9IJ1C,徐家棚街街道徐东时尚欧洲花园六栋一楼七号,湖北省,武汉市,餐饮服务;餐饮相关场所;餐饮相关,050000,0,202,洪山区,头道汤特色头疗养身馆,"114.347504,30.590918",[],114.347504,30.590918
B0IB5ZHA6X,[],宏茂巷与友谊大道交叉口东南120米,湖北省,武汉市,餐饮服务;中餐厅;中餐厅,050100,0,[],武昌区,恩施腊猪蹄,"114.342055,30.587002",[],114.342055,30.587002
B0H0TRRBV6,[],宏昌路徐清公寓西侧(徐东地铁站B口步行370米),湖北省,武汉市,餐饮服务;餐饮相关场所;餐饮相关,050000,0,[],武昌区,琥哒咖啡&茶饮店,"114.343790,30.586200",[],114.343790,30.586200
B0FFM0TMKR,[],徐家棚街街道洪祥路燃气学校对面,湖北省,武汉市,餐饮服务;中餐厅;中餐厅,050100,0,[],武昌区,湘味自助盒饭,"114.344178,30.583167",[],114.344178,30.583167
B0ID6MXZGW,[],团结南路与友谊大道辅路交叉口东60米,湖北省,武汉市,餐饮服务;中餐厅;中餐厅,050100,0,[],武昌区,袋鼠星厨,"114.340425,30.586241",[],114.340425,30.586241
B0GKY7LNRV,[],宏茂巷王家墩57号,湖北省,武汉市,餐饮服务;餐饮相关场所;餐饮相关,050000,0,[],武昌区,江西瓦罐汤,"114.343016,30.585967",[],114.343016,30.585967
B001B1DDM2,[],宏茂巷1208号附近,湖北省,武汉市,餐饮服务;中餐厅;中餐厅,050100,0,[],武昌区,蔡甸新农牛肉面,"114.346859,30.584022",[],114.346859,30.584022
B0GKKAXOL7,[],武汉市武昌区徐东欧亚达商场一楼进口家居馆,湖北省,武汉市,餐饮服务;外国餐厅;外国餐厅,050200,0,[],武昌区,德国牛蛙(红星美凯龙店),"114.345272,30.587137",[],114.345272,30.587137
B0H0UOTTSR,[],宏昌路徐清公寓西侧(徐东地铁站B口步行410米),湖北省,武汉市,餐饮服务;中餐厅;中餐厅,050100,0,[],武昌区,兄弟菜馆,"114.343471,30.586059",[],114.343471,30.586059
B0FFL1FL94,[],徐东大街宏茂巷汪家墩26号,湖北省,武汉市,餐饮服务;餐饮相关场所;餐饮相关,050000,0,[],武昌区,咕咕鸭卤味坊,"114.342347,30.586418",15802700276,114.342347,30.586418
B0FFIAVEBT,B001B1FOMS,友谊大道504号兆丰综合楼F1,湖北省,武汉市,餐饮服务;中餐厅;特色/地方风味餐厅,050118,0,202,洪山区,安口李烧烤,"114.345017,30.591042",18107276786,114.345017,30.591042
B0HRV7XVVW,[],宏昌路徐清公寓(徐东地铁站B口步行240米),湖北省,武汉市,餐饮服务;中餐厅;中餐厅,050100,0,[],武昌区,峥峥小饭馆,"114.345155,30.586594",15927469076,114.345155,30.586594
B0HK655O1X,[],徐东新世界百货负一层1号商铺(徐东地铁站C1口旁),湖北省,武汉市,餐饮服务;餐饮相关场所;餐饮相关,050000,1,[],洪山区,嘻馋美食料理专门店,"114.346530,30.588259",15527092125;13163333983,114.346530,30.588259
B0IAN7JL6I,[],团结名居桔园6号-2物业办公室旁边,湖北省,武汉市,餐饮服务;餐饮相关场所;餐饮相关,050000,0,[],武昌区,江城不二龙虾.徐东店,"114.342225,30.585785",[],114.342225,30.585785
B0H1JSOQ5V,[],王家墩48号附1(徐东地铁站出入口步行410米),湖北省,武汉市,餐饮服务;中餐厅;中餐厅,050100,1,[],武昌区,七妹酸菜鱼,"114.342749,30.586141",[],114.342749,30.586141
B0HDP9KHPE,[],和平街道徐东二路9号新世界百货(徐东店),湖北省,武汉市,餐饮服务;中餐厅;火锅店,050117,0,[],洪山区,海鲜火锅・冒菜,"114.346567,30.588214",[],114.346567,30.588214
B0FFMGHXOC,[],梨园街道徐东雅园小餐饮便民服务点6号门面,湖北省,武汉市,餐饮服务;中餐厅;中餐厅,050100,0,[],武昌区,星火燎原烧烤店,"114.344614,30.586784",[],114.344614,30.586784
B0IG0S5R7F,B001B0I0Y9,新世界百货新世界美食城负一楼(徐东地铁站C1口旁),湖北省,武汉市,餐饮服务;中餐厅;中餐厅,050100,1,202,洪山区,祥客基鲍汁肥牛鸡,"114.346553,30.588247",17682305951,114.346553,30.588247
B0IA57F3AG,B001B0AH39,徐东平价广场生鲜区开心卤客,湖北省,武汉市,餐饮服务;餐饮相关场所;餐饮相关,050000,1,202,洪山区,开心卤客(徐东店),"114.345335,30.589339",18107236137,114.345335,30.589339
B0H2MZ1OZC,[],徐家棚街团结村福星惠誉国际城K2地块第5栋,湖北省,武汉市,餐饮服务;中餐厅;中餐厅,050100,1,[],武昌区,喜公子那粥那粉那些面,"114.340683,30.586325",13429821365,114.340683,30.586325
B0FFJZGWO3,[],武昌区徐家棚街团结名居桔园6号,湖北省,武汉市,餐饮服务;餐饮相关场所;餐饮相关,050000,1,[],武昌区,乡味私房菜,"114.342466,30.586048",13163232288,114.342466,30.586048
B0HRG47L57,[],徐家棚街办事处宏昌路徐清公寓旁,湖北省,武汉市,餐饮服务;中餐厅;中餐厅,050100,0,[],武昌区,老陈快餐,"114.344811,30.586520",18171301288,114.344811,30.586520
B0HR45YT6T,[],友谊大道团结南路鹏程添地汇,湖北省,武汉市,餐饮服务;中餐厅;特色/地方风味餐厅,050118,0,[],武昌区,东北饺子馆,"114.340994,30.585489",13871545899;13125024006,114.340994,30.585489
B0GR6YYYC9,[],团结名居桔园9号门面1层-1号,湖北省,武汉市,餐饮服务;餐饮相关场所;餐饮相关,050000,0,[],武昌区,新疆马乙沙格烤肉(8号店),"114.342328,30.586224",18140666467;18693107170,114.342328,30.586224
B0FFLH63LA,[],宏茂巷徐清公寓(徐东地铁站B口步行440米),湖北省,武汉市,餐饮服务;中餐厅;四川菜(川菜),050102,0,[],武昌区,七里湘川湘菜,"114.343267,30.585831",[],114.343267,30.585831
B0FFFOXN21,[],徐东一路华天大酒店对面,湖北省,武汉市,餐饮服务;餐饮相关场所;餐饮相关,050000,0,[],洪山区,好礼客(杨园南路店),"114.346187,30.589434",18627151613,114.346187,30.589434
B0FFKTU4DJ,B001B0IIVV,徐东大街18号B1层(徐东地铁站出入口步行100米),湖北省,武汉市,餐饮服务;餐饮相关场所;餐饮相关,050000,0,202,武昌区,幸福cake,"114.343199,30.588169",15827133575,114.343199,30.588169
B0FFKTSPO6,[],友谊大道辅路与徐东大街交叉口南160米,湖北省,武汉市,餐饮服务;咖啡厅;咖啡厅,050500,0,[],武昌区,瑞辛咖啡,"114.343369,30.588381",[],114.343369,30.588381
B0FFHRBI38,[],团结路佳馨花园二期旁,湖北省,武汉市,餐饮服务;中餐厅;四川菜(川菜),050102,0,[],武昌区,重庆食府(团结路店),"114.339030,30.587241",13554237605;13657265276,114.339030,30.587241
B0FFKVZTMV,B001B0AH39,徐东大街与友谊大道辅路交叉口东约120米,湖北省,武汉市,餐饮服务;中餐厅;中餐厅,050100,0,202,洪山区,哦哦海鲜体验馆,"114.345189,30.589930",[],114.345189,30.589930
B0FFFPQ36W,B001B0J4DQ,徐东大街徐东一路7号华天大酒店4层,湖北省,武汉市,餐饮服务;中餐厅;中餐厅,050100,0,202,洪山区,华天大酒店(餐饮部),"114.346639,30.589215",027-86728888,114.346639,30.589215
B0FFHJB406,[],徐家棚街办事处宏昌路华中古玩第一街,湖北省,武汉市,餐饮服务;中餐厅;四川菜(川菜),050102,0,[],武昌区,重庆乐福牛骨头面馆,"114.343218,30.585826",[],114.343218,30.585826
B001B1IPLP,[],王家墩42号(徐东地铁站出入口步行400米),湖北省,武汉市,餐饮服务;中餐厅;中餐厅,050100,0,[],武昌区,叮当煲(宏昌路店),"114.342714,30.586245",13006319112,114.342714,30.586245
B0FFG7SPY9,[],宏昌路徐清公寓西侧,湖北省,武汉市,餐饮服务;中餐厅;中餐厅,050100,0,[],武昌区,正宗黄焖鸡米饭,"114.343397,30.585904",15827094667,114.343397,30.585904
B0FFKXVAKZ,[],团结名居桔园对面老韩煸鸡,湖北省,武汉市,餐饮服务;餐饮相关场所;餐饮相关,050000,0,[],武昌区,老韩煸鸡(王家墩店),"114.342881,30.586153",15172324565,114.342881,30.586153
B0FFHEDPTE,[],友谊大道团结村路团结名居桔园4单元8层,湖北省,武汉市,餐饮服务;茶艺馆;茶艺馆|体育休闲服务;体育休闲服务场所;体育休闲服务场所,050600|080000,1,[],武昌区,玄壶棋牌,"114.342157,30.586263",027-86709918;13397173486,114.342157,30.586263
B0FFLNK442,B001B1AS1B,徐家棚街团结村福星惠誉国际城K2地块第5幢/单元4层8号房,湖北省,武汉市,餐饮服务;外国餐厅;韩国料理,050203,0,202,武昌区,KingCock韩式炸鸡(湖大店),"114.340991,30.586352",18707182815,114.340991,30.586352
B0HDXZ84QS,B001B09NPE,徐东古玩城唬哒咖啡,湖北省,武汉市,餐饮服务;咖啡厅;咖啡厅,050500,1,202,武昌区,HOODA唬哒咖啡,"114.343868,30.586132",18995542552,114.343868,30.586132
B0FFGCBFD6,[],宏昌路21号(恒源超市旁),湖北省,武汉市,餐饮服务;中餐厅;特色/地方风味餐厅,050118,0,[],武昌区,瑞丰私房菜馆(古玩城店),"114.343104,30.585772",13307153083,114.343104,30.585772
B0HDOM7B5T,[],徐东大街120号,湖北省,武汉市,餐饮服务;中餐厅;中餐厅,050100,0,[],洪山区,巴比包子,"114.346197,30.589379",15107138219,114.346197,30.589379
B0HRJSLUKJ,[],宏茂巷13号团结名居竹园,湖北省,武汉市,餐饮服务;中餐厅;中餐厅,050100,1,[],武昌区,老成都锦鲤冷锅鱼,"114.344372,30.584232",17702790339,114.344372,30.584232
B0FFIG9XST,[],徐家棚街街道宏茂巷团结名居桔园小区对面,湖北省,武汉市,餐饮服务;餐饮相关场所;餐饮相关,050000,0,[],武昌区,遇见小面(宏昌路店),"114.342896,30.585987",15923810147,114.342896,30.585987
B0FFG073OZ,[],徐家棚街办事处宏祥路武汉燃气热力学校斜对面,湖北省,武汉市,餐饮服务;中餐厅;中餐厅,050100,0,[],武昌区,味聚福私房菜馆,"114.344134,30.583139",027-88773669;13477097902,114.344134,30.583139
B0G01OTX6M,[],宏昌路王家墩69号附8号,湖北省,武汉市,餐饮服务;餐饮相关场所;餐饮相关,050000,1,[],武昌区,江记桂花米糕坊,"114.343159,30.585781",17764191431;15377076301,114.343159,30.585781
B0FFGZJQX0,[],徐东一路时尚欧洲7栋(徐东地铁站C2口步行250米),湖北省,武汉市,餐饮服务;中餐厅;中餐厅,050100,1,[],洪山区,泰来烧烤,"114.347423,30.590098",15802708053,114.347423,30.590098
B0G23RCFHC,B001B1AS1B,徐家棚街团结村福星惠誉国际城K2地块第5幢/单元3层11号房,湖北省,武汉市,餐饮服务;中餐厅;中餐厅,050100,0,202,武昌区,肴可及脆皮鸡烤肉饭(福客茂店),"114.341162,30.586380",18986291304,114.341162,30.586380
B0FFIWEBRU,B001B0I0Y9,徐东大街7号新世界百货F3(徐东地铁站H2口旁),湖北省,武汉市,餐饮服务;餐饮相关场所;餐饮相关,050000,0,202,洪山区,6号包间(新世界百货),"114.347209,30.588425",[],114.347209,30.588425
B0FFFL3WQJ,B001B0J4DQ,徐东大街7号华天大酒店(徐东地铁站C2口步行170米),湖北省,武汉市,餐饮服务;中餐厅;中餐厅,050100,0,202,洪山区,华天大酒店(凯旋厅),"114.346793,30.589262",[],114.346793,30.589262
B0FFHEZMWP,[],佳馨花园2期,湖北省,武汉市,餐饮服务;中餐厅;火锅店,050117,0,[],武昌区,三鼎老火锅(合棠悦店),"114.339065,30.586581",13986149462,114.339065,30.586581
B001B09I9O,[],团结村王家墩19号,湖北省,武汉市,餐饮服务;中餐厅;中餐厅,050100,0,[],武昌区,旺角烧菜馆,"114.342513,30.586540",13886162605,114.342513,30.586540
