id,address,pname,cityname,type,adname,name,location,lng,lat
B001B0JYXS,东湖路160号,湖北省,武汉市,科教文化服务;博物馆;博物馆,武昌区,湖北省博物馆,"114.365445,30.561501",114.365445,30.561501
B001B065B6,青年路373号,湖北省,武汉市,科教文化服务;博物馆;博物馆,江汉区,武汉博物馆,"114.256463,30.611407",114.256463,30.611407
B001B0B59E,沿江大道162号,湖北省,武汉市,科教文化服务;博物馆;博物馆,江岸区,黎黄陂路街头博物馆,"114.302226,30.586444",114.302226,30.586444
B001B0K94E,金口街道,湖北省,武汉市,科教文化服务;博物馆;博物馆,江夏区,中山舰博物馆,"114.134269,30.345277",114.134269,30.345277
B001B08BC3,沿江大道129号,湖北省,武汉市,科教文化服务;博物馆;博物馆,江汉区,江汉关博物馆,"114.297308,30.576075",114.297308,30.576075
B001B09T0W,鲁磨路388号中国地质大学,湖北省,武汉市,科教文化服务;博物馆;博物馆,洪山区,中国地质大学逸夫博物馆,"114.400470,30.517554",114.40047,30.517554
B001B0J00B,红巷13号,湖北省,武汉市,科教文化服务;博物馆;博物馆,武昌区,武汉革命博物馆,"114.300394,30.553690",114.300394,30.55369
B001B0IR2X,东湖南路中科院水生所内,湖北省,武汉市,科教文化服务;博物馆;博物馆,武昌区,水生生物博物馆,"114.355885,30.544913",114.355885,30.544913
B001B08VKZ,利济北路250附4号(利济北路地铁站D口步行460米),湖北省,武汉市,科教文化服务;博物馆;博物馆,江汉区,湖北地质博物馆,"114.267554,30.579250",114.267554,30.57925
B001B0IZF3,博物大道107号,湖北省,武汉市,科教文化服务;博物馆;博物馆,新洲区,新洲博物馆,"114.819153,30.844609",114.819153,30.844609
B001B0ISX5,民院路5号中南民族大学内,湖北省,武汉市,科教文化服务;博物馆;博物馆,洪山区,中南民族大学民族学博物馆,"114.389537,30.482683",114.389537,30.482683
B001B0ILUM,冶金大道30号,湖北省,武汉市,科教文化服务;博物馆;博物馆,青山区,中国武钢博物馆,"114.405588,30.630008",114.405588,30.630008
B0FFHRIKW7,中山大道江汉路永康里(江汉路地铁站G口步行160米),湖北省,武汉市,科教文化服务;博物馆;博物馆,江汉区,永康里街头博物馆,"114.289583,30.577993",114.289583,30.577993
B0FFGL4BBE,中南一路3号中南天紫广场a馆,湖北省,武汉市,科教文化服务;博物馆;博物馆,武昌区,武汉精益眼镜博物馆,"114.332693,30.537938",114.332693,30.537938
B001B1ASO3,鸿翔巷1号,湖北省,武汉市,科教文化服务;博物馆;博物馆,武昌区,武汉道一堂中医药博物馆,"114.295071,30.547607",114.295071,30.547607
B0FFHW7AFB,红巷红巷艺术城,湖北省,武汉市,科教文化服务;博物馆;博物馆,武昌区,象牙博物馆,"114.299455,30.554141",114.299455,30.554141
B001B0JKKB,演武路1号,湖北省,武汉市,科教文化服务;博物馆;博物馆,黄陂区,湖北明清古建筑博物馆,"114.476518,31.091584",114.476518,31.091584
B0FFF2I9TA,江欣苑1期西北门西南50米,湖北省,武汉市,科教文化服务;博物馆;博物馆,汉阳区,武汉汉绣博物馆,"114.246232,30.530426",114.246232,30.530426
B0FFFFP4LI,志芳公街,湖北省,武汉市,科教文化服务;博物馆;博物馆,黄陂区,黄花涝文博馆,"114.194744,30.719824",114.194744,30.719824
B001B1IJ6K,狮子山街1号华中农业大学,湖北省,武汉市,科教文化服务;博物馆;博物馆,洪山区,华中农业大学博物馆,"114.357252,30.475831",114.357252,30.475831
B0FFFLJDMC,大兴一路9号,湖北省,武汉市,科教文化服务;博物馆;博物馆,江汉区,中华龙文化博物馆,"114.291254,30.567379",114.291254,30.567379
B001B170AY,彭刘杨路258号,湖北省,武汉市,科教文化服务;博物馆;博物馆,武昌区,辛亥革命博物馆(暂停营业),"114.305369,30.537061",114.305369,30.537061
B001B0JKKA,演武街(木兰湖),湖北省,武汉市,科教文化服务;博物馆;博物馆,黄陂区,湖北明代藩王博物馆,"114.474584,31.092084",114.474584,31.092084
B0FFHGY5DY,昙华林188号(螃蟹岬地铁站E口步行330米),湖北省,武汉市,科教文化服务;博物馆;博物馆,武昌区,翟雅阁博物馆,"114.314654,30.550523",114.314654,30.550523
B001B1ASK5,白玉山严西湖畔张公山寨度假山庄,湖北省,武汉市,科教文化服务;博物馆;博物馆,青山区,张公山寨古建民俗文化博物馆,"114.503932,30.588812",114.503932,30.588812
B0FFG4I7QW,珞瑜路35号珞珈创意体验城,湖北省,武汉市,科教文化服务;博物馆;博物馆,洪山区,糖果达令,"114.356513,30.526502",114.356513,30.526502
B0FFHCV6YM,余岭村余家湾特1号,湖北省,武汉市,科教文化服务;博物馆;博物馆,江夏区,武汉长庭陶瓷博物馆,"114.207859,30.376262",114.207859,30.376262
B0FFLO9H4U,江汉路花楼街宝丽金B1座2楼,湖北省,武汉市,科教文化服务;博物馆;博物馆,江汉区,武汉爱情博物馆,"114.292397,30.577639",114.292397,30.577639
B0FFFLJTW8,合作路22号,湖北省,武汉市,科教文化服务;博物馆;博物馆,江岸区,湖北省电力博物馆,"114.298808,30.585176",114.298808,30.585176
B0GRHMR4H4,青岛路多牛世界(平和打包厂)A座1层商6,湖北省,武汉市,科教文化服务;博物馆;博物馆,江岸区,纽设设计,"114.297235,30.583014",114.297235,30.583014
B0GUN5IPMT,南京路115附1号(循礼门地铁站H口步行210米),湖北省,武汉市,科教文化服务;博物馆;博物馆,江岸区,造物公园,"114.289203,30.585145",114.289203,30.585145
B0G2H5ODRB,高雄路8号203室,湖北省,武汉市,科教文化服务;博物馆;博物馆,江岸区,LAP画廊,"114.287443,30.593626",114.287443,30.593626
B0FFLEZRVC,淮海路红领巾学校旁泛海生活广场4楼1号商铺,湖北省,武汉市,科教文化服务;博物馆;博物馆,江汉区,艺舒文艺画馆,"114.236842,30.602081",114.236842,30.602081
B0FFGILBVK,生物园东路与神墩四路交叉口西北80米,湖北省,武汉市,科教文化服务;博物馆;博物馆,江夏区,酶法多肽博物馆,"114.544517,30.478840",114.544517,30.47884
B0HDD69GTZ,武汉市第十四中学西南2门东90米,湖北省,武汉市,科教文化服务;博物馆;博物馆,武昌区,昙华林近代教育博物馆,"114.313222,30.551362",114.313222,30.551362
B001B15S3V,丰硕路28号武汉新工厂高新技术产业园16栋,湖北省,武汉市,科教文化服务;博物馆;博物馆,~口区,~口民族工业博物馆,"114.191515,30.606618",114.191515,30.606618
B0H6XAWEI1,和平大道589号(长江二桥下)四美塘公园,湖北省,武汉市,科教文化服务;博物馆;博物馆,武昌区,武汉凡氏老相机博物馆,"114.335292,30.594391",114.335292,30.594391
B0FFK6E18N,石门峰纪念公园,湖北省,武汉市,科教文化服务;博物馆;博物馆,洪山区,石门峰博物馆(装修中),"114.477198,30.515327",114.477198,30.515327
B0FFF34SA2,开屏里67号楼66号,湖北省,武汉市,科教文化服务;博物馆;博物馆,东西湖区,武汉三尤酒瓶博物馆(建设中),"114.148645,30.619158",114.148645,30.619158
B0FFL213P6,书博东路,湖北省,武汉市,科教文化服务;博物馆;博物馆,江夏区,长江书法博物院,"114.519739,30.507348",114.519739,30.507348
B0IRUH3W2Y,武珞路1号,湖北省,武汉市,科教文化服务;博物馆;博物馆,武昌区,辛亥革命博物院北区,"114.306349,30.542126",114.306349,30.542126
B0I6JM0IHE,武昌路与黄鹤楼东路交叉口西北120米,湖北省,武汉市,科教文化服务;博物馆;博物馆,武昌区,辛亥革命博物院(筹),"114.306354,30.542132",114.306354,30.542132
B001B0HZQH,胜景大道54号,湖北省,武汉市,科教文化服务;博物馆;博物馆,黄陂区,木兰山地质博物馆,"114.389055,31.098031",114.389055,31.098031
B0FFHCWQGI,一元街办事处沿江大道粤汉码头江滩内,湖北省,武汉市,科教文化服务;博物馆;博物馆,江岸区,横渡长江博物馆,"114.307427,30.590795",114.307427,30.590795
B0FFLQ1D30,永丰街三眼桥社区董湾,湖北省,武汉市,科教文化服务;博物馆;博物馆,汉阳区,易家人,"114.153127,30.555487",114.153127,30.555487
B0HANLNAKU,珞喻路152号华中师范大学文科综合楼1期2层,湖北省,武汉市,科教文化服务;博物馆;博物馆,洪山区,华中师范大学博物馆,"114.358246,30.520747",114.358246,30.520747
B0HATMX5CN,紫阳湖公园紫阳阁1-2层,湖北省,武汉市,科教文化服务;博物馆;博物馆,武昌区,汉剧博物馆,"114.305055,30.530727",114.305055,30.530727
B0IROA0X3K,车城北路与科技园西路交叉口东南20米,湖北省,武汉市,科教文化服务;博物馆;博物馆,蔡甸区,博物馆,"114.183874,30.494460",114.183874,30.49446
B0FFKUFC4E,武汉抗战纪念馆东北侧160米,湖北省,武汉市,科教文化服务;博物馆;博物馆,洪山区,圆满人生博物馆,"114.482015,30.514973",114.482015,30.514973
B0H3ZUDTDY,武汉轻工大学金银湖校区,湖北省,武汉市,科教文化服务;博物馆;博物馆,东西湖区,中国油脂博物馆,"114.220481,30.652264",114.220481,30.652264
B0H1K52HII,红巷与北城角交叉口东约20米,湖北省,武汉市,科教文化服务;博物馆;博物馆,武昌区,户部巷博物馆,"114.299064,30.553730",114.299064,30.55373
B0G2X9PY5W,阳光100大湖第80栋102号,湖北省,武汉市,科教文化服务;博物馆;博物馆,江夏区,军恋博物馆(武汉),"114.410513,30.397707",114.410513,30.397707
B0HAAS5TKG,汉阳大街老区政府大院,湖北省,武汉市,科教文化服务;博物馆;博物馆,蔡甸区,蔡甸区博物馆,"114.029251,30.582584",114.029251,30.582584
B0IGTHGNPJ,玉贤街道窑咀村西湖印象3号,湖北省,武汉市,科教文化服务;博物馆;博物馆,蔡甸区,江城紫砂艺术馆,"113.966445,30.512858",113.966445,30.512858
B0IU6M8F79,武汉桃源集亲子小镇(西北角),湖北省,武汉市,科教文化服务;博物馆;博物馆,黄陂区,桃源集儿童博物馆,"114.320291,30.746429",114.320291,30.746429
B0I6OR7X85,解放大道348号(太平洋地铁站C口步行470米),湖北省,武汉市,科教文化服务;博物馆;博物馆,~口区,武汉牙齿博物馆,"114.243752,30.575230",114.243752,30.57523
B0H1N59ABG,珞瑜路409号美尔雅大厦布里斯班阳光酒店11层,湖北省,武汉市,科教文化服务;博物馆;博物馆,洪山区,武汉槐川博物馆,"114.373329,30.518634",114.373329,30.518634
B0GKCYTD43,虎泉生活广场欧亚达C28,湖北省,武汉市,科教文化服务;博物馆;博物馆,洪山区,润悦宝居,"114.370336,30.517885",114.370336,30.517885
B0H2XSG3UP,金龙水寨生态乐园内,湖北省,武汉市,科教文化服务;博物馆;博物馆,蔡甸区,蔡甸莲藕博物馆,"113.927413,30.538619",113.927413,30.538619
B0I3678W2V,东西湖文化中心博物馆科技馆1层,湖北省,武汉市,科教文化服务;博物馆;博物馆,东西湖区,武汉天人合一奇石博物馆,"114.135899,30.641796",114.135899,30.641796
B0FFIVFM7M,[],湖北省,武汉市,风景名胜;风景名胜;纪念馆|科教文化服务;博物馆;博物馆,江岸区,詹天佑故居,"114.299357,30.585126",114.299357,30.585126
B0FFHXWRAE,郑店街联合村涂家咀,湖北省,武汉市,科教文化服务;博物馆;博物馆,江夏区,武汉金楠雅苑金丝楠木博物馆,"114.234785,30.319973",114.234785,30.319973
B0FFMGY1RJ,光谷四路与玉合巷交叉口东100米,湖北省,武汉市,科教文化服务;博物馆;博物馆,洪山区,光谷教育发展研究院,"114.486313,30.504116",114.486313,30.504116
B0FFFPIWL3,省博湖北日报地铁站D口步行240米,湖北省,武汉市,科教文化服务;博物馆;博物馆,武昌区,湖北省博物馆(入口),"114.364525,30.563145",114.364525,30.563145
B0FFFGUHDI,经济开发区藏龙岛办事处栗庙路6号,湖北省,武汉市,科教文化服务;博物馆;博物馆,江夏区,藏龙博物馆,"114.423310,30.392927",114.42331,30.392927
B0H6XYU77Y,北华街29号(北华街地铁站B口步行410米),湖北省,武汉市,科教文化服务;博物馆;博物馆,江夏区,中国体育彩票,"114.321736,30.357091",114.321736,30.357091
B0FFGQ26IG,东湖新技术开发区光谷大道69号,湖北省,武汉市,科教文化服务;博物馆;博物馆,江夏区,武汉地质调查中心龙化石博物馆,"114.421912,30.458851",114.421912,30.458851
B0HR9C6E84,惠济路3号文华教育大厦F1层,湖北省,武汉市,科教文化服务;博物馆;博物馆,江岸区,度・世界精酿啤酒博物馆(汉口店),"114.286603,30.605281",114.286603,30.605281
B0H3MM9H5F,五贤南路华中文谷,湖北省,武汉市,科教文化服务;博物馆;博物馆,蔡甸区,没有共产党就没有新中国百年报刊馆,"114.079657,30.540264",114.079657,30.540264
B0FFGCBGG1,琴台大道169号,湖北省,武汉市,科教文化服务;博物馆;博物馆,汉阳区,张之洞与武汉博物馆,"114.242916,30.559381",114.242916,30.559381
B0FFHG2UFY,滨江大道江滩17号,湖北省,武汉市,科教文化服务;博物馆;博物馆,汉阳区,竹韵堂竹雕博物馆,"114.283213,30.553343",114.283213,30.553343
B0FFLO0T8T,红巷艺术馆B区二楼205,湖北省,武汉市,科教文化服务;博物馆;博物馆,武昌区,妲艺堂(徐清公寓 店),"114.344828,30.585498",114.344828,30.585498
B001B1ASIC,大南街172号,湖北省,武汉市,科教文化服务;博物馆;博物馆,黄陂区,武汉市黄陂区博物馆,"114.380477,30.872523",114.380477,30.872523
B0FFGK0Z59,江汉经济开发区园博园东门汉口里小镇5-2-1,湖北省,武汉市,科教文化服务;博物馆;博物馆,~口区,长江非遗博物馆,"114.225044,30.621089",114.225044,30.621089
B0HRYZGRA8,中心百货2304(江汉路地铁站E口步行250米),湖北省,武汉市,科教文化服务;博物馆;博物馆,江汉区,时印书店,"114.289724,30.581682",114.289724,30.581682
B0FFF3YWVH,江堤街办事处江堤中路江欣苑一期,湖北省,武汉市,科教文化服务;博物馆;博物馆,汉阳区,高龙博物馆,"114.247824,30.529773",114.247824,30.529773
B0FFF6Z1MO,南湖大道182号中南财经政法大学南湖校区图书馆2层,湖北省,武汉市,科教文化服务;博物馆;博物馆,江夏区,中南财经政法大学中国货币金融历史博物馆,"114.38509,30.473851",114.38509,30.473851
B0FFH2EMWU,汉口北大道汉口北国际商品交易中心中心区广场,湖北省,武汉市,科教文化服务;博物馆;博物馆,黄陂区,汉口商业博物馆,"114.324958,30.706600",114.324958,30.7066
B0FFGBG28H,园博园东路汉口里2-3-1号,湖北省,武汉市,科教文化服务;博物馆;博物馆,~口区,参差咖啡博物馆,"114.224733,30.619622",114.224733,30.619622
B0FFHMVMZS,武汉航天城西北门旁,湖北省,武汉市,科教文化服务;博物馆;博物馆,~口区,武汉中部兰亭艺术博物馆,"114.196892,30.607980",114.196892,30.60798
B001B1C2P4,东湖开发区关山一路sbi创业街9栋,湖北省,武汉市,科教文化服务;博物馆;博物馆,洪山区,科技企业孵化器博物馆,"114.415901,30.500406",114.415901,30.500406
B0FFFAKTKY,知音大道琴台大剧院1层东2门,湖北省,武汉市,科教文化服务;博物馆;博物馆,汉阳区,琴台钢琴博物馆,"114.259820,30.560497",114.25982,30.560497
B001B16Q3J,洗马长街86号,湖北省,武汉市,科教文化服务;博物馆;博物馆,汉阳区,武汉大禹文化博物馆,"114.284632,30.55568",114.284632,30.55568
B0I2F5N3TW,临空港大道418号,湖北省,武汉市,科教文化服务;博物馆;博物馆,东西湖区,临空港博物馆,"114.135894,30.641803",114.135894,30.641803
B0FFGCDVU7,建设七路1附16号附近,湖北省,武汉市,科教文化服务;博物馆;博物馆,青山区,刘士标剪纸艺术博物馆,"114.396996,30.642762",114.396996,30.642762
B0FFH9DEGD,东湖生态旅游风景区东湖东路8号东湖阳光院内东湖艺术馆一楼,湖北省,武汉市,科教文化服务;博物馆;博物馆,洪山区,东湖艺术馆(禅茶一味),"114.386408,30.533267",114.386408,30.533267
B0FFGL04EB,鲁磨路388号中国地质大学内,湖北省,武汉市,科教文化服务;博物馆;博物馆,洪山区,恐龙化石展厅,"114.400621,30.517662",114.400621,30.517662
B0FFG2BAER,东湖路与黄鹂路辅路交叉口东南220米,湖北省,武汉市,科教文化服务;博物馆;博物馆,武昌区,郧阳区人头骨化石,"114.365261,30.561638",114.365261,30.561638
B0FFG26J6Q,东湖路160号湖北省博物馆综合展馆内,湖北省,武汉市,科教文化服务;博物馆;博物馆,武昌区,湖北省博物馆综合展馆-讲解服务联系处,"114.365485,30.561453",114.365485,30.561453
B02CD001D0,南岗路50号,湖北省,宜昌市,科教文化服务;博物馆;博物馆,枝江市,枝江博物馆,"111.736889,30.424025",111.736889,30.424025
B0FFGPXUS6,柏临河路,湖北省,宜昌市,科教文化服务;博物馆;博物馆,伍家岗区,宜昌博物馆,"111.380484,30.633692",111.380484,30.633692
B0FFFDIEHP,锦江东路与锦江西路交汇处西南150米,湖北省,宜昌市,科教文化服务;博物馆;博物馆,夷陵区,宜昌市夷陵区博物馆,"111.300550,30.769117",111.30055,30.769117
B0IAVYD058,348国道与土三路交叉口北320米,湖北省,宜昌市,科教文化服务;博物馆;博物馆,夷陵区,三峡工程博物馆,"111.024928,30.809672",111.024928,30.809672
B0H3SUK50P,古老背社区镇中巷72号,湖北省,宜昌市,科教文化服务;博物馆;博物馆,V亭区,华夏票证博物馆,"111.417334,30.530398",111.417334,30.530398
B0FFIYJSC9,106乡道与004乡道交叉口东南100米,湖北省,宜昌市,科教文化服务;博物馆;博物馆,夷陵区,中国三峡柑橘博物馆,"111.431070,30.781958",111.43107,30.781958
B02CD0QCZK,鸣凤山巷1号,湖北省,宜昌市,科教文化服务;博物馆;博物馆,远安县,远安地质博物馆,"111.631930,31.056480",111.63193,31.05648
B0FFIRVR31,车溪民俗风景区,湖北省,宜昌市,科教文化服务;博物馆;博物馆,点军区,水车博物馆,"111.055461,30.671729",111.055461,30.671729
B0FFMF5ESA,茅坪镇滨湖路(屈原故里集散中心附近),湖北省,宜昌市,科教文化服务;博物馆;博物馆,秭归县,秭归博物馆,"110.987277,30.823683",110.987277,30.823683
B0GKP50029,龙舟路与滨湖路交叉口东北140米,湖北省,宜昌市,科教文化服务;博物馆;博物馆,秭归县,三峡移民博物馆,"110.978505,30.840622",110.978505,30.840622
B0FFKPDKTE,东正街建材市场B区,湖北省,宜昌市,科教文化服务;博物馆;博物馆,宜都市,忆古园收藏,"111.468423,30.397908",111.468423,30.397908
B0H3H5YL7N,下街与小河桥路交叉口西100米,湖北省,宜昌市,科教文化服务;博物馆;博物馆,当阳市,清溪民俗博物馆,"111.931320,30.916480",111.93132,30.91648
B0I07SIEAD,凤仪路1号附2号,湖北省,宜昌市,科教文化服务;博物馆;博物馆,远安县,远安县博物馆,"111.644600,31.052144",111.6446,31.052144
B0FFL6MCJL,金缸城村1组68号,湖北省,宜昌市,科教文化服务;博物馆;博物馆,秭归县,秭归县民俗文化家庭博物馆,"110.961400,30.824311",110.9614,30.824311
B0IDLMSJ8H,[],湖北省,宜昌市,科教文化服务;博物馆;博物馆,长阳土家族自治县,欧美珙桐原产地乐园博物馆,"110.508015,30.515149",110.508015,30.515149
B02CD03Z7X,龙舟坪镇秋潭路1号,湖北省,宜昌市,科教文化服务;博物馆;博物馆,长阳土家族自治县,长阳博物馆,"111.208997,30.474053",111.208997,30.474053
B0FFH1J8DV,东西路19-1号,湖北省,宜昌市,科教文化服务;博物馆;博物馆,五峰土家族自治县,五峰国家地质公园博物馆,"111.076996,30.168776",111.076996,30.168776
B0FFI00SOM,归州街与滨湖路交叉口西北50米,湖北省,宜昌市,科教文化服务;博物馆;博物馆,秭归县,天晟艺术馆,"110.985178,30.826939",110.985178,30.826939
B0FFLK3QY8,孝感市文化中心C座,湖北省,孝感市,科教文化服务;博物馆;博物馆,孝南区,孝感市博物馆(新馆),"113.957655,30.914978",113.957655,30.914978
B02C80O03I,航空路223号,湖北省,孝感市,科教文化服务;博物馆;博物馆,孝南区,孝感麻糖米酒博物馆,"113.908651,30.961559",113.908651,30.961559
B02C801JS2,北京路592号,湖北省,孝感市,科教文化服务;博物馆;博物馆,孝昌县,孝昌县博物馆,"113.985823,31.256744",113.985823,31.256744
B02C80N9OT,龙岗大道1号,湖北省,孝感市,科教文化服务;博物馆;博物馆,云梦县,湖北省博物馆云梦分馆,"113.773711,31.019494",113.773711,31.019494
B02C80NACE,阳平镇城关镇河东广场后巷2号,湖北省,孝感市,科教文化服务;博物馆;博物馆,大悟县,大悟县革命历史博物馆,"114.135254,31.561239",114.135254,31.561239
B02C80NI84,解放大道208号,湖北省,孝感市,科教文化服务;博物馆;博物馆,安陆市,安陆市博物馆,"113.673849,31.266065",113.673849,31.266065
B02C60PBHR,北街1号,湖北省,襄阳市,科教文化服务;博物馆;博物馆,襄城区,襄阳博物馆,"112.151362,32.018285",112.151362,32.018285
B0FFKG306A,303省道东150米,湖北省,襄阳市,科教文化服务;博物馆;博物馆,襄城区,中国山药文化博物馆,"112.008914,32.029228",112.008914,32.029228
B0FFLKM6R5,湖北江山重工有限责任公司,湖北省,襄阳市,科教文化服务;博物馆;博物馆,襄州区,襄阳高新区军工博物馆,"112.178228,32.139557",112.178228,32.139557
B0FFKQLSAL,前进路口泰安路15号,湖北省,襄阳市,科教文化服务;博物馆;博物馆,樊城区,一飞收藏,"112.152282,32.055080",112.152282,32.05508
B0GUDSPXLA,鱼梁洲浩然路十一号,湖北省,襄阳市,科教文化服务;博物馆;博物馆,襄城区,红色记忆馆,"112.192523,32.049209",112.192523,32.049209
B0HRABLWCZ,解放路与桥北东路辅路交叉口西北160米,湖北省,襄阳市,科教文化服务;博物馆;博物馆,樊城区,襄阳市襄州区博物馆,"112.151398,32.037652",112.151398,32.037652
B0G1RMYI01,古驿镇外沟村小学东南门旁,湖北省,襄阳市,科教文化服务;博物馆;博物馆,襄州区,皮影戏博物馆,"112.234899,32.238405",112.234899,32.238405
B0FFF3AVVQ,胜利街,湖北省,襄阳市,科教文化服务;博物馆;博物馆,襄城区,襄阳市博物馆(建设中),"112.168765,31.992390",112.168765,31.99239
B0I25CFQ0W,襄阳昭明台4层,湖北省,襄阳市,科教文化服务;博物馆;博物馆,襄城区,兰凤戏曲艺术博物馆,"112.151405,32.018265",112.151405,32.018265
B0FFL5IPBY,泰安路15号古玩交流中心,湖北省,襄阳市,科教文化服务;博物馆;博物馆,樊城区,聚雅堂民俗文化馆,"112.151260,32.051506",112.15126,32.051506
B0HKA5L1Q5,襄城南街谯楼,湖北省,襄阳市,科教文化服务;博物馆;博物馆,襄城区,贞元博物馆,"112.155153,32.012662",112.155153,32.012662
B0FFLJGWBI,湖北文理学院理工学院尹集东街8号,湖北省,襄阳市,科教文化服务;博物馆;博物馆,襄城区,森心话(情感树洞),"112.083010,31.946159",112.08301,31.946159
B0FFK73ROT,城东大道29号湖北真真生物科技有限公司内,湖北省,襄阳市,科教文化服务;博物馆;博物馆,老河口市,酱醋博物馆,"111.693100,32.356332",111.6931,32.356332
B0FFFDMQH7,宜城大道9号,湖北省,襄阳市,科教文化服务;博物馆;博物馆,宜城市,宜城博物馆,"112.260616,31.720886",112.260616,31.720886
B0FFFGZHQ6,马桥镇尧治河村,湖北省,襄阳市,科教文化服务;博物馆;博物馆,保康县,中国磷矿博物馆,"110.806729,31.843951",110.806729,31.843951
B0FFKHEHIR,经济开业区名泰大道6号,湖北省,襄阳市,科教文化服务;博物馆;博物馆,南漳县,楚国桑蚕丝绸博物馆,"111.904567,31.800284",111.904567,31.800284
B0G237EFPR,老丹路与洪山路交叉口东北380米,湖北省,襄阳市,科教文化服务;博物馆;博物馆,老河口市,汉江奇石博物馆,"111.692407,32.420891",111.692407,32.420891
B0HD6SBPAK,328国道(孟土路)竹林桥镇温岗村孟沟桥头,湖北省,襄阳市,科教文化服务;博物馆;博物馆,老河口市,丹渠博物馆,"111.792848,32.479143",111.792848,32.479143
B0HR2CU9OU,李家染坊村X044,湖北省,襄阳市,科教文化服务;博物馆;博物馆,老河口市,老爷车博物馆,"111.774435,32.275181",111.774435,32.275181
B0I64SY7U3,石花镇凉水井村,湖北省,襄阳市,科教文化服务;博物馆;博物馆,谷城县,谷城县崇朴文博馆,"111.453530,32.280292",111.45353,32.280292
B02C60QH6O,韦家巷附近,湖北省,襄阳市,科教文化服务;博物馆;博物馆,枣阳市,枣阳市博物馆,"112.762380,32.130966",112.76238,32.130966
B02C60QEAL,中码头街9号,湖北省,襄阳市,科教文化服务;博物馆;博物馆,谷城县,谷城县博物馆,"111.655101,32.261167",111.655101,32.261167
B02C60QEBC,北京路288号,湖北省,襄阳市,科教文化服务;博物馆;博物馆,老河口市,老河口市博物馆,"111.680930,32.389065",111.68093,32.389065
B0FFG7KQRY,[],湖北省,襄阳市,科教文化服务;博物馆;博物馆,谷城县,农家博物馆,"111.472138,32.099414",111.472138,32.099414
B0FFKG9R4B,沿堤街173号,湖北省,襄阳市,科教文化服务;博物馆;博物馆,宜城市,襄阳宝耕民间艺术馆,"112.268731,31.706260",112.268731,31.70626
B02CB01HUI,[],咸宁市博物馆,科教文化服务;博物馆;博物馆,140100,湖北省,咸宁市,咸安区,114.317216,29.858759
B02CB002MG,[],赤壁市博物馆,科教文化服务;博物馆;博物馆,140100,湖北省,咸宁市,赤壁市,113.896055,29.717575
B0GD5H3VEB,[],恒大养生谷博物馆,科教文化服务;博物馆;博物馆,140100,湖北省,咸宁市,咸安区,114.31944,29.983321
B0HADSD04M,[],咸宁市非物质文化遗产馆(暂停营业),科教文化服务;博物馆;博物馆,140100,湖北省,咸宁市,咸安区,114.314653,29.857475
B0FFGBI9HP,[],咸宁地质博物馆,科教文化服务;博物馆;博物馆,140100,湖北省,咸宁市,咸安区,114.333382,29.807524
B0H0KSPXSE,[],通城县博物馆,科教文化服务;博物馆;博物馆,140100,湖北省,咸宁市,通城县,113.827375,29.245359
B0JBL1RL2X,[],雀寨自然博物馆,科教文化服务;博物馆;博物馆,140100,湖北省,咸宁市,通山县,114.431633,29.650311
B0FFL54DHI,[],旗黄中药博物馆,科教文化服务;博物馆;博物馆,140100,湖北省,咸宁市,通山县,114.46113,29.613079
B0IBG5R8VW,[],长江乌木文化博物馆,科教文化服务;博物馆;博物馆,140100,湖北省,咸宁市,嘉鱼县,113.985825,30.27414
B0FFLG0WAJ,[],中国青砖茶博物馆,科教文化服务;博物馆;博物馆,140100,湖北省,咸宁市,赤壁市,113.751493,29.539096
B0I63HWHHQ,[],田野农博馆,科教文化服务;博物馆;博物馆,140100,湖北省,咸宁市,嘉鱼县,113.962,29.921709
B0IRGD9WLD,[],崇阳县博物馆,科教文化服务;博物馆;博物馆,140100,湖北省,咸宁市,崇阳县,114.015687,29.548313
B0FFL06PH7,[],崇宁宝堂民间收藏博物馆,科教文化服务;博物馆;博物馆,140100,湖北省,咸宁市,崇阳县,114.053165,29.539118
B0G057J9WD,[],罗托文化博物馆,科教文化服务;博物馆;博物馆,140100,湖北省,咸宁市,通城县,113.949364,29.335875
B0FFM1Y3NW,309,咸宁职业技术学院校史博物馆,科教文化服务;博物馆;博物馆,140100,湖北省,咸宁市,咸安区,114.313093,29.829183
B0FFG9VSNF,[],通山县博物馆,科教文化服务;博物馆;博物馆,140100,湖北省,咸宁市,通山县,114.482616,29.618297
B02CB0NO91,324,通城县文化馆,科教文化服务;博物馆;博物馆,140100,湖北省,咸宁市,通城县,113.81458,29.244601
B02C70LUAY,寒溪路7号,湖北省,鄂州市,科教文化服务;博物馆;博物馆,鄂城区,鄂州博物馆,"114.876373,30.410177",114.876373,30.410177
B0HDSD7B2F,燕矶大道与龙山路交叉口西380米,湖北省,鄂州市,科教文化服务;博物馆;博物馆,鄂城区,鄂州市鄂城区嵩山百节龙博物馆,"115.004189,30.389703",115.004189,30.389703
B0FFG9DSCT,土家女儿城12栋,湖北省,恩施土家族苗族自治州,科教文化服务;博物馆;博物馆,恩施市,土家民俗博物馆,"109.502986,30.270710",109.502986,30.27071
B0IUSCBTA0,芭蕉侗族乡玉露街,湖北省,恩施土家族苗族自治州,科教文化服务;博物馆;博物馆,恩施市,恩施玉露博物馆,"109.401835,30.125920",109.401835,30.12592
B0FFJK1ZI5,金桂大道恩施州文化中心内,湖北省,恩施土家族苗族自治州,科教文化服务;博物馆;博物馆,恩施市,恩施土家族苗族自治州博物馆,"109.496759,30.305669",109.496759,30.305669
B0FFK2VCST,凤天路与学院路交叉口东北240米,湖北省,恩施土家族苗族自治州,科教文化服务;博物馆;博物馆,恩施市,恩施州文化中心民俗博物馆,"109.490588,30.299902",109.490588,30.299902
B0FFGDRKHC,公园街6号,湖北省,恩施土家族苗族自治州,科教文化服务;博物馆;博物馆,恩施市,恩施市博物馆,"109.477729,30.262440",109.477729,30.26244
B0FFGBTRKG,公园街6号,湖北省,恩施土家族苗族自治州,科教文化服务;博物馆;博物馆,恩施市,恩施抗战历史陈列馆,"109.477672,30.262438",109.477672,30.262438
B0FFKCX70O,民族博物馆,湖北省,恩施土家族苗族自治州,科教文化服务;博物馆;博物馆,咸丰县,咸丰县民族博物馆,"109.133811,29.669027",109.133811,29.669027
B0FFG50Q05,沿江大道99号,湖北省,恩施土家族苗族自治州,科教文化服务;博物馆;博物馆,巴东县,巴东博物馆,"110.345810,31.046696",110.34581,31.046696
B0I145CAAY,人民路文体中心,湖北省,恩施土家族苗族自治州,科教文化服务;博物馆;博物馆,宣恩县,宣恩县博物馆(暂停营业),"109.491371,29.984775",109.491371,29.984775
B0FFLJRLVI,红土中路158号,湖北省,恩施土家族苗族自治州,科教文化服务;博物馆;博物馆,建始县,启航文化传媒,"109.704216,30.604254",109.704216,30.604254
B0HDMSSPEH,将军路169西北方向30米,湖北省,恩施土家族苗族自治州,科教文化服务;博物馆;博物馆,巴东县,民族文化博物馆,"110.325153,30.614708",110.325153,30.614708
B0FFMH8RQ6,信陵镇巴山路132号,湖北省,恩施土家族苗族自治州,科教文化服务;博物馆;博物馆,巴东县,巴东县海山文化传媒有限公司,"110.332557,31.036834",110.332557,31.036834
B02CE0PU6M,段德昌路7号,湖北省,恩施土家族苗族自治州,科教文化服务;博物馆;博物馆,鹤峰县,鹤峰县博物馆,"110.035846,29.885059",110.035846,29.885059
B02C90006W,将军路5号,湖北省,黄冈市,科教文化服务;博物馆;博物馆,麻城市,麻城博物馆(暂停营业),"115.020653,31.179571",115.020653,31.179571
B02C90OSG2,公园路7号,湖北省,黄冈市,科教文化服务;博物馆;博物馆|风景名胜;风景名胜相关;旅游景点,黄州区,黄冈市博物馆(旧馆),"114.867705,30.452735",114.867705,30.452735
B02C900FDQ,玉湖路239号,湖北省,黄冈市,科教文化服务;博物馆;博物馆,武穴市,武穴市博物馆,"115.548740,29.851837",115.54874,29.851837
B02C9005RH,黄梅镇五祖大道134号,湖北省,黄冈市,科教文化服务;博物馆;博物馆,黄梅县,黄梅县博物馆,"115.942493,30.076768",115.942493,30.076768
B0FFL3HSM2,中环路与涵晖北路交叉口东北60米,湖北省,黄冈市,科教文化服务;博物馆;博物馆,黄州区,对面墩汉墓遗址博物馆,"114.882275,30.463069",114.882275,30.463069
B02C902KX7,新华正街349号,湖北省,黄冈市,科教文化服务;博物馆;博物馆,浠水县,浠水县博物馆,"115.268590,30.451394",115.26859,30.451394
B02C900597,文庙街25号,湖北省,黄冈市,科教文化服务;博物馆;博物馆,罗田县,罗田县博物馆,"115.399118,30.783051",115.399118,30.783051
B0FFGM1DF2,明珠大道110号(东方广场西侧),湖北省,黄冈市,科教文化服务;博物馆;博物馆,黄州区,黄冈博物馆,"114.910440,30.468635",114.91044,30.468635
B02C902LMU,东门路151号黄冈市文化和旅游局,湖北省,黄冈市,科教文化服务;博物馆;博物馆,黄州区,黄冈市民俗博物馆,"114.907985,30.470912",114.907985,30.470912
B0FFFYUP35,漕河镇濒湖公园,湖北省,黄冈市,科教文化服务;博物馆;博物馆,蕲春县,蕲春县博物馆(暂停营业),"115.443405,30.221491",115.443405,30.221491
B0FFG0VWU7,109省道东100米,湖北省,黄冈市,科教文化服务;博物馆;博物馆,红安县,红安博物馆,"114.589962,31.258714",114.589962,31.258714
B0IUUR24XC,站前大道滨河西路465号,湖北省,黄冈市,科教文化服务;博物馆;博物馆,黄梅县,黄梅县博物馆,"115.955107,30.094764",115.955107,30.094764
B0FFHIKLHZ,体育路21号,湖北省,黄冈市,科教文化服务;博物馆;博物馆,黄州区,黄冈市黄州区博物馆,"114.875344,30.455988",114.875344,30.455988
B0HDG5NGFL,蕲春县东壁大道,湖北省,黄冈市,科教文化服务;博物馆;博物馆,蕲春县,蕲春县博物馆(新址),"115.421809,30.220013",115.421809,30.220013
B0FFKZWDXA,新港二路师范学院大学生活动中心,湖北省,黄冈市,科教文化服务;博物馆;博物馆,黄州区,大别山农耕文化博物馆,"114.925588,30.454938",114.925588,30.454938
B0FFFHD4J0,黄冈经济开发区新港二路146号黄冈师范学院西2门对面,湖北省,黄冈市,科教文化服务;博物馆;博物馆,黄州区,大别山地质博物馆,"114.921929,30.448945",114.921929,30.448945
B0FFKBJB64,友谊街82号,湖北省,黄冈市,科教文化服务;博物馆;博物馆,蕲春县,大别山书画院,"115.439348,30.241022",115.439348,30.241022
B02CA00OJE,团城山广会路12号,湖北省,黄石市,科教文化服务;博物馆;博物馆,下陆区,黄石市博物馆,"115.041958,30.197013",115.041958,30.197013
B02CA00SSO,直辖村模拟镇建设路2号,湖北省,黄石市,科教文化服务;博物馆;博物馆,铁山区,大冶铁矿博物馆,"114.902342,30.208135",114.902342,30.208135
B0FFMCEARN,花湖大道30号万达写字楼B座1710室,湖北省,黄石市,科教文化服务;博物馆;博物馆,黄石港区,黄石美音文化传媒有限公司,"115.060281,30.243345",115.060281,30.243345
B0FFFZVGH2,湛月路2号(青铜文化广场西南角),湖北省,黄石市,科教文化服务;博物馆;博物馆,大冶市,大冶市博物馆,"114.981345,30.093960",114.981345,30.09396
B0FFFHCD9R,红旗桥社区工作管理委员会五羊巷,湖北省,黄石市,科教文化服务;博物馆;博物馆,黄石港区,湖北水泥遗址博物馆,"115.082441,30.221299",115.082441,30.221299
B0G0AYT6PG,汪仁镇盛家滩20,湖北省,黄石市,科教文化服务;博物馆;博物馆,大冶市,清风奇石店,"115.108607,30.132539",115.108607,30.132539
B0HDR5T8YR,[],湖北省,黄石市,科教文化服务;博物馆;博物馆,大冶市,新四军谈桥农耕文化博物馆,"114.756549,29.988617",114.756549,29.988617
B0FFIIGX3J,经济技术开发区园博园大道北侧(黄石园博园对面),湖北省,黄石市,科教文化服务;博物馆;博物馆,大冶市,湖北(黄石)地质博物馆,"115.054430,30.111159",115.05443,30.111159
B0FFJ2V918,金湖街办泉塘村熊家湾100号铜绿山古铜矿遗址(西北角),湖北省,黄石市,科教文化服务;博物馆;博物馆,大冶市,大冶市铜绿山古铜矿遗址博物馆,"114.943522,30.081377",114.943522,30.081377
B0IRCZ3FA7,荆门园博园内,湖北省,荆门市,科教文化服务;博物馆;博物馆,掇刀区,荆门自然博物馆,"112.175966,31.015117",112.175966,31.015117
B02D40NPLY,子陵镇石莲村1组,湖北省,荆门市,科教文化服务;博物馆;博物馆,东宝区,蜜蜂博物馆,"112.152753,31.042318",112.152753,31.042318
B0HGNMKYHS,荆山大道28号,湖北省,荆门市,科教文化服务;博物馆;博物馆,掇刀区,荆门市博物馆新馆,"112.173720,31.005362",112.17372,31.005362
B02D401LGC,020县道,湖北省,荆门市,科教文化服务;博物馆;博物馆,沙洋县,沙洋油菜博物馆,"112.558980,30.687546",112.55898,30.687546
B0FFJD42JS,白云大道五十五号古玩城43号门店,湖北省,荆门市,科教文化服务;博物馆;博物馆,东宝区,藏乐堂,"112.206391,31.026516",112.206391,31.026516
B02D40NPM7,新市镇文峰西路10号,湖北省,荆门市,科教文化服务;博物馆;博物馆,京山市,京山市博物馆,"113.117253,31.014295",113.117253,31.014295
B0FFF8ZHXM,莫愁湖路28号,湖北省,荆门市,科教文化服务;博物馆;博物馆,钟祥市,钟祥市博物馆,"112.618810,31.182896",112.61881,31.182896
B0FFG7TOVD,川店镇张场村,湖北省,荆州市,风景名胜;风景名胜;国家级景点|科教文化服务;博物馆;博物馆,荆州区,楚王车马阵景区,"112.013563,30.612767",112.013563,30.612767
B02CC000CB,荆州中路166号,湖北省,荆州市,科教文化服务;博物馆;博物馆,荆州区,荆州博物馆,"112.180126,30.353465",112.180126,30.353465
B02CC024SM,笔架山路57号,湖北省,荆州市,科教文化服务;博物馆;博物馆,石首市,石首市博物馆,"112.432625,29.720296",112.432625,29.720296
B0H11ZPCI2,沙隆达农药厂附近沿江大道,湖北省,荆州市,科教文化服务;博物馆;博物馆,沙市区,荆楚非遗传承院,"112.306579,30.269763",112.306579,30.269763
B02CC000CA,新堤街道玉沙路29号,湖北省,荆州市,科教文化服务;博物馆;博物馆,洪湖市,洪湖革命历史博物馆,"113.462676,29.814387",113.462676,29.814387
B02CC0O8JG,沿江大道西33号,湖北省,荆州市,科教文化服务;博物馆;博物馆,监利市,监利博物馆,"112.885493,29.811273",112.885493,29.811273
B0GK3DTON6,新沟镇付柳村,湖北省,荆州市,科教文化服务;博物馆;博物馆,监利市,监利农村民俗博物馆,"112.894730,30.150621",112.89473,30.150621
B02CF01YPG,五堰街道北京北路91号,湖北省,十堰市,科教文化服务;博物馆;博物馆,茅箭区,十堰博物馆,"110.795951,32.641949",110.795951,32.641949
B02CF0QDE8,城关镇郧阳路文化东巷6号,湖北省,十堰市,科教文化服务;博物馆;博物馆,郧阳区,郧阳博物馆,"110.809845,32.836034",110.809845,32.836034
B0HB7C2GEX,郧阳区经济开发区朱家湾,湖北省,十堰市,科教文化服务;博物馆;博物馆,郧阳区,十堰张湾培长报纸博物馆,"110.810006,32.759774",110.810006,32.759774
B0GUXZ9GF7,银河路亿科红郡3号楼,湖北省,十堰市,科教文化服务;博物馆;博物馆,张湾区,湖北城市目光影视传媒有限公司,"110.783476,32.666240",110.783476,32.66624
B02CF0QXTZ,武当山特区博物馆路14号,湖北省,十堰市,科教文化服务;博物馆;博物馆,丹江口市,武当博物馆,"111.083830,32.515475",111.08383,32.515475
B0IRMCLK8J,云盖寺绿松石国家矿山公园内,湖北省,十堰市,科教文化服务;博物馆;博物馆,郧阳区,云盖寺绿松石矿山博物馆(建设中),"110.313336,32.737895",110.313336,32.737895
B0FFJF0NJK,三官殿街道北京路120号,湖北省,十堰市,科教文化服务;博物馆;博物馆,丹江口市,丹江口市博物馆,"111.487819,32.538698",111.487819,32.538698
B02CF0QRR1,凯旋大道127号,湖北省,十堰市,科教文化服务;博物馆;博物馆,张湾区,武当农博馆,"110.762505,32.683982",110.762505,32.683982
B0FFL0W6P6,Z040与Z035交叉口西60米,湖北省,十堰市,科教文化服务;博物馆;博物馆,竹溪县,竹溪生漆博物馆,"109.741655,32.232224",109.741655,32.232224
B0GDLUHRA4,水坪镇向家汇东南,湖北省,十堰市,科教文化服务;博物馆;博物馆,竹溪县,红色记忆博物馆,"109.808089,32.330708",109.808089,32.330708
B0FFKR9CHT,城关镇诗经文化公园内,湖北省,十堰市,科教文化服务;博物馆;博物馆,房县,罗国士艺术博物馆,"110.725791,32.045256",110.725791,32.045256
B02CF0QXBW,武当山风景区028乡道,湖北省,十堰市,科教文化服务;博物馆;博物馆,丹江口市,武当山地质博物馆,"111.082356,32.536896",111.082356,32.536896
B0H3A5BA1O,中西关街与房陵西大道交叉口北280米,湖北省,十堰市,科教文化服务;博物馆;博物馆,房县,房州民俗博物馆,"110.724147,32.058208",110.724147,32.058208
B0IUC71W7G,大雅路与新水厂路交叉口南160米,湖北省,十堰市,科教文化服务;博物馆;博物馆,房县,房县一中党史教育展览馆,"110.724154,32.044102",110.724154,32.044102
B0FFL3I65O,习六路,湖北省,十堰市,科教文化服务;博物馆;博物馆,丹江口市,丹江口市南水北调均县镇集镇原址博物馆,"111.137896,32.653542",111.137896,32.653542
B0I3HA6H7N,蔡湾村村民委员会东北侧250米,湖北省,十堰市,科教文化服务;博物馆;博物馆,丹江口市,中国南水北调博物馆(建设中),"111.469201,32.553122",111.469201,32.553122
B0G0D62XZF,诗经文化广场市民之家A栋,湖北省,十堰市,科教文化服务;博物馆;博物馆,房县,房县博物馆,"110.723849,32.043954",110.723849,32.043954
B0GU7RIHC9,城北大道,湖北省,十堰市,科教文化服务;博物馆;博物馆,竹溪县,老家记忆博物馆,"109.756054,32.314349",109.756054,32.314349
B0FFGZB578,305国道国际绿松石城1号,湖北省,十堰市,科教文化服务;博物馆;博物馆,竹山县,国际绿松石博物馆,"110.241663,32.211504",110.241663,32.211504
B02D2001HK,擂鼓墩大道98号(二桥头西),湖北省,随州市,科教文化服务;博物馆;博物馆,曾都区,随州市博物馆,"113.356195,31.727138",113.356195,31.727138
B02D201L8N,洛阳镇玉龙千年银杏谷附近,湖北省,随州市,科教文化服务;博物馆;博物馆,曾都区,胡氏祠农耕民俗博物馆,"113.335097,31.431830",113.335097,31.43183
B0FFL43PRZ,印台山公园,湖北省,随州市,科教文化服务;博物馆;博物馆,广水市,广水市博物馆,"113.828538,31.614290",113.828538,31.61429
